,종목코드,회사명,시장구분,업종,업종명,항목명,2022,2021,2020,cc,est_dt,induty_code,address,corp_code,corp_name,stock_code,rlgnm,gu,x,y
0,60310,3S,코스닥시장상장법인,292,특수 목적용 기계 제조업,영업이익,"-1,408,265,950","467,181,073","1,662,145,638",378363,19910128,262,서울특별시 금천구 가산디지털1로 75-24 1310호,378363,3S,60310,서울특별시,금천구,126.883298415,37.472859194
1,95570,AJ네트웍스,유가증권시장상장법인,763,산업용 기계 및 장비 임대업,영업이익(손실),"45,109,542,821","21,089,140,851","15,649,322,684",365387,20000210,76320,"서울특별시 송파구 정의로8길 9 (문정동,AJ빌딩)",365387,AJ네트웍스,95570,서울특별시,송파구,127.116776361,37.486227366
2,6840,AK홀딩스,유가증권시장상장법인,649,기타 금융업,영업이익(손실),"-165,714,944,091","-221,554,817,267","131,336,891,859",125080,19701013,64992,서울특별시 마포구 양화로 188 -,125080,AK홀딩스,6840,서울특별시,마포구,126.92677875,37.55744526
5,27410,BGF,유가증권시장상장법인,649,기타 금융업,영업이익,"11,499,330,314","14,640,997,513","26,355,506,906",219097,19941201,64992,서울특별시 강남구 테헤란로 405,219097,BGF,27410,서울특별시,강남구,127.049820017,37.505195121
6,282330,BGF리테일,유가증권시장상장법인,471,종합 소매업,영업이익(손실),"199,441,703,668","162,204,243,583","196,623,293,754",1263022,20171101,47122,서울특별시 강남구 테헤란로 405 BGF사옥,1263022,BGF리테일,282330,서울특별시,강남구,127.049820017,37.505195121
7,32790,BNGT,코스닥시장상장법인,465,기계장비 및 관련 물품 도매업,영업이익(손실),"121,670,608","-261,517,233","-3,428,136,777",110884,19730921,465,서울특별시 서초구 효령로 83 엠젠플러스빌딩 (방배동),110884,엠젠솔루션,32790,서울특별시,서초구,126.993324604,37.480360753
8,1460,BYC,유가증권시장상장법인,141,봉제의복 제조업,영업이익,"26,711,346,464","22,940,934,002","23,393,686,890",122579,19550513,14120,서울특별시 영등포구 도림천로21길 3,122579,BYC,1460,서울특별시,영등포구,126.901494133,37.486653061
10,79160,CJ CGV,유가증권시장상장법인,591,"영화, 비디오물, 방송 프로그램 제작 및 배급업",영업이익(손실),"-241,445,734,017","-388,660,290,864","121,975,391,246",303873,19990330,59141,서울특별시 용산구 한강대로23길 55 아이파크몰 6층(한강로동),303873,CJ CGV,79160,서울특별시,용산구,126.964860965,37.529839228
11,35760,CJ ENM,코스닥시장상장법인,602,텔레비전 방송업,영업이익,"296,876,105,378","272,067,865,192","269,385,174,265",265324,19941216,602,서울특별시 서초구  과천대로 870-13,265324,CJ ENM,35760,서울특별시,서초구,126.987984937,37.46904671
12,311690,CJ 바이오사이언스,코스닥시장상장법인,701,자연과학 및 공학 연구개발업,영업이익(손실),"-10,108,067,067","-8,513,222,577","-4,518,862,465",1071041,20091118,701,서울특별시 중구 세종대로 14 그랜드센트럴타워 B동 7층,1071041,CJ 바이오사이언스,311690,서울특별시,중구,126.974434559,37.557851588
13,97950,CJ제일제당,유가증권시장상장법인,107,기타 식품 제조업,영업이익,"1,524,429,392,000","1,359,551,440,000","896,857,873,000",635134,20070904,10720,서울특별시 중구  동호로 330,635134,CJ제일제당,97950,서울특별시,중구,127.003293395,37.564009128
16,56000,COWON,코스닥시장상장법인,582,소프트웨어 개발 및 공급업,영업이익(손실),"-6,203,980,662","352,752,492","-3,572,681,847",361266,19960911,582,서울특별시 강남구 언주로 540 코원타워 5층,361266,코원플레이,56000,서울특별시,강남구,127.041052443,37.506601532
18,83660,CSA 코스믹,코스닥시장상장법인,204,기타 화학제품 제조업,영업이익(손실),"1,999,698,281","-787,279,044","-5,727,834,998",406037,19891107,204,서울특별시 강남구 학동로30길 20 -,406037,CSA 코스믹,83660,서울특별시,강남구,127.032062915,37.512786675
20,12030,DB,유가증권시장상장법인,620,"컴퓨터 프로그래밍, 시스템 통합 및 관리업",영업이익(손실),"23,472,667,404","26,874,196,003","18,493,009,586",163345,19770315,62021,서울특별시 강남구 삼성로96길 23 7층,163345,DB,12030,서울특별시,강남구,127.05766543,37.509329737
23,17940,E1,유가증권시장상장법인,467,기타 전문 도매업,영업이익,"5,575,314,498","39,530,859,081","106,309,924,596",165583,19840906,46713,서울특별시 용산구 한강대로 92 LS용산타워,165583,E1,17940,서울특별시,용산구,126.967806539,37.527921019
27,365550,ESR켄달스퀘어리츠,유가증권시장상장법인,681,부동산 임대 및 공급업,영업이익(손실),"8,103,527,181","-713,932,977","-126,194,000",1437186,20200220,681,"서울특별시 영등포구 국제금융로 10 (여의도동, 서울국제금융센터) 35층",1437186,ESR켄달스퀘어리츠,365550,서울특별시,영등포구,126.926796859,37.525435705
28,365550,ESR켄달스퀘어리츠,유가증권시장상장법인,681,부동산 임대 및 공급업,영업이익(손실),"14,730,254,206","8,103,527,181","-713,932,977",1437186,20200220,681,"서울특별시 영등포구 국제금융로 10 (여의도동, 서울국제금융센터) 35층",1437186,ESR켄달스퀘어리츠,365550,서울특별시,영등포구,126.926796859,37.525435705
29,50120,ES큐브,코스닥시장상장법인,464,생활용품 도매업,영업이익(손실),"283,187,246","10,315,988,227","-2,617,071,032",175623,19770620,46419,"서울특별시 강남구 강남대로 556 12층(논현동, 논현빌딩)",175623,ES큐브,50120,서울특별시,강남구,127.021574534,37.511512842
30,383220,F&F,유가증권시장상장법인,141,봉제의복 제조업,영업이익(손실),"322,683,779,494",,,1568413,20210503,14111,서울특별시 강남구 언주로 541,1568413,F&F,383220,서울특별시,강남구,127.040426432,37.506229767
31,7700,F&F 홀딩스,유가증권시장상장법인,649,기타 금융업,영업이익(손실),"223,050,455,460","-4,376,662,656","150,736,275,367",126487,19720224,64992,"서울특별시 강남구  언주로 541(역삼동,외 에프앤에프빌딩)",126487,F&F 홀딩스,7700,서울특별시,강남구,127.040426432,37.506229767
32,214270,FSN,코스닥시장상장법인,582,소프트웨어 개발 및 공급업,영업이익(손실),"10,174,967,331","4,349,239,254","7,736,948,508",1061497,20150116,582,서울특별시 강남구 언주로 637 싸이칸타워,1061497,FSN,214270,서울특별시,강남구,127.035036534,37.513363681
34,114090,GKL,유가증권시장상장법인,912,유원지 및 기타 오락관련 서비스업,영업이익(손실),"-145,828,746,668","-88,810,804,534","96,802,634,482",557508,20050906,91249,서울특별시 강남구 삼성로 610 삼성동,557508,GKL,114090,서울특별시,강남구,127.053154258,37.514106907
37,7070,GS리테일,유가증권시장상장법인,471,종합 소매업,영업이익(손실),"208,469,084,873","252,567,215,539","238,835,955,920",140177,19710213,47122,서울특별시 강남구 논현로 508GS타워(역삼동 679),140177,GS리테일,7070,서울특별시,강남구,127.03747601,37.502001742
40,39570,HDC랩스,유가증권시장상장법인,423,전기 및 통신 공사업,영업이익(손실),"9,666,853,635","15,323,582,080","12,952,774,365",350312,19990917,423,서울특별시 서초구 효령로 346 서초 HDC랩스 타워,350312,HDC랩스,39570,서울특별시,서초구,127.022010719,37.48632425
45,11200,HMM,유가증권시장상장법인,501,해상 운송업,영업이익(손실),"7,377,522,000,000","980,781,000,000","-299,694,000,000",164645,19760325,50112,"서울특별시 영등포구 여의대로 108 (여의도동, 파크원 타워1)",164645,HMM,11200,서울특별시,영등포구,126.927176775,37.526637268
48,99520,ITX-AI,코스닥시장상장법인,265,영상 및 음향 기기 제조업,영업손실,"-6,908,854,130","-2,021,117,848","-2,865,782,259",627029,19980227,26519,서울특별시 금천구  가산디지털1로 212 코오롱디지털타워애스턴 906호,627029,ITX-AI,99520,서울특별시,금천구,126.880609529,37.484428673
51,67290,JW신약,코스닥시장상장법인,212,의약품 제조업,영업이익(손실),"3,426,120,278","-553,595,623","1,145,720,471",110431,19810813,212,서울특별시 서초구 남부순환로 2477,110431,JW신약,67290,서울특별시,서초구,127.021236012,37.483164656
52,1060,JW중외제약,유가증권시장상장법인,212,의약품 제조업,영업이익(손실),"31,199,849,285","-1,322,981,932","-19,013,830,488",149947,19450808,21210,서울특별시 서초구  남부순환로 2477,149947,JW중외제약,1060,서울특별시,서초구,127.021236012,37.483164656
53,96760,JW홀딩스,유가증권시장상장법인,649,기타 금융업,영업이익(손실),"68,728,818,585","37,328,838,793","6,014,833,499",632304,20070703,64992,서울특별시 서초구  남부순환로 2477,632304,JW홀딩스,96760,서울특별시,서초구,127.021236012,37.483164656
54,35900,JYP Ent.,코스닥시장상장법인,592,오디오물 출판 및 원판 녹음업,영업이익(손실),"57,903,761,113","44,136,482,815","43,458,524,745",258689,19960425,59201,"서울특별시 강동구 강동대로 205 (성내동, JYP Center 빌딩)",258689,JYP Ent.,35900,서울특별시,강동구,127.129120509,37.524152386
56,9440,KC그린홀딩스,유가증권시장상장법인,649,기타 금융업,영업이익(손실),"20,403,955,271","-47,920,726,519","21,512,406,420",159971,19731127,64992,서울특별시 마포구 상암산로 34디지털큐브 12층,159971,KC그린홀딩스,9440,서울특별시,마포구,126.88925856,37.576179054
57,119650,KC코트렐,유가증권시장상장법인,291,일반 목적용 기계 제조업,영업이익(손실),"4,647,615,173","-44,693,530,573","8,504,680,068",797364,20100106,291,서울특별시 마포구 상암산로 34디지털큐브 12층,797364,KC코트렐,119650,서울특별시,마포구,126.88925856,37.576179054
59,92220,KEC,유가증권시장상장법인,261,반도체 제조업,Ⅳ.영업이익(손실),"26,525,638,383","-2,337,589,190","-6,954,032,912",589127,20060912,2612,서울특별시 서초구  마방로10길 5,589127,KEC,92220,서울특별시,서초구,127.043288361,37.477058902
61,16380,KG동부제철,유가증권시장상장법인,241,1차 철강 제조업,영업이익,"296,911,904,979","110,778,751,212","34,639,840,274",115676,19821027,24122,서울특별시 중구 한강대로 416 서울스퀘어 7층,115676,KG스틸,16380,서울특별시,중구,126.973762803,37.555521882
62,46440,KG모빌리언스,코스닥시장상장법인,582,소프트웨어 개발 및 공급업,영업이익,"47,500,748,499","45,704,826,491","34,781,044,256",405278,20000317,582,서울특별시 중구 통일로 92 케이지타워 16층,405278,KG모빌리언스,46440,서울특별시,중구,126.969233671,37.563579965
63,35600,KG이니시스,코스닥시장상장법인,582,소프트웨어 개발 및 공급업,영업이익,"106,647,236,661","98,005,684,762","82,217,853,896",264547,19981103,58221,"서울특별시 중구 통일로 92 케이지타워 14,15층",264547,KG이니시스,35600,서울특별시,중구,126.969233671,37.563579965
65,226360,KH E&T,코스닥시장상장법인,412,토목 건설업,영업이익,"511,496,373","2,611,941,420","3,620,162,512",1097906,20150728,412,"서울특별시 금천구 가산디지털1로 165 1401호, 1402호 (가산동)",1097906,KH 건설,226360,서울특별시,금천구,126.881028105,37.48022811
70,122450,KMH,코스닥시장상장법인,602,텔레비전 방송업,영업이익(손실),"74,110,983,749","60,269,767,350","39,981,389,492",657987,20001019,60221,서울특별시 강동구 고덕비즈밸리로6길 90 9층,657987,KX,122450,서울특별시,강동구,127.161778839,37.566715801
73,25000,KPX케미칼,유가증권시장상장법인,201,기초 화학물질 제조업,영업이익,"44,680,350,533","64,118,011,388","48,429,544,337",191472,19740701,20119,서울특별시 마포구  마포대로 137  KPX빌딩,191472,KPX케미칼,25000,서울특별시,마포구,126.952614067,37.546793476
74,92230,KPX홀딩스,유가증권시장상장법인,201,기초 화학물질 제조업,영업이익(손실),"54,144,022,659","79,113,691,493","63,379,134,143",587466,20060901,201,서울특별시 마포구  마포대로 137 KPX빌딩 19층,587466,KPX홀딩스,92230,서울특별시,마포구,126.952614067,37.546793476
76,44450,KSS해운,유가증권시장상장법인,501,해상 운송업,영업이익(손실),"58,089,120,996","50,731,188,402","52,771,937,110",160232,19840627,50112,서울특별시 종로구 인사동길 12 대일빌딩 8층,160232,KSS해운,44450,서울특별시,종로구,126.987219861,37.571928579
78,93050,LF,유가증권시장상장법인,141,봉제의복 제조업,영업이익,"158,865,864,141","77,067,170,451","87,533,142,027",593032,20061103,14111,서울특별시 강남구 언주로 870 (신사동),593032,LF,93050,서울특별시,강남구,127.034055188,37.527983298
79,34220,LG디스플레이,유가증권시장상장법인,262,전자 부품 제조업,영업이익(손실),"2,230,608,000,000","-36,465,000,000","-1,359,382,000,000",105873,19850228,26211,서울특별시 영등포구 여의대로 128 LG트윈타워 (동관 12층),105873,LG디스플레이,34220,서울특별시,영등포구,126.929139246,37.527885439
80,37560,LG헬로비전,유가증권시장상장법인,602,텔레비전 방송업,영업이익(손실),"44,492,025,603","34,150,119,189","29,249,461,527",222532,19950331,60222,"서울특별시 마포구 월드컵북로56길 19 6층(상암동, 드림타워)",222532,LG헬로비전,37560,서울특별시,마포구,126.888369447,37.582339181
82,6260,LS,유가증권시장상장법인,649,기타 금융업,영업이익,"583,656,000,000","419,168,000,000","349,396,000,000",105952,19620515,64992,서울특별시 용산구 한강대로 92 LS용산타워 -,105952,LS,6260,서울특별시,용산구,126.967806539,37.527921019
84,229640,LS전선아시아,유가증권시장상장법인,649,기타 금융업,영업이익(손실),"28,199,819,675","16,082,164,575","25,954,854,598",1093007,20150515,64992,"서울특별시 용산구 한강대로 92 LS용산타워 4층(한강로2가, LS용산타워)",1093007,LS전선아시아,229640,서울특별시,용산구,126.967806539,37.527921019
87,160550,NEW,코스닥시장상장법인,591,"영화, 비디오물, 방송 프로그램 제작 및 배급업",영업이익(손실),"-499,604,543","1,854,741,101","-8,149,288,316",974927,20080625,591,서울특별시 강남구 학동로9길 5 -,974927,NEW,160550,서울특별시,강남구,127.024242336,37.512455245
88,60250,NHN한국사이버결제,코스닥시장상장법인,639,기타 정보 서비스업,영업이익(손실),"43,162,129,841","39,771,947,852","32,092,925,575",357740,19941228,639,서울특별시 구로구 디지털로26길 72 -,357740,NHN KCP,60250,서울특별시,구로구,126.896056355,37.480676892
89,400760,NH올원리츠,유가증권시장상장법인,681,부동산 임대 및 공급업,영업이익,"10,074,810,954","8,773,229,852","7,637,242,141",1480780,20191120,6812,서울특별시 영등포구 국제금융로8길 2 농협재단빌딩 5층,1480780,NH올원리츠,400760,서울특별시,영등포구,126.930048017,37.522017307
90,34310,NICE,유가증권시장상장법인,715,회사 본부 및 경영 컨설팅 서비스업,영업이익,"144,268,811,828","153,148,431,943","153,775,896,651",158316,19860911,715,서울특별시 영등포구 은행로 17 (여의도동) NICE 그룹 1사옥,158316,NICE,34310,서울특별시,영등포구,126.920758722,37.528309769
91,30190,NICE평가정보,코스닥시장상장법인,639,기타 정보 서비스업,영업이익(손실),"72,604,608,652","62,718,416,760","51,340,882,668",158325,19850228,63991,서울특별시 영등포구 은행로 17 NICE 그룹1사옥,158325,NICE평가정보,30190,서울특별시,영등포구,126.920758722,37.528309769
96,10950,S-Oil,유가증권시장상장법인,192,석유 정제품 제조업,영업이익(손실),"2,140,942,000,000","-1,099,146,000,000","420,077,000,000",138279,19760106,19210,서울특별시 마포구  백범로 192,138279,S-Oil,10950,서울특별시,마포구,126.951605597,37.543236686
98,34120,SBS,유가증권시장상장법인,602,텔레비전 방송업,영업이익(손실),"184,436,850,625","74,511,503,363","12,579,354,049",130772,19901114,60210,서울특별시 양천구  목동서로 161,130772,SBS,34120,서울특별시,양천구,0.0,0.0
99,46140,SBS콘텐츠허브,코스닥시장상장법인,591,"영화, 비디오물, 방송 프로그램 제작 및 배급업",영업이익,"11,070,548,397","7,236,537,047","1,924,267,179",280688,19990821,591,"서울특별시 마포구 상암산로 82 상암동, 에스비에스프리즘타워",280688,SBS콘텐츠허브,46140,서울특별시,마포구,126.892773947,37.579715921
100,36120,SCI평가정보,코스닥시장상장법인,639,기타 정보 서비스업,영업이익(손실),"10,140,263,114","8,297,353,870","6,923,879,571",260745,19920423,63991,서울특별시 영등포구 국회대로70길 23 -,260745,SCI평가정보,36120,서울특별시,영등포구,126.921000011,37.52888798
105,184230,SGA솔루션즈,코스닥시장상장법인,582,소프트웨어 개발 및 공급업,영업이익(손실),"3,713,782,292","3,894,094,194","-8,494,594,827",988364,20130905,582,서울특별시 송파구 정의로8길 9 에이제이빌딩 6층,988364,SGA솔루션즈,184230,서울특별시,송파구,127.116776361,37.486227366
106,5090,SGC에너지,유가증권시장상장법인,351,전기업,영업이익,"152,238,223,395","7,017,229,307",,125150,19670627,351,"서울특별시 서초구 양재대로 246 2층,3층 한국소비자원",125150,SGC에너지,5090,서울특별시,서초구,127.045050008,37.465908604
107,16250,SGC이테크건설,코스닥시장상장법인,411,건물 건설업,영업이익(손실),"69,077,041,588","-36,417,532,959","12,939,081,204",141246,19820914,4112,서울특별시 서초구 양재대로 246(염곡동),141246,SGC이테크건설,16250,서울특별시,서초구,127.045050008,37.465908604
109,4060,SG세계물산,유가증권시장상장법인,468,상품 종합 도매업,영업이익(손실),"-4,744,474,966","-20,761,642,679","109,548,210",133511,19641120,46800,"서울특별시 금천구 벚꽃로 278 6층(가산동,에스제이테크노빌)",133511,SG세계물산,4060,서울특별시,금천구,126.884596026,37.479565089
112,34730,SK,유가증권시장상장법인,649,기타 금융업,영업이익(손실),"4,935,539,000,000","-76,894,000,000","3,840,452,000,000",181712,19910413,64992,서울특별시 종로구 종로 26 SK주식회사,181712,SK,34730,서울특별시,종로구,126.980303531,37.569690909
118,68400,SK렌터카,유가증권시장상장법인,761,운송장비 임대업,영업이익,"79,052,712,765","70,795,481,401","41,540,309,044",201450,19880603,76110,서울특별시 구로구  서부샛길 822,201450,SK렌터카,68400,서울특별시,구로구,126.873125386,37.488503361
119,395400,SK리츠,유가증권시장상장법인,681,부동산 임대 및 공급업,영업이익(손실),"15,203,345,237","13,487,410,476",0,1535150,20210315,68112,서울특별시 중구 세종대로 136 15층,1535150,SK리츠,395400,서울특별시,중구,126.978283977,37.568415004
120,395400,SK리츠,유가증권시장상장법인,681,부동산 임대 및 공급업,영업이익(손실),"13,487,410,476",0,,1535150,20210315,68112,서울특별시 중구 세종대로 136 15층,1535150,SK리츠,395400,서울특별시,중구,126.978283977,37.568415004
121,361610,SK아이이테크놀로지,유가증권시장상장법인,282,일차전지 및 축전지 제조업,영업이익,"89,175,689,000","125,218,840,000","80,556,055,000",1386916,20190401,282,"서울특별시 종로구 종로 26 (서린동, SK서린동빌딩)",1386916,SK아이이테크놀로지,361610,서울특별시,종로구,126.980303531,37.569690909
122,96770,SK이노베이션,유가증권시장상장법인,192,석유 정제품 제조업,영업이익,"1,754,170,704,000","-2,420,286,372,000","1,291,477,755,000",631518,20070703,192,서울특별시 종로구  종로 26,631518,SK이노베이션,96770,서울특별시,종로구,126.980303531,37.569690909
125,48550,SM C&C,코스닥시장상장법인,713,광고업,영업이익(손실),"1,233,965,509","-4,355,746,982","4,811,417,894",185046,19800513,713,"서울특별시 성동구 왕십리로 83-21 디타워동 14층(성수동1가, 아크로 서울포레스트)",185046,SM C&C,48550,서울특별시,성동구,127.043686184,37.545012712
130,36530,SNT홀딩스,유가증권시장상장법인,649,기타 금융업,영업이익(손실),"125,567,101,979","127,086,172,680","126,277,061,201",225159,19820927,64992,서울특별시 강남구 테헤란로 124 11층(역삼동),225159,SNT홀딩스,36530,서울특별시,강남구,127.031703098,37.498784306
136,89230,THE E&M,코스닥시장상장법인,639,기타 정보 서비스업,영업이익(손실),"3,527,300,569","4,490,907,280","7,897,754,682",519252,20020708,639,서울특별시 서초구 강남대로101안길 41 .,519252,THE E&M,89230,서울특별시,서초구,127.016554928,37.5157275
137,161570,THE MIDONG,코스닥시장상장법인,265,영상 및 음향 기기 제조업,영업손익,"-3,127,080,685","-4,296,889,358","-3,633,247,541",945208,20090624,26519,서울특별시 서초구 남부순환로 2652 대명빌딩 7층,945208,THE MIDONG,161570,서울특별시,서초구,127.040851652,37.485234535
138,192410,THQ,코스닥시장상장법인,264,통신 및 방송장비 제조업,영업이익(손실),"3,253,502,795","-11,779,312,630","3,645,310,129",623184,19971015,2642,"서울특별시 중구 세종대로 136 7층(태평로1가, 서울파이낸스센터)",623184,휴림네트웍스,192410,서울특별시,중구,126.978283977,37.568415004
139,32540,TJ미디어,코스닥시장상장법인,265,영상 및 음향 기기 제조업,영업이익(손실),"2,825,653,678","-2,716,404,461","451,684,120",201733,19910418,265,서울특별시 마포구 월드컵북로 434 (상암동 1590) 상암아이티타워 8층,201733,TJ미디어,32540,서울특별시,마포구,126.886067746,37.581625692
141,317240,TS트릴리온,코스닥시장상장법인,204,기타 화학제품 제조업,영업이익(손실),"-7,640,072,243","3,660,868,407","4,806,169,467",1353024,20190111,204,"서울특별시 영등포구 양평로 96 1층,6층,8층(양평동4가,티에스빌딩)",1353024,TS트릴리온,317240,서울특별시,영등포구,126.896768613,37.536695001
142,2900,TYM,유가증권시장상장법인,292,특수 목적용 기계 제조업,영업이익,"35,264,240,176","29,086,927,861","13,702,069,676",117230,19600201,29210,서울특별시 강남구 언주로133길 7,117230,TYM,2900,서울특별시,강남구,127.034646771,37.516047046
143,38340,UCI,코스닥시장상장법인,855,일반 교습학원,영업이익(손실),"-4,001,971,492","-7,803,741,384","-5,014,579,152",215976,19670407,262,"서울특별시 구로구 디지털로33길 48 604호(구로동, 대륭포스트타워7차)",215976,MIT,38340,서울특별시,구로구,126.894498106,37.487245246
145,57030,YBM넷,코스닥시장상장법인,857,교육 지원 서비스업,영업이익(손실),"3,634,171,515","-1,202,891,905","2,627,667,962",307222,20000607,857,서울특별시 종로구 종로 98 지상 4층~9층,307222,YBM넷,57030,서울특별시,종로구,126.988388641,37.569905248
146,37270,YG PLUS,유가증권시장상장법인,631,"자료 처리, 호스팅, 포털 및 기타 인터넷 정보 매개 서비스업",영업이익(손실),"25,571,451,133","6,138,629,198","4,526,335,675",249247,19961115,631,"서울특별시 영등포구 국제금융로 10 19층, (여의도동, 쓰리아이에프씨)",249247,YG PLUS,37270,서울특별시,영등포구,126.92593686,37.525058399
147,40300,YTN,코스닥시장상장법인,591,"영화, 비디오물, 방송 프로그램 제작 및 배급업",영업이익,"3,368,004,839","2,671,990,470","491,889,398",200275,19930914,591,서울특별시 마포구 상암산로 76와이티엔뉴스퀘어,200275,YTN,40300,서울특별시,마포구,126.892333689,37.579218699
149,52220,iMBC,코스닥시장상장법인,631,"자료 처리, 호스팅, 포털 및 기타 인터넷 정보 매개 서비스업",영업이익,"2,341,141,221","1,118,515,098","1,726,915,616",370006,20000311,631,"서울특별시 마포구 성암로 25510층(상암동, 문화방송미디어센터)",370006,iMBC,52220,서울특별시,마포구,0.0,0.0
154,217730,강스템바이오텍,코스닥시장상장법인,211,기초 의약 물질 및 생물학적 제제 제조업,영업손실,"-22,735,544,454","-18,725,364,550","-23,153,708,426",1025644,20101029,21102,서울특별시 강남구 테헤란로 512 신안빌딩 17층,1025644,강스템바이오텍,217730,서울특별시,강남구,127.059248564,37.507245372
158,2100,경농,유가증권시장상장법인,203,"비료, 농약 및 살균ㆍ살충제 제조업",영업이익,"16,758,990,471","14,281,976,627","8,690,743,324",101433,19570712,2032,서울특별시 서초구 강남대로39길 15-10한라비발디스튜디오193,101433,경농,2100,서울특별시,서초구,127.032103087,37.485650598
163,9140,경인전자,유가증권시장상장법인,262,전자 부품 제조업,영업이익(손실),"1,998,761,089","968,626,905","-1,611,640,664",102140,19730806,2629,"서울특별시 금천구  가산디지털2로 184 1411호(가산동,벽산/경인디지털밸리2)",102140,경인전자,9140,서울특별시,금천구,126.878065968,37.484250577
165,12200,계양전기,유가증권시장상장법인,291,일반 목적용 기계 제조업,영업이익(손실),"1,796,805,693","3,007,589,451","2,348,037,078",102618,19770427,29194,서울특별시 강남구 테헤란로 508 (대치동)해성2빌딩 2층,102618,계양전기,12200,서울특별시,강남구,127.057985796,37.506824991
167,49720,고려신용정보,코스닥시장상장법인,759,기타 사업 지원 서비스업,영업이익(손실),"12,459,467,876","9,993,294,320","8,075,240,099",336297,19910627,75993,"서울특별시 서초구 서초대로 353 (서초동, 유니온타워)",336297,고려신용정보,49720,서울특별시,서초구,127.019914552,37.495917003
168,10130,고려아연,유가증권시장상장법인,242,1차 비철금속 제조업,영업이익,"1,096,146,343,693","897,387,769,203","805,328,836,892",102858,19740801,24213,서울특별시 강남구  강남대로 542 영풍빌딩,102858,고려아연,10130,서울특별시,강남구,127.022112122,37.510577255
170,348150,고바이오랩,코스닥시장상장법인,701,자연과학 및 공학 연구개발업,영업손실,"-16,337,359,251","-12,344,974,086","-7,351,898,659",1399071,20140811,70113,"서울특별시 관악구 관악로 1 220동 745-1호(신림동, 서울대학교종합연구동)",1399071,고바이오랩,348150,서울특별시,관악구,126.957560796,37.460493616
171,98460,고영,코스닥시장상장법인,292,특수 목적용 기계 제조업,영업이익,"41,351,274,821","15,842,903,269","33,331,312,300",579999,20020425,29271,"서울특별시 금천구 가산디지털2로 53 (가산동, 한라시그마밸리 14층, 15층)",579999,고영,98460,서울특별시,금천구,0.0,0.0
172,35290,골드앤에스,코스닥시장상장법인,581,"서적, 잡지 및 기타 인쇄물 출판업",영업이익(손실),"1,355,619,421","-2,253,009,994","-7,142,116,564",249502,19941114,581,"서울특별시 영등포구 국회대로74길 12 9층 901호 (여의도동,남중빌딩)",249502,골드앤에스,35290,서울특별시,영등포구,126.92106162,37.530089602
174,215000,골프존,코스닥시장상장법인,582,소프트웨어 개발 및 공급업,영업이익,"107,671,750,993","51,572,914,217","32,297,494,216",1067516,20150303,58219,서울특별시 강남구 영동대로 735 -,1067516,골프존,215000,서울특별시,강남구,127.054578156,37.523431465
175,121440,골프존뉴딘홀딩스,코스닥시장상장법인,461,상품 중개업,영업이익,"73,192,953,769","29,999,993,909","-3,625,435,559",674498,20000508,461,서울특별시 강남구 영동대로 735-,674498,골프존뉴딘홀딩스,121440,서울특별시,강남구,127.054578156,37.523431465
176,9290,광동제약,유가증권시장상장법인,212,의약품 제조업,영업이익,"44,935,683,503","46,590,713,437","41,803,237,663",103592,19631016,21220,서울특별시 서초구  서초중앙로 85 가산빌딩,103592,광동제약,9290,서울특별시,서초구,127.014051499,37.489383129
179,29480,광무,코스닥시장상장법인,264,통신 및 방송장비 제조업,영업이익(손실),"-724,747,537","-3,493,926,657","-2,620,988,582",186452,19910527,26410,"서울특별시 서초구 남부순환로 2634-27 나동 1,4층 (양재동, 성원빌딩)",186452,광무,29480,서울특별시,서초구,127.039008899,37.484490951
183,7690,국도화학,유가증권시장상장법인,201,기초 화학물질 제조업,영업이익,"204,707,042,943","46,017,285,546","42,109,678,731",104388,19720222,20111,서울특별시 금천구  가산디지털2로 61,104388,국도화학,7690,서울특별시,금천구,126.880508155,37.473500337
184,5320,국동,유가증권시장상장법인,464,생활용품 도매업,영업이익(손실),"-3,587,448,466","26,588,642,518","-4,249,136,327",168331,19671208,46413,"서울특별시 강남구 논현로 322 6,7층(역삼동)",168331,국동,5320,서울특별시,강남구,127.040445786,37.494122173
190,204020,그리티,코스닥시장상장법인,141,봉제의복 제조업,영업이익(손실),"-7,556,310,175","2,147,779,240","2,913,982,251",671978,19990918,14120,"서울특별시 강남구 언주로151길 7, 2층 (신사동, 주성빌)",671978,그리티,204020,서울특별시,강남구,127.032767975,37.522016026
194,204620,글로벌텍스프리,코스닥시장상장법인,661,금융 지원 서비스업,영업이익(손실),"-13,769,326,935","-11,429,398,610","6,927,566,084",1042711,20140731,661,"서울특별시 중구 퇴계로 131 9층(충무로2가, 신일빌딩)",1042711,글로벌텍스프리,204620,서울특별시,중구,126.98641105,37.561269583
195,19660,글로본,코스닥시장상장법인,468,상품 종합 도매업,영업이익(손실),"-7,354,869,387","-4,285,822,898","-4,666,163,759",159731,19861220,468,서울특별시 강남구 도산대로 331 -,159731,글로본,19660,서울특별시,강남구,127.038108128,37.523271465
197,53260,금강철강,코스닥시장상장법인,241,1차 철강 제조업,영업이익(손실),"9,069,143,627","3,150,804,414","2,158,369,141",105475,19770112,2419,"서울특별시 서초구  서운로 19 701호(서초동, 서초월드오피스텔)",105475,금강철강,53260,서울특별시,서초구,127.029070073,37.485623888
202,1210,금호전기,유가증권시장상장법인,284,전구 및 조명장치 제조업,영업이익(손실),"-8,559,664,657","-6,423,342,717","-3,311,686,948",106395,19350525,28410,서울특별시 영등포구 국제금융로 10 쓰리아이에프씨동 14층,106395,금호전기,1210,서울특별시,영등포구,126.92593686,37.525058399
204,36190,금화피에스시,코스닥시장상장법인,423,전기 및 통신 공사업,영업이익(손실),"25,617,281,491","26,993,690,073","34,327,290,781",176516,19810513,423,서울특별시 강남구  테헤란로25길 15-4,176516,금화피에스시,36190,서울특별시,강남구,127.035003162,37.501909175
206,35460,기산텔레콤,코스닥시장상장법인,264,통신 및 방송장비 제조업,영업이익(손실),"-992,643,976","423,127,720","3,995,819,878",258421,19940906,2642,서울특별시 송파구  오금로 111 세기빌딩 11층,258421,기산텔레콤,35460,서울특별시,송파구,127.10824477,37.512584449
209,4540,깨끗한나라,유가증권시장상장법인,171,"펄프, 종이 및 판지 제조업",영업이익,"13,044,857,715","52,062,528,035","5,148,279,067",113492,19660307,1712,서울특별시 용산구 한남대로 98 일신빌딩 4층,113492,깨끗한나라,4540,서울특별시,용산구,127.005499424,37.537253066
213,39860,나노엔텍,코스닥시장상장법인,271,의료용 기기 제조업,영업이익(손실),"5,236,289,176","3,403,054,085","3,051,217,194",230425,19871118,27199,서울특별시 구로구  디지털로26길 5 에이스하이엔드타워1차 1210호,230425,나노엔텍,39860,서울특별시,구로구,126.893478405,37.481607842
218,242040,나무기술,코스닥시장상장법인,582,소프트웨어 개발 및 공급업,영업이익(손실),"1,077,187,761","-2,527,359,155","4,077,026,750",1136348,20160330,582,"서울특별시 강서구 마곡중앙8로3길 41 (마곡동, 나무기술 마곡R&D센터)",1136348,나무기술,242040,서울특별시,강서구,126.836918786,37.56474218
219,130580,나이스디앤비,코스닥시장상장법인,759,기타 사업 지원 서비스업,영업이익(손실),"16,937,263,600","14,088,152,358","12,798,062,463",606293,20021101,75993,서울특별시 마포구 마포대로 217 (아현동),606293,나이스디앤비,130580,서울특별시,마포구,126.956341495,37.553571261
220,36800,나이스정보통신,코스닥시장상장법인,612,전기 통신업,영업이익(손실),"46,822,537,909","36,724,046,564","35,567,030,826",264945,19880512,61299,서울특별시 영등포구 은행로 17 NICE 그룹1사옥,264945,나이스정보통신,36800,서울특별시,영등포구,126.920758722,37.528309769
223,3920,남양유업,유가증권시장상장법인,105,낙농제품 및 식용 빙과류 제조업,영업이익(손실),"-77,853,692,930","-76,734,303,250","417,350,470",107598,19640313,10501,서울특별시 강남구 도산대로 240 1964빌딩,107598,남양유업,3920,서울특별시,강남구,127.033483929,37.520989373
224,25860,남해화학,유가증권시장상장법인,203,"비료, 농약 및 살균ㆍ살충제 제조업",영업이익(손실),"20,481,749,724","26,391,593,903","15,330,702,542",107987,19740508,20312,서울특별시 강남구 테헤란로113길 15 (삼성동),107987,남해화학,25860,서울특별시,강남구,127.065783915,37.511098577
227,94860,네오리진,코스닥시장상장법인,582,소프트웨어 개발 및 공급업,영업이익(손실),"-2,455,105,448","-1,700,860,527","258,266,697",599106,20070220,58221,"서울특별시 강남구 학동로 155 (논현동, 원영빌딩지하1층,3층, 4층, 5층, 6층)",599106,네오리진,94860,서울특별시,강남구,127.027675132,37.513322578
232,311390,네오크레마,코스닥시장상장법인,107,기타 식품 제조업,영업이익,"1,368,718,533","1,259,115,566","665,100,989",1219155,20070108,10749,"서울특별시 송파구 중대로 211(가락동, 나은빌딩)",1219155,네오크레마,311390,서울특별시,송파구,127.126719288,37.500843673
248,104620,노랑풍선,코스닥시장상장법인,752,여행사 및 기타 여행 보조 서비스업,영업이익(손실),"-14,717,001,105","-6,320,013,015","-2,058,521,935",632845,20010813,75210,"서울특별시 중구 수표로 31 (저동2가, 노랑풍선빌딩)",632845,노랑풍선,104620,서울특별시,중구,126.989742063,37.564023964
259,72710,농심홀딩스,유가증권시장상장법인,649,기타 금융업,영업이익(손실),"55,765,471,354","74,003,515,343","41,256,827,201",459871,20030710,64992,서울특별시 동작구  여의대방로 112 (신대방동),459871,농심홀딩스,72710,서울특별시,동작구,126.918848395,37.49637303
260,154030,농업회사법인아시아종묘,코스닥시장상장법인,11,작물 재배업,영업이익(손실),"2,214,149,155","932,111,511","-1,562,059,943",867478,20040624,11,서울특별시 송파구 양재대로 932 가락몰 업무동 11층 08호,867478,아시아종묘,154030,서울특별시,송파구,127.116264958,37.493647125
262,40160,누리플렉스,코스닥시장상장법인,582,소프트웨어 개발 및 공급업,영업이익(손실),"5,512,244,188","2,887,730,316","11,613,034,312",269889,19940418,58221,서울특별시 서초구 사평대로 16(방배동 750-14번지),269889,누리플렉스,40160,서울특별시,서초구,126.986067486,37.498314394
270,119860,다나와,코스닥시장상장법인,582,소프트웨어 개발 및 공급업,영업이익(손실),"34,947,047,091","37,777,630,105","28,360,539,087",585608,20020621,58221,서울특별시 양천구  목동동로 233-1 501호,585608,커넥트웨이브,119860,서울특별시,양천구,126.871580811,37.527555834
274,32190,다우데이타,코스닥시장상장법인,465,기계장비 및 관련 물품 도매업,영업이익(손실),"1,315,452,190,595","1,055,322,547,887","558,977,519,864",238782,19920610,46510,"서울특별시 마포구 독막로 311 염리동, 재화스퀘어 5층, 11층",238782,다우데이타,32190,서울특별시,마포구,126.947477696,37.543998693
280,8110,대동전자,유가증권시장상장법인,264,통신 및 방송장비 제조업,영업이익(손실),"3,043,982,349","1,710,690,523","-203,455,347",157104,19721010,264,서울특별시 금천구  가산디지털1로 33,157104,대동전자,8110,서울특별시,금천구,126.886519796,37.468934997
282,6570,대림통상,유가증권시장상장법인,259,기타 금속 가공제품 제조업,영업이익(손실),"2,943,841,594","-6,851,226,179","-2,472,635,679",109824,19700401,25993,서울특별시 서대문구  연희로 142,109824,대림통상,6570,서울특별시,서대문구,126.93370842,37.569950593
286,1680,대상,유가증권시장상장법인,107,기타 식품 제조업,영업이익,"153,245,195,127","174,391,508,086","129,813,204,520",121941,19560131,1074,서울특별시 종로구 창경궁로 120 종로플레이스,121941,대상,1680,서울특별시,종로구,126.998252912,37.57297326
287,84690,대상홀딩스,유가증권시장상장법인,649,기타 금융업,영업이익(손실),"163,034,063,085","207,014,489,677","155,474,040,686",539274,20050801,64992,서울특별시 중구 세종대로9길 41 올리브타워 2층,539274,대상홀딩스,84690,서울특별시,중구,126.97298345,37.561352486
288,128820,대성산업,유가증권시장상장법인,477,연료 소매업,영업이익(손실),"19,343,532,632","10,027,475,041","-9,673,570,258",828789,20100630,477,"서울특별시 구로구 경인로 662(신도림동, 디큐브시티)",828789,대성산업,128820,서울특별시,구로구,126.888206228,37.508134461
297,48910,대원미디어,코스닥시장상장법인,467,기타 전문 도매업,영업이익,"12,252,412,072","7,227,983,716","3,664,066,464",351807,19771206,467,"서울특별시 용산구 한강대로23길 55 6층 1-1호(한강로3가,현대아이파크몰 테마파크)",351807,대원미디어,48910,서울특별시,용산구,126.964860965,37.529839228
299,3220,대원제약,유가증권시장상장법인,212,의약품 제조업,영업이익,"19,425,905,258","24,098,893,335","35,107,129,523",111999,19610809,21210,서울특별시 성동구 천호대로 386 대원제약,111999,대원제약,3220,서울특별시,성동구,127.061738306,37.561531998
300,24890,대원화성,유가증권시장상장법인,222,플라스틱 제품 제조업,영업이익(손실),"-8,431,253,759","348,221,278","6,686,516,331",112022,19740523,22214,서울특별시 강남구 봉은사로 327 궁도빌딩 13층,112022,대원화성,24890,서울특별시,강남구,127.042659549,37.510191711
304,3310,대주산업,코스닥시장상장법인,108,동물용 사료 및 조제식품 제조업,영업이익(손실),"2,649,231,269","4,468,961,492","2,702,647,988",112457,19620116,1080,서울특별시 광진구 천호대로 549 20층,112457,대주산업,3310,서울특별시,광진구,127.07912631,37.557781705
313,1070,대한방직,유가증권시장상장법인,132,직물 직조 및 직물제품 제조업,영업이익(손실),"5,406,662,230","3,550,300,015","-12,979,458,087",112970,19530810,132,"서울특별시 중구 중림로 48 (중림동, 성준빌딩)",112970,대한방직,1070,서울특별시,중구,126.96811136,37.557245812
314,6650,대한유화,유가증권시장상장법인,201,기초 화학물질 제조업,영업이익(손실),"179,414,039,346","170,161,246,174","113,849,235,921",260383,19700602,20111,서울특별시 종로구  자하문로 77 유남빌딩,260383,대한유화,6650,서울특별시,종로구,126.96991313,37.583001727
318,1130,대한제분,유가증권시장상장법인,106,"곡물 가공품, 전분 및 전분제품 제조업",영업이익(손실),"24,960,181,509","22,966,625,919","23,483,614,049",113243,19521225,10612,서울특별시 중구 세종대로 39,113243,대한제분,1130,서울특별시,중구,126.973777605,37.560714198
319,3490,대한항공,유가증권시장상장법인,511,항공 여객 운송업,영업이익(손실),"1,417,968,632,826","107,324,035,915","176,716,751,545",113526,19620619,511,서울특별시 강서구 하늘길 260,113526,대한항공,3490,서울특별시,강서구,126.814164384,37.547651318
320,5880,대한해운,유가증권시장상장법인,501,해상 운송업,영업이익(손실),"203,921,089,342","145,937,798,507","128,783,605,822",113535,19681212,50112,서울특별시 강서구 마곡중앙8로 78 에스엠알엔디센터,113535,대한해운,5880,서울특별시,강서구,126.836146764,37.560740415
323,298540,더네이쳐홀딩스,코스닥시장상장법인,144,의복 액세서리 제조업,영업이익(손실),"68,897,806,168","54,482,802,897","40,616,123,685",1214743,20040220,144,서울특별시 용산구 새창로44길 10 -,1214743,더네이쳐홀딩스,298540,서울특별시,용산구,126.961397507,37.534083998
324,192080,더블유게임즈,유가증권시장상장법인,582,소프트웨어 개발 및 공급업,영업이익,"190,364,411,040","194,184,071,689","154,608,044,453",1010110,20120501,5821,서울특별시 강남구 테헤란로 152 강남파이낸스센터 16층,1010110,더블유게임즈,192080,서울특별시,강남구,127.036514469,37.500028534
325,299170,더블유에스아이,코스닥시장상장법인,464,생활용품 도매업,영업이익(손실),"6,008,943,422","5,624,060,071","4,606,995,608",1318261,20180511,464,서울특별시 강남구 봉은사로44길 31 (역삼동),1318261,더블유에스아이,299170,서울특별시,강남구,127.040880086,37.507342517
334,194480,데브시스터즈,코스닥시장상장법인,582,소프트웨어 개발 및 공급업,영업이익(손실),"56,654,442,538","-6,123,221,602","-22,185,728,015",1008762,20070530,58212,서울특별시 강남구 도산대로 327 데브시스터즈(주),1008762,데브시스터즈,194480,서울특별시,강남구,127.037613337,37.523135745
335,206560,덱스터,코스닥시장상장법인,591,"영화, 비디오물, 방송 프로그램 제작 및 배급업",영업이익(손실),"-569,745,007","202,551,854","-5,357,793,769",1021949,20111229,59120,"서울특별시 마포구 매봉산로 75 1801호, 1901호(상암동,디디엠씨)",1021949,덱스터,206560,서울특별시,마포구,126.892863253,37.578178003
337,145720,덴티움,유가증권시장상장법인,271,의료용 기기 제조업,영업이익(손실),"69,882,395,499","39,595,641,081","44,656,130,035",526599,20000607,27191,서울특별시 강남구 테헤란로87길 21 동성빌딩 10층,526599,덴티움,145720,서울특별시,강남구,127.058249661,37.509048392
338,67990,도이치모터스,코스닥시장상장법인,451,자동차 판매업,영업이익(손실),"56,357,845,960","44,861,580,550","82,887,617,450",449379,19970817,451,서울특별시 성동구 동일로 111 (성수동 2가),449379,도이치모터스,67990,서울특별시,성동구,127.063734315,37.542600665
339,2150,도화엔지니어링,유가증권시장상장법인,721,"건축 기술, 엔지니어링 및 관련 기술 서비스업",영업이익(손실),"19,985,474,247","24,010,625,909","27,069,213,016",114552,19620505,72121,서울특별시 강남구  삼성로 438 도화타워,114552,도화엔지니어링,2150,서울특별시,강남구,127.057535625,37.506101247
340,6620,동구바이오제약,코스닥시장상장법인,212,의약품 제조업,영업이익(손실),"8,139,375,532","7,611,427,792","6,460,951,367",114686,19830701,21210,"서울특별시 송파구 법원로 114, B동 14층",114686,동구바이오제약,6620,서울특별시,송파구,127.120873195,37.485394085
342,86450,동국제약,코스닥시장상장법인,212,의약품 제조업,영업이익,"63,219,302,357","84,733,110,401","68,584,510,206",114808,19681015,21210,서울특별시 강남구 영동대로 715 동국제약 청담빌딩,114808,동국제약,86450,서울특별시,강남구,127.055589664,37.521583587
343,4140,동방,유가증권시장상장법인,529,기타 운송관련 서비스업,영업이익,"27,775,163,917","24,590,388,329","20,944,994,874",115287,19650114,529,"서울특별시 중구 통일로2길 16 3층(순화동, 에이아이에이타워)",115287,동방,4140,서울특별시,중구,126.971492273,37.560760289
344,7590,동방아그로,유가증권시장상장법인,203,"비료, 농약 및 살균ㆍ살충제 제조업",영업이익(손실),"8,197,671,412","9,342,248,535","7,799,136,991",115384,19711231,2032,"서울특별시 관악구  남부순환로 2028 남현동, 동방빌딩",115384,동방아그로,7590,서울특별시,관악구,126.973898743,37.475857131
345,5960,동부건설,유가증권시장상장법인,412,토목 건설업,영업이익(손실),"61,251,228,945","48,172,314,636","55,565,265,906",115612,19690124,412,서울특별시 강남구 테헤란로 137 코레이트 타워,115612,동부건설,5960,서울특별시,강남구,127.034014539,37.50037384
346,26960,동서,유가증권시장상장법인,463,음ㆍ식료품 및 담배 도매업,영업이익,"38,374,679,515","45,114,689,622","41,590,791,529",144395,19750516,4632,서울특별시 마포구 독막로 324 동서빌딩,144395,동서,26960,서울특별시,마포구,126.948294209,37.542815432
349,640,동아쏘시오홀딩스,유가증권시장상장법인,649,기타 금융업,Ⅲ.영업이익,"61,564,188,030","50,609,922,157","52,823,155,830",116824,19490809,64992,서울특별시 동대문구  천호대로 64,116824,동아쏘시오홀딩스,640,서울특별시,동대문구,127.030297905,37.573601128
360,49770,동원F&B,유가증권시장상장법인,107,기타 식품 제조업,영업이익,"130,385,773,393","116,306,648,666","101,405,342,073",340917,20001101,107,서울특별시 서초구  마방로 68 (양재동) 동원산업빌딩,340917,동원F&B,49770,서울특별시,서초구,127.044003349,37.477710711
363,6040,동원산업,유가증권시장상장법인,31,어로 어업,영업이익,"260,726,838,588","306,496,418,205","193,575,195,385",118026,19690416,64992,서울특별시 서초구 마방로 68 (양재동),118026,동원산업,6040,서울특별시,서초구,127.044003349,37.477710711
364,30720,동원수산,유가증권시장상장법인,31,어로 어업,영업이익,"6,227,066,287","-2,093,027,593","15,149,218,160",118044,19700505,3111,서울특별시 마포구 마포대로 86 창강빌딩 16층,118044,동원수산,30720,서울특별시,마포구,126.950519664,37.542614522
372,20,동화약품,유가증권시장상장법인,212,의약품 제조업,영업이익(손실),"22,496,350,976","23,153,371,156","9,550,750,714",119195,18970925,21210,서울특별시 중구 남대문로9길 24 패스트파이브타워 6~8층(다동),119195,동화약품,20,서울특별시,중구,126.981134292,37.567147583
373,16740,두올,유가증권시장상장법인,303,자동차 신품 부품 제조업,영업이익,"25,296,758,456","20,277,140,352","27,616,988,694",119672,19830211,303,서울특별시 강남구 영동대로96길 20 대화빌딩 2층,119672,두올,16740,서울특별시,강남구,127.064213891,37.510776467
375,30350,드래곤플라이,코스닥시장상장법인,582,소프트웨어 개발 및 공급업,영업이익(손실),"-3,816,769,561","-3,474,081,085","-4,509,706,720",230036,19900322,5821,서울특별시 서초구 서초중앙로22길 80 (서초동),230036,드래곤플라이,30350,서울특별시,서초구,127.018323657,37.493842699
376,203650,드림시큐리티,코스닥시장상장법인,582,소프트웨어 개발 및 공급업,영업이익(손실),"17,672,823,539","13,050,945,076","1,771,024,536",1038693,20140625,582,"서울특별시 성동구 아차산로 126 10층 (성수동2가, 더리브세종타워)",1038693,드림시큐리티,203650,서울특별시,성동구,127.057949187,37.543516794
377,223250,드림씨아이에스,코스닥시장상장법인,701,자연과학 및 공학 연구개발업,영업이익(손실),"3,616,705,398","4,793,821,956","4,335,671,709",916826,20000427,70113,"서울특별시 종로구 사직로 130 적선현대빌딩, 10층 10호",916826,드림씨아이에스,223250,서울특별시,종로구,126.973321419,37.575366182
378,60570,드림어스컴퍼니,코스닥시장상장법인,631,"자료 처리, 호스팅, 포털 및 기타 인터넷 정보 매개 서비스업",영업이익(손실),"4,848,508,839","-11,888,921,989","-26,743,471,135",364467,19990120,631,서울특별시 서초구 강남대로 311 드림플러스 강남,364467,드림어스컴퍼니,60570,서울특별시,서초구,127.030295818,37.490909122
387,377190,디앤디플랫폼리츠,유가증권시장상장법인,681,부동산 임대 및 공급업,영업이익(손실),"5,086,357,806","8,416,133,833","4,768,946,991",1475609,20200310,681,"서울특별시 강남구 가로수길 77, 5층",1475609,디앤디플랫폼리츠,377190,서울특별시,강남구,127.022312997,37.523023336
388,263720,디앤씨미디어,코스닥시장상장법인,581,"서적, 잡지 및 기타 인쇄물 출판업",영업이익(손실),"15,145,627,513","13,658,177,315","7,913,751,789",1186404,20120104,581,"서울특별시 구로구 디지털로26길 111, 503호(구로동, 제이앤케이디지털타워)",1186404,디앤씨미디어,263720,서울특별시,구로구,126.897276533,37.482515061
389,376300,디어유,코스닥시장상장법인,582,소프트웨어 개발 및 공급업,영업이익(손실),"13,240,793,052","-454,001,430","-8,128,695,548",1456011,20170704,58222,"서울특별시 강남구 삼성로 633, 4층(삼성동, 삼광빌딩)",1456011,디어유,376300,서울특별시,강남구,127.05110709,37.516290924
392,180400,디엑스앤브이엑스,코스닥시장상장법인,729,기타 과학기술 서비스업,영업이익(손실),"-4,785,958,794","-5,979,078,659","-6,983,561,147",995993,20010616,729,"서울특별시 금천구 디지털로 173, 1003",995993,DXVX,180400,서울특별시,금천구,126.886018844,37.478044672
393,127120,디엔에이링크,코스닥시장상장법인,701,자연과학 및 공학 연구개발업,영업이익(손실),"-5,152,362,148","-8,058,790,289","-5,845,160,305",642541,20000315,70111,서울특별시 강서구 마곡중앙8로3길 31 지번) 서울특별시 강서구 마곡동 787-8,642541,디엔에이링크,127120,서울특별시,강서구,126.836742083,37.563791225
400,197140,디지캡,코스닥시장상장법인,582,소프트웨어 개발 및 공급업,영업이익,"282,890,126","2,242,789,637","679,893,543",681373,20000401,58221,서울특별시 강서구 마곡중앙8로7길 11,681373,디지캡,197140,서울특별시,강서구,126.838169348,37.561852944
401,68930,디지털대성,코스닥시장상장법인,855,일반 교습학원,영업이익,"25,244,242,088","14,211,309,024","21,090,277,122",398808,20000310,855,서울특별시 서초구  방배로 181 단우빌딩,398808,디지털대성,68930,서울특별시,서초구,126.991941636,37.489581748
402,33130,디지틀조선,코스닥시장상장법인,631,"자료 처리, 호스팅, 포털 및 기타 인터넷 정보 매개 서비스업",영업이익(손실),"2,127,993,458","1,459,673,258","2,936,470,907",231442,19951002,631,서울특별시 중구  세종대로21길 52 (태평로1가),231442,디지틀조선,33130,서울특별시,중구,126.976128656,37.568721271
409,317120,라닉스,코스닥시장상장법인,261,반도체 제조업,영업이익(손실),"-2,232,714,960","-1,648,311,556","-1,874,212",1327092,20030926,26112,서울특별시 강남구 언주로135길 25 (논현동),1327092,라닉스,317120,서울특별시,강남구,127.033134176,37.516541882
410,42510,라온시큐어,코스닥시장상장법인,582,소프트웨어 개발 및 공급업,영업이익(손실),"-988,511,242","-3,524,664,280","2,121,292,624",255433,19980416,582,"서울특별시 영등포구 여의대로 108 48층(여의도동,파크원타워2)",255433,라온시큐어,42510,서울특별시,영등포구,126.927847603,37.527053956
413,214260,라파스,코스닥시장상장법인,204,기타 화학제품 제조업,영업이익(손실),"-2,047,731,135","-4,276,297,380","-433,078,079",1058101,20060330,20423,서울특별시 강서구 마곡중앙8로1길 62 라파스  ;,1058101,라파스,214260,서울특별시,강서구,126.83702092,37.566374848
415,200350,래몽래인,코스닥시장상장법인,591,"영화, 비디오물, 방송 프로그램 제작 및 배급업",영업이익,"3,153,606,188","3,697,050,699","1,292,584,527",990819,20070302,591,서울특별시 강남구 학동로25길 19,990819,래몽래인,200350,서울특별시,강남구,127.028593424,37.514833391
419,38390,레드캡투어,코스닥시장상장법인,752,여행사 및 기타 여행 보조 서비스업,영업이익,"20,469,193,641","20,097,141,566","34,971,515,715",261355,19960801,75210,서울특별시 중구 을지로 100파인에비뉴 B동 19층,261355,레드캡투어,38390,서울특별시,중구,126.988142548,37.565648682
424,215100,로보로보,코스닥시장상장법인,289,기타 전기장비 제조업,영업이익(손실),"-1,523,724,033","-2,558,792,259","221,207,011",1063990,20150209,289,서울특별시 강북구 도봉로54길 6 로보로보빌딩(미아동),1063990,로보로보,215100,서울특별시,강북구,127.026467918,37.627100286
426,108490,로보티즈,코스닥시장상장법인,292,특수 목적용 기계 제조업,영업이익,"-928,967,630","-1,764,338,548","1,681,774,453",946030,19990325,29299,서울특별시 강서구 마곡중앙5로1길 37,946030,로보티즈,108490,서울특별시,강서구,126.826286604,37.570153489
430,23530,롯데쇼핑,유가증권시장상장법인,471,종합 소매업,영업이익,"207,602,693,266","346,084,471,821","427,910,873,611",120526,19700702,47111,서울특별시 중구  남대문로 81 (소공동),120526,롯데쇼핑,23530,서울특별시,중구,126.981731246,37.564728449
432,286940,롯데정보통신,유가증권시장상장법인,620,"컴퓨터 프로그래밍, 시스템 통합 및 관리업",영업이익(손실),"39,966,380,370","38,750,637,313","41,114,420,804",1262032,20171102,62021,서울특별시 금천구 가산디지털2로 179 롯데정보통신,1262032,롯데정보통신,286940,서울특별시,금천구,126.876366798,37.48357843
433,280360,롯데제과,유가증권시장상장법인,107,기타 식품 제조업,영업이익,"108,471,110,781","112,550,163,341","97,328,867,315",1258507,20171001,10713,서울특별시 영등포구 양평로21길 10,1258507,롯데웰푸드,280360,서울특별시,영등포구,126.892760714,37.537413048
434,4990,롯데지주,유가증권시장상장법인,649,기타 금융업,영업이익(손실),"216,401,073,913","156,248,961,998","174,854,879,971",120562,19670324,64992,서울특별시 송파구 올림픽로 300 롯데월드타워,120562,롯데지주,4990,서울특별시,송파구,127.102740477,37.512469244
435,5300,롯데칠성음료,유가증권시장상장법인,112,비알코올 음료 및 얼음 제조업,영업이익,"182,218,380,367","97,230,309,774","107,665,774,804",120571,19671129,11209,서울특별시 서초구 서초대로70길 15,120571,롯데칠성음료,5300,서울특별시,서초구,127.023822918,37.495091189
437,2270,롯데푸드,유가증권시장상장법인,105,낙농제품 및 식용 빙과류 제조업,영업이익,"38,457,267,163","44,532,725,539","47,071,049,030",120508,19580110,10502,서울특별시 영등포구 양평로19길 19 -,120508,롯데푸드,2270,서울특별시,영등포구,126.894171261,37.535210441
441,39980,리노스,코스닥시장상장법인,474,"섬유, 의복, 신발 및 가죽제품 소매업",영업이익(손실),"1,468,689,021","-6,189,068,381","-320,791,749",369213,19910201,620,"서울특별시 서초구 서운로 19 (서초동, 서초월드오피스텔) 4층",369213,리노스,39980,서울특별시,서초구,127.029070073,37.485623888
442,19570,리더스 기술투자,코스닥시장상장법인,642,신탁업 및 집합 투자업,영업이익(손실),"1,733,306,736","-10,513,410,950","-3,339,529,249",110750,19861127,64209,서울특별시 강남구 테헤란로 447 KB우준타워 KB우준타워 17층,110750,리더스 기술투자,19570,서울특별시,강남구,127.056060732,37.507132388
443,16100,리더스코스메틱,코스닥시장상장법인,204,기타 화학제품 제조업,영업이익(손실),"-4,186,161,295","-11,683,480,206","-27,824,269,675",180263,19861224,204,서울특별시 광진구 능동로 90 더클래식 500 씨 404호,180263,리더스코스메틱,16100,서울특별시,광진구,127.070914637,37.538359248
444,12700,리드코프,코스닥시장상장법인,467,기타 전문 도매업,III. 영업이익,"61,398,800,760","60,086,161,884","53,883,905,253",117708,19770919,46712,"서울특별시 중구 소공로 109 3층(소공동, 소공동한화빌딩)",117708,리드코프,12700,서울특별시,중구,126.978551635,37.564195309
446,377450,리파인,코스닥시장상장법인,639,기타 정보 서비스업,영업이익,"21,005,532,771","20,232,920,602","5,218,417,875",1210066,20020710,63991,"서울특별시 강남구 테헤란로 625, 4층 (삼성동, 덕명빌딩)",1210066,리파인,377450,서울특별시,강남구,127.066045132,37.510169005
447,277070,린드먼아시아,코스닥시장상장법인,642,신탁업 및 집합 투자업,영업이익(손실),"7,224,482,314","6,547,481,688","5,392,669,158",616962,20060705,64209,"서울특별시 강남구 테헤란로 234, 4층(역삼동, 삼익빌딩)",616962,린드먼아시아,277070,서울특별시,강남구,127.041869918,37.501938548
448,42500,링네트,코스닥시장상장법인,620,"컴퓨터 프로그래밍, 시스템 통합 및 관리업",영업이익(손실),"10,622,226,143","7,352,789,362","7,023,526,916",352499,20000401,62021,"서울특별시 구로구 디지털로33길 28 1001호 (구로동, 우림이비지센터 1차 10층)",352499,링네트,42500,서울특별시,구로구,126.895301025,37.486966875
451,222810,마이더스AI,코스닥시장상장법인,582,소프트웨어 개발 및 공급업,영업이익(손실),"-1,439,901,601","-3,972,734,779","-6,117,680,817",1091382,20150608,582,"서울특별시 강남구 역삼로 413 대치상부타워 3층, 5층",1091382,세토피아,222810,서울특별시,강남구,127.052198437,37.501177881
454,38290,마크로젠,코스닥시장상장법인,739,"그 외 기타 전문, 과학 및 기술 서비스업",영업이익(손실),"11,792,982,396","7,161,768,385","3,710,590,597",261373,19970605,73909,서울특별시 금천구  벚꽃로 254 월드메르디앙1차,261373,마크로젠,38290,서울특별시,금천구,126.885452155,37.477774485
457,220630,맘스터치,코스닥시장상장법인,463,음ㆍ식료품 및 담배 도매업,영업이익,"39,456,451,017","26,269,642,013","18,969,712,512",1089855,20150519,463,"서울특별시 강동구 천호대로 1077 이스트센트럴타워 24층,25층",1089855,맘스터치앤컴퍼니,220630,서울특별시,강동구,127.132165194,37.53659262
459,93520,매커스,코스닥시장상장법인,465,기계장비 및 관련 물품 도매업,영업이익(손실),"26,018,645,884","9,461,969,124","5,948,929,687",596677,20061214,4659,서울특별시 강남구 봉은사로44길 73,596677,매커스,93520,서울특별시,강남구,127.043331462,37.505484681
460,72870,메가스터디,코스닥시장상장법인,581,"서적, 잡지 및 기타 인쇄물 출판업",영업이익(손실),"15,896,886,462","10,867,486,346","2,310,618,399",422284,20000712,581,"서울특별시 서초구 효령로 304 24층(서초동, 국제전자센터)",422284,메가스터디,72870,서울특별시,서초구,127.017826546,37.484756886
461,215200,메가스터디교육,코스닥시장상장법인,855,일반 교습학원,영업이익(손실),"99,007,256,559","32,815,677,164","59,636,102,296",1074862,20000712,85503,서울특별시 서초구 효령로 321 덕원빌딩,1074862,메가스터디교육,215200,서울특별시,서초구,127.019169928,37.486129142
462,133750,메가엠디,코스닥시장상장법인,855,일반 교습학원,영업이익(손실),"7,690,985,752","7,114,280,946","-844,577,454",807555,20040119,85503,"서울특별시 서초구 반포대로 81 4층(서초동, 영림빌딩)",807555,메가엠디,133750,서울특별시,서초구,127.009330569,37.487611695
463,235980,메드팩토,코스닥시장상장법인,701,자연과학 및 공학 연구개발업,영업손실,"-29,459,122,356","-27,799,946,251","-13,238,448,721",1336373,20130619,70113,"서울특별시 서초구 명달로 92, 보림빌딩",1336373,메드팩토,235980,서울특별시,서초구,127.004233791,37.485474591
464,14100,메디앙스,코스닥시장상장법인,204,기타 화학제품 제조업,영업이익(손실),"4,479,265,875","-374,204,255","-148,216,139",267854,19790428,20423,서울특별시 강남구 논현로64길 4 5층~6층,267854,메디앙스,14100,서울특별시,강남구,127.040930096,37.49347713
465,54180,메디콕스,코스닥시장상장법인,311,선박 및 보트 건조업,영업이익(손실),"-9,346,566,522","-4,334,769,160","-639,453,410",356839,19990126,31114,"서울특별시 강남구 도산대로 549 2~3층 (청담동, 블루펄빌딩)",356839,메디콕스,54180,서울특별시,강남구,127.053965567,37.525624811
468,140410,메지온,코스닥시장상장법인,701,자연과학 및 공학 연구개발업,영업이익(손실),"-16,797,556,309","-7,530,525,117","-24,717,034,062",808022,20020925,70113,서울특별시 강남구 삼성로 570 석천빌딩 7층,808022,메지온,140410,서울특별시,강남구,127.054128822,37.51239973
470,90370,메타랩스,유가증권시장상장법인,141,봉제의복 제조업,영업이익(손실),"-1,422,724,476","325,116,803","-1,389,288,050",442835,20001103,141,서울특별시 강남구 언주로 428(역삼동),442835,메타랩스,90370,서울특별시,강남구,127.043588336,37.501655118
477,80160,모두투어,코스닥시장상장법인,752,여행사 및 기타 여행 보조 서비스업,영업이익,"-23,338,381,218","-20,576,984,706","2,039,622,260",456218,19890214,75210,서울특별시 중구  을지로 16 프레지던트호텔 5층 모두투어네트워크,456218,모두투어,80160,서울특별시,중구,126.979406149,37.565598031
478,100030,모바일리더,코스닥시장상장법인,582,소프트웨어 개발 및 공급업,영업이익(손실),"4,449,598,695","4,498,559,679","4,967,886,898",641171,20000223,58222,서울특별시 강남구 테헤란로 131 16층,641171,인지소프트,100030,서울특별시,강남구,127.032926912,37.5000662
482,348030,모비릭스,코스닥시장상장법인,582,소프트웨어 개발 및 공급업,영업이익(손실),"10,029,995,281","10,259,248,851","7,435,235,023",1210190,20070709,5821,"서울특별시 금천구 가산디지털1로 186 604호~607호, 901호, 902호일부, 1401호 (가산동,제이플라츠)",1210190,모비릭스,348030,서울특별시,금천구,126.881596617,37.481915141
488,1810,무림SP,코스닥시장상장법인,171,"펄프, 종이 및 판지 제조업",영업이익,"6,100,549,787","6,606,513,425","1,179,046,904",121507,19560726,1712,서울특별시 강남구  강남대로 656 (신사동),121507,무림SP,1810,서울특별시,강남구,127.018951572,37.520334211
492,218150,미래생명자원,코스닥시장상장법인,108,동물용 사료 및 조제식품 제조업,영업이익,"1,855,031,886","1,415,471,080","1,464,908,299",1071944,20150406,108,"서울특별시 송파구 법원로9길 26 D동 506 ~ 512호(문정동, H business PARK)",1071944,미래생명자원,218150,서울특별시,송파구,127.116702763,37.48412078
494,207760,미스터블루,코스닥시장상장법인,639,기타 정보 서비스업,영업이익(손실),"6,768,263,034","14,394,406,596","13,861,905,335",1047840,20141010,63991,서울특별시 강서구 양천로 570 17~19 층,1047840,미스터블루,207760,서울특별시,강서구,126.862011004,37.556730279
501,201490,미투온,코스닥시장상장법인,582,소프트웨어 개발 및 공급업,영업이익(손실),"34,514,887,886","44,593,313,509","40,455,050,543",965813,20100601,5821,서울특별시 강남구 학동로 343 더피나클강남 6층,965813,미투온,201490,서울특별시,강남구,127.040619448,37.51748074
503,214180,민앤지,코스닥시장상장법인,639,기타 정보 서비스업,영업이익,"37,477,007,216","28,200,340,512","26,978,788,006",1013311,20090319,63991,서울특별시 강남구 테헤란로34길 6 태광타워 13층,1013311,헥토이노베이션,214180,서울특별시,강남구,127.039885944,37.501063237
507,35620,바른손이앤에이,코스닥시장상장법인,591,"영화, 비디오물, 방송 프로그램 제작 및 배급업",영업이익(손실),"-1,322,252,018","-2,396,482,171","-17,734,440,678",259590,19961220,591,서울특별시 용산구 한남대로 130 볼보빌딩 3층,259590,바른손이앤에이,35620,서울특별시,용산구,127.004406178,37.539981691
510,301300,바이브컴퍼니,코스닥시장상장법인,582,소프트웨어 개발 및 공급업,영업이익(손실),"-9,145,715,171","-3,353,298,568","-344,299,117",403793,20000708,58222,서울특별시 용산구 독서당로 97 (한남동),403793,바이브컴퍼니,301300,서울특별시,용산구,127.010787823,37.535325844
514,38460,바이오스마트,코스닥시장상장법인,262,전자 부품 제조업,영업이익(손실),"8,031,744,108","-1,189,622,366","3,133,545,464",240857,19851230,26293,서울특별시 성동구 광나루로 172-,240857,바이오스마트,38460,서울특별시,성동구,127.049288654,37.551141176
519,3610,방림,유가증권시장상장법인,132,직물 직조 및 직물제품 제조업,영업이익(손실),"6,354,469,456","-1,342,292,874","2,106,443,512",122348,19621205,132,서울특별시 마포구  월드컵북로 402 케이지아이티센터 18층,122348,방림,3610,서울특별시,마포구,126.888936099,37.580189085
520,267790,배럴,코스닥시장상장법인,141,봉제의복 제조업,영업이익(손실),"-7,715,592,440","-7,471,569,861","8,451,978,840",1182240,20100107,1419,"서울특별시 용산구 원효로 138 201호, 302호 (원효로3가,청진빌딩)",1182240,배럴,267790,서울특별시,용산구,126.958789216,37.533755482
525,206400,베노홀딩스,코스닥시장상장법인,582,소프트웨어 개발 및 공급업,영업손익,"1,536,538,708","816,303,622","2,729,571,137",1043853,20140919,424,서울특별시 강남구 논현로 322 크리스역삼빌딩 5층,1043853,베노홀딩스,206400,서울특별시,강남구,127.040445786,37.494122173
526,19010,베뉴지,코스닥시장상장법인,471,종합 소매업,영업이익(손실),"2,868,271,528","3,755,820,891","6,047,213,201",267906,19790427,47111,서울특별시 강남구 선릉로62길 15,267906,베뉴지,19010,서울특별시,강남구,127.053700655,37.497661786
528,299910,베스파,코스닥시장상장법인,582,소프트웨어 개발 및 공급업,영업이익(손실),"-44,122,071,394","-33,911,872,842","-8,700,075,382",1259056,20130509,5821,"서울특별시 강남구 테헤란로83길 15, 제이엠빌딩 9층",1259056,베스파,299910,서울특별시,강남구,127.057148311,37.508401684
529,7210,벽산,유가증권시장상장법인,239,기타 비금속 광물제품 제조업,영업이익(손실),"8,544,877,436","9,603,185,124","-3,811,389,985",122898,19710409,23999,"서울특별시 중구  퇴계로 307 광희동 1가, 광희빌딩",122898,벽산,7210,서울특별시,중구,127.00572768,37.564304981
531,250000,보라티알,코스닥시장상장법인,463,음ㆍ식료품 및 담배 도매업,영업이익,"6,946,889,081","3,586,693,844","3,208,938,352",1124680,20151102,4632,서울특별시 강남구 강남대로 518 화이트518,1124680,보라티알,250000,서울특별시,강남구,127.023082467,37.508437457
534,226340,본느,코스닥시장상장법인,204,기타 화학제품 제조업,영업이익(손실),"-1,046,573,174","-857,453,537","5,581,769,387",1098792,20150728,204,서울특별시 강남구 선릉로90길 14 프레티늄 빌딩,1098792,본느,226340,서울특별시,강남구,127.050511508,37.504038388
535,3000,부광약품,유가증권시장상장법인,212,의약품 제조업,영업이익,"5,621,880,941","4,028,150,006","9,537,426,721",123718,19601017,21210,서울특별시 동작구  대방동1길 47,123718,부광약품,3000,서울특별시,동작구,126.934216548,37.510777173
536,14470,부방,코스닥시장상장법인,649,기타 금융업,영업이익(손실),"-4,330,515,940","-176,078,578","-4,220,138,141",243067,19791214,681,서울특별시 강남구  삼성로 528 부방빌딩,243067,부방,14470,서울특별시,강남구,127.055870744,37.50921142
538,338220,뷰노,코스닥시장상장법인,631,"자료 처리, 호스팅, 포털 및 기타 인터넷 정보 매개 서비스업",영업이익(손실),"-17,812,680,120","-9,721,688,063","-6,021,756,963",1344202,20141210,582,서울특별시 서초구 강남대로 479 9층,1344202,뷰노,338220,서울특별시,서초구,127.023700376,37.505082955
540,337930,브랜드엑스코퍼레이션,코스닥시장상장법인,639,기타 정보 서비스업,영업이익(손실),"10,837,578,760","8,044,141,754","10,036,830,585",1391103,20170823,639,"서울특별시 성동구 뚝섬로1길 63, 12층(성수동1가, 영창디지털타워)",1391103,브랜드엑스코퍼레이션,337930,서울특별시,성동구,127.047719657,37.546707542
542,365900,브이씨,코스닥시장상장법인,333,운동 및 경기용구 제조업,영업이익(손실),"8,418,628,333","6,480,024,710","3,261,415,262",1354740,20050401,3330,"서울특별시 강남구 테헤란로108길 23 대치동, 보이스캐디 사옥",1354740,브이씨,365900,서울특별시,강남구,127.066464616,37.507981831
551,2070,비비안,유가증권시장상장법인,141,봉제의복 제조업,영업이익(손실),"1,419,136,499","2,011,566,911","3,103,266,867",107677,19570614,14120,서울특별시 용산구  서빙고로51길 52,107677,비비안,2070,서울특별시,용산구,126.991114832,37.522657997
552,100220,비상교육,유가증권시장상장법인,581,"서적, 잡지 및 기타 인쇄물 출판업",영업이익(손실),"7,742,344,856","-14,856,788,466","21,937,198,122",520887,20020121,5811,"서울특별시 구로구 디지털로 33길 48 (구로동,대륭포스트타워7차19층)",520887,비상교육,100220,서울특별시,구로구,126.894498106,37.487245246
560,138580,비즈니스온,코스닥시장상장법인,582,소프트웨어 개발 및 공급업,영업이익,"8,991,476,604","5,476,511,745","6,196,229,153",1014657,20071218,58222,서울특별시 성동구 광나루로 172 3층,1014657,비즈니스온,138580,서울특별시,성동구,127.049288654,37.551141176
562,54220,비츠로시스,코스닥시장상장법인,281,"전동기, 발전기 및 전기 변환ㆍ공급ㆍ제어 장치 제조업",영업이익(손실),"-5,110,221,953","-4,395,310,595","-22,155,087,305",201432,19891104,28123,"서울특별시 구로구 디지털로31길 20 8층 802호(구로동, 에이스테크노타워5차)",201432,비츠로시스,54220,서울특별시,구로구,126.894350353,37.485511475
564,357880,비트나인,코스닥시장상장법인,582,소프트웨어 개발 및 공급업,영업이익(손실),"1,182,836,785","-859,262,240","-6,538,503,603",1381984,20131028,58222,서울특별시 강남구 테헤란로 516 정헌빌딩 4층,1381984,비트나인,357880,서울특별시,강남구,127.060079255,37.507412774
565,32850,비트컴퓨터,코스닥시장상장법인,582,소프트웨어 개발 및 공급업,영업이익(손실),"6,408,586,655","5,642,640,703","6,469,235,209",231707,19850418,58221,서울특별시 서초구 서초대로74길 33,231707,비트컴퓨터,32850,서울특별시,서초구,127.02760269,37.494627847
570,143240,사람인에이치알,코스닥시장상장법인,631,"자료 처리, 호스팅, 포털 및 기타 인터넷 정보 매개 서비스업",영업이익,"39,086,102,635","24,066,932,561","27,293,656,832",857480,20051007,63120,"서울특별시 구로구 디지털로34길 43 14층(구로동, 코오롱싸이언스밸리1차)",857480,사람인,143240,서울특별시,구로구,126.898811091,37.485154134
571,3960,사조대림,유가증권시장상장법인,102,수산물 가공 및 저장 처리업,영업이익(손실),"102,255,264,027","49,420,063,503","49,566,681,783",109718,19640501,10211,서울특별시 서초구 남부순환로 2159,109718,사조대림,3960,서울특별시,서초구,126.988988695,37.475625694
572,8040,사조동아원,유가증권시장상장법인,106,"곡물 가공품, 전분 및 전분제품 제조업",영업이익(손실),"19,110,101,101","16,037,788,436","12,454,479,690",137252,19720726,106,서울특별시 서초구 방배천로2길 12 사조빌딩,137252,사조동아원,8040,서울특별시,서초구,126.983563837,37.476698629
573,7160,사조산업,유가증권시장상장법인,31,어로 어업,영업이익(손실),"49,237,466,179","21,917,114,997","18,235,242,972",124799,19710319,3111,서울특별시 서대문구  통일로 107-39 사조산업빌딩 5층,124799,사조산업,7160,서울특별시,서대문구,126.966421971,37.564296144
581,1470,삼부토건,유가증권시장상장법인,412,토목 건설업,영업이익(손실),"-4,353,122,537","-7,849,588,856","4,957,492,088",125974,19550514,41221,서울특별시 중구 퇴계로 67 -,125974,삼부토건,1470,서울특별시,중구,126.9795405,37.559740306
584,28260,삼성물산,유가증권시장상장법인,467,기타 전문 도매업,영업이익(손실),"1,195,982,736,408","857,079,813,534","866,770,072,122",149655,19631223,467,서울특별시 강동구 상일로6길 26 -,149655,삼성물산,28260,서울특별시,강동구,127.175251419,37.548797134
587,68290,삼성출판사,유가증권시장상장법인,581,"서적, 잡지 및 기타 인쇄물 출판업",영업이익(손실),"7,997,004,015","-4,508,253,735","4,797,975,164",423690,20020702,5811,서울특별시 서초구  명달로 94 (주)삼성출판사,423690,삼성출판사,68290,서울특별시,서초구,127.00433609,37.485689699
590,145990,삼양사,유가증권시장상장법인,107,기타 식품 제조업,영업이익,"82,553,000,000","111,573,000,000","81,564,000,000",896285,20111103,10720,서울특별시 종로구 종로33길 31 삼양사,896285,삼양사,145990,서울특별시,종로구,127.001105577,37.572568603
591,3230,삼양식품,유가증권시장상장법인,107,기타 식품 제조업,영업이익,"65,363,413,971","95,337,903,716","78,285,193,733",126955,19610915,107,서울특별시 성북구  오패산로3길 104,126955,삼양식품,3230,서울특별시,성북구,127.034258825,37.60774802
593,70,삼양홀딩스,유가증권시장상장법인,649,기타 금융업,영업이익,"351,700,000,000","170,336,000,000","79,376,000,000",126937,19241001,64992,서울특별시 종로구 종로33길 31,126937,삼양홀딩스,70,서울특별시,종로구,127.001105577,37.572568603
594,2810,삼영무역,유가증권시장상장법인,467,기타 전문 도매업,영업이익,"23,951,912,869","22,352,546,930","9,196,085,718",127167,19591016,46739,서울특별시 마포구  양화로 111,127167,삼영무역,2810,서울특별시,마포구,126.919109727,37.5537926
597,3720,삼영화학공업,유가증권시장상장법인,222,플라스틱 제품 제조업,영업이익(손실),"2,591,808,229","1,317,049,495","-905,742,853",127255,19590410,2221,"서울특별시 종로구 청계천로 35 13층(서린동, 관정빌딩)",127255,삼영,3720,서울특별시,종로구,126.981376171,37.569341486
599,4440,삼일씨엔에스,유가증권시장상장법인,233,"시멘트, 석회, 플라스터 및 그 제품 제조업",영업이익(손실),"13,578,850,935","-257,683,957","3,576,912,928",109806,19651231,23325,서울특별시 중구 을지로5길 16 삼화타워 5층,109806,삼일씨엔에스,4440,서울특별시,중구,126.984906866,37.566950752
600,520,삼일제약,유가증권시장상장법인,212,의약품 제조업,영업이익(손실),"399,740,768","6,538,397,865","4,822,839,404",128032,19471007,21210,"서울특별시 서초구  효령로 155 (방배동, 삼일제약 사옥)",128032,삼일제약,520,서울특별시,서초구,127.001236643,37.482324992
605,4690,삼천리,유가증권시장상장법인,352,연료용 가스 제조 및 배관공급업,영업이익,"69,998,065,700","94,564,154,009","85,565,315,738",128555,19660707,35200,"서울특별시 영등포구  국제금융로6길 42 (여의도동, 삼천리빌딩)",128555,삼천리,4690,서울특별시,영등포구,126.925573718,37.520942106
606,24950,삼천리자전거,코스닥시장상장법인,464,생활용품 도매업,영업이익,"10,845,931,913","10,903,084,302","-8,241,460,328",128607,19790323,46465,서울특별시 강남구 테헤란로 445 (삼성동),128607,삼천리자전거,24950,서울특별시,강남구,127.055830087,37.507040575
609,46390,삼화네트웍스,코스닥시장상장법인,591,"영화, 비디오물, 방송 프로그램 제작 및 배급업",영업이익(손실),"6,750,170,051","-206,716,896","173,531,136",301112,19911012,59120,서울특별시 강남구 선릉로91길 8 신아트스페이스빌딩 5층,301112,삼화네트웍스,46390,서울특별시,강남구,127.047914468,37.505093739
620,42940,상지카일룸,코스닥시장상장법인,411,건물 건설업,영업이익(손실),"-14,673,269,825","-3,099,301,367","591,244,963",232007,19790621,411,"서울특별시 강남구 영동대로 741 9층(청담동, 은성빌딩)",232007,상지카일룸,42940,서울특별시,강남구,127.053703072,37.52423376
623,7540,샘표,유가증권시장상장법인,649,기타 금융업,영업이익(손실),"21,904,156,438","41,110,653,286","29,530,642,938",130091,19711209,64992,서울특별시 중구 충무로 2,130091,샘표,7540,서울특별시,중구,126.993476132,37.561601324
624,248170,샘표식품,유가증권시장상장법인,107,기타 식품 제조업,영업이익(손실),"23,510,478,004","42,800,583,684","31,005,275,920",1167056,20160704,10743,"서울특별시 중구 충무로 2 8층 (필동1가, 매일경제빌딩)",1167056,샘표식품,248170,서울특별시,중구,126.993476132,37.561601324
626,6730,서부T&D,코스닥시장상장법인,551,일반 및 생활 숙박시설 운영업,영업이익(손실),"-5,333,099,753","-22,674,450,439","14,439,054,070",130383,19790713,551,서울특별시 양천구  신정로 167,130383,서부T&D,6730,서울특별시,양천구,126.842278241,37.509357209
631,17390,서울도시가스,유가증권시장상장법인,352,연료용 가스 제조 및 배관공급업,영업이익,"-4,941,094,915","7,989,732,658","10,457,973,561",130684,19831128,35200,서울특별시 강서구 공항대로 607 (염창동),130684,서울도시가스,17390,서울특별시,강서구,126.872414264,37.547481021
632,43710,서울리거,코스닥시장상장법인,467,기타 전문 도매업,영업이익(손실),"2,852,079,375","-14,872,433,552","-4,545,738,410",305570,19910302,467,서울특별시 강남구 논현로133길 9 거야빌딩,305570,서울리거,43710,서울특별시,강남구,127.029288153,37.514911608
650,86710,선진뷰티사이언스,코스닥시장상장법인,204,기타 화학제품 제조업,영업이익(손실),"3,701,978,012","3,559,687,577","4,657,332,315",132202,19880601,20499,서울특별시 금천구 가산디지털2로 43-14 가산한화비즈메트로 2차 8층,132202,선진뷰티사이언스,86710,서울특별시,금천구,126.881501149,37.472396747
652,37350,성도이엔지,코스닥시장상장법인,721,"건축 기술, 엔지니어링 및 관련 기술 서비스업",영업이익,"16,883,775,550","19,246,894,201","19,008,641,402",216498,19880513,721,서울특별시 강남구 영동대로106길 42,216498,성도이엔지,37350,서울특별시,강남구,127.064675766,37.514036756
655,4980,성신양회,유가증권시장상장법인,233,"시멘트, 석회, 플라스터 및 그 제품 제조업",영업이익(손실),"30,023,204,984","21,195,353,796","20,762,748,750",132804,19670316,23311,서울특별시 종로구  인사동5길 29,132804,성신양회,4980,서울특별시,종로구,126.984841914,37.571987461
662,43260,성호전자,코스닥시장상장법인,262,전자 부품 제조업,영업이익(손실),"1,230,300,206","2,839,232,141","-3,074,189,551",317210,19730513,26291,"서울특별시 금천구 가산디지털1로 226 에이스하이엔드타워5차 105호, 106호",317210,성호전자,43260,서울특별시,금천구,126.879957172,37.485421415
666,4490,세방전지,유가증권시장상장법인,282,일차전지 및 축전지 제조업,영업이익(손실),"99,704,951,541","86,348,974,704","105,678,424,154",133858,19520910,28202,서울특별시 강남구 선릉로 433,133858,세방전지,4490,서울특별시,강남구,127.048901599,37.503766842
667,11560,세보엠이씨,코스닥시장상장법인,422,건물설비 설치 공사업,영업이익,"8,591,768,646","7,069,126,711","-8,949,531,943",133876,19780726,422,서울특별시 서초구  효령로 341,133876,세보엠이씨,11560,서울특별시,서초구,127.021317166,37.4866403
671,58650,세아홀딩스,유가증권시장상장법인,241,1차 철강 제조업,영업이익(손실),"308,204,380,275","13,075,575,150","89,528,018,488",377610,20010701,241,서울특별시 마포구 양화로 45,377610,세아홀딩스,58650,서울특별시,마포구,126.914200617,37.550761058
672,52190,세영디앤씨,코스닥시장상장법인,901,창작 및 예술관련 서비스업,영업이익(손실),"-858,828,966","-4,706,521,234","-9,148,935,237",347877,19941028,901,서울특별시 강남구 학동로 215 4층 401호(씨엘타워),347877,세영디앤씨,52190,서울특별시,강남구,127.0325704,37.514863865
678,36630,세종텔레콤,코스닥시장상장법인,612,전기 통신업,영업이익(손실),"-7,533,739,468","2,424,253,574","-9,525,546,396",268002,19920609,61210,서울특별시 강동구 상일로10길 36세종텔레콤 지식산업센터,268002,세종텔레콤,36630,서울특별시,강동구,127.174120248,37.550730443
679,39310,세중,코스닥시장상장법인,752,여행사 및 기타 여행 보조 서비스업,영업이익(손실),"4,881,682,129","1,605,582,481","3,935,148,861",264671,19951207,582,서울특별시 종로구 창경궁로 143 세중타워 6층,264671,세중,39310,서울특별시,종로구,126.997121002,37.575232426
683,234340,세틀뱅크,코스닥시장상장법인,639,기타 정보 서비스업,영업이익(손실),"15,287,940,649","10,657,835,807","13,432,507,477",763701,20001009,63999,"서울특별시 강남구 테헤란로34길 6, 9~10층  ;",763701,헥토파이낸셜,234340,서울특별시,강남구,127.039885944,37.501063237
687,49180,셀루메드,코스닥시장상장법인,211,기초 의약 물질 및 생물학적 제제 제조업,영업이익(손실),"4,745,850,269","1,881,118,074","-8,048,175,878",310156,19850430,21101,"서울특별시 금천구  디지털로 130 402(가산동, 에이스테크노타워 9차)",310156,셀루메드,49180,서울특별시,금천구,126.881907647,37.475420328
688,268600,셀리버리,코스닥시장상장법인,701,자연과학 및 공학 연구개발업,영업이익(손실),"-28,049,957,037","-17,611,649,175","-14,584,399,348",1182444,20140314,70113,서울특별시 마포구 성암로 189,1182444,셀리버리,268600,서울특별시,마포구,126.897897156,37.57679306
691,53110,소리바다,코스닥시장상장법인,631,"자료 처리, 호스팅, 포털 및 기타 인터넷 정보 매개 서비스업",영업이익(손실),"-3,719,699,549","-9,421,411,575","-7,458,717,677",352718,19980813,631,"서울특별시 강남구 도산대로 217 3층(신사동, 강남빌딩)",352718,소리바다,53110,서울특별시,강남구,127.030559787,37.520825945
692,32680,소프트센,코스닥시장상장법인,465,기계장비 및 관련 물품 도매업,영업이익(손실),"20,571,461,479","4,380,998,999","247,278,771",204226,19880411,639,"서울특별시 서초구 반포대로 13 1층 (서초동, 아이티센빌딩)",204226,소프트센,32680,서울특별시,서초구,127.011899997,37.48187677
698,35610,솔본,코스닥시장상장법인,715,회사 본부 및 경영 컨설팅 서비스업,영업이익(손실),"15,663,181,185","7,272,034,079","314,829,373",249982,19940805,715,"서울특별시 강남구  학동로95길 51 청담동,청담스포피아",249982,솔본,35610,서울특별시,강남구,127.052789337,37.522291162
700,304100,솔트룩스,코스닥시장상장법인,582,소프트웨어 개발 및 공급업,III. 영업이익(손실),"-3,877,938,673","355,527,741","25,138,761",1050738,19810817,582,서울특별시 강남구 언주로 538,1050738,솔트룩스,304100,서울특별시,강남구,127.041227143,37.506381324
708,192440,슈피겐코리아,코스닥시장상장법인,339,그 외 기타 제품 제조업,영업이익(손실),"44,439,629,582","79,674,418,917","44,084,208,861",917861,20090218,339,서울특별시 강남구 봉은사로 446 슈피겐HQ,917861,슈피겐코리아,192440,서울특별시,강남구,127.048516612,37.511361245
711,276040,스코넥,코스닥시장상장법인,582,소프트웨어 개발 및 공급업,III.영업이익(손실),"-3,253,645,177","-5,619,422,350","-5,938,290,116",1290248,20020416,5821,"서울특별시 강남구 선릉로 577, 9층(역삼동, 조선내화빌딩)",1290248,스코넥,276040,서울특별시,강남구,127.043649339,37.509908873
714,253450,스튜디오드래곤,코스닥시장상장법인,591,"영화, 비디오물, 방송 프로그램 제작 및 배급업",영업이익(손실),"52,576,803,933","49,117,055,975","28,701,606,368",1168684,20160503,59114,"서울특별시 마포구 매봉산로 75 1701호 (상암동, 디디엠씨)",1168684,스튜디오드래곤,253450,서울특별시,마포구,126.892863253,37.578178003
715,204630,스튜디오산타클로스,코스닥시장상장법인,901,창작 및 예술관련 서비스업,영업이익(손실),"-1,039,406,226","-4,702,417,450","-4,855,333,498",1046203,20140812,901,"서울특별시 성동구 독서당로39길 37-37 302호(옥수동, 루하우스)",1046203,스튜디오산타클로스,204630,서울특별시,성동구,127.009626528,37.541173036
716,13810,스페코,코스닥시장상장법인,292,특수 목적용 기계 제조업,영업이익(손실),"2,805,011,555","12,007,958,474","6,635,585,349",136165,19790207,29229,서울특별시 강남구 학동로 171 삼익빌딩 7층,136165,스페코,13810,서울특별시,강남구,127.029502096,37.514060424
717,39670,스포츠서울,코스닥시장상장법인,581,"서적, 잡지 및 기타 인쇄물 출판업",영업이익(손실),"-3,459,155,532","-5,572,636,519","-5,878,278,549",298687,19991230,58121,"서울특별시 중구 삼일대로6길 5 11층(충무로2가, 조양빌딩신관)",298687,스포츠서울,39670,서울특별시,중구,126.989317835,37.562509847
723,131090,시큐브,코스닥시장상장법인,582,소프트웨어 개발 및 공급업,영업이익(손실),"5,483,437,281","4,219,690,318","5,056,997,692",402110,20000323,58221,"서울특별시 구로구  디지털로26길 111 JnK디지털타워 801,802,803호",402110,시큐브,131090,서울특별시,구로구,126.897276533,37.482515061
727,29530,신도리코,유가증권시장상장법인,263,컴퓨터 및 주변 장치 제조업,영업이익(손실),"4,323,466,550","-14,618,313,385","6,275,157,301",135795,19600707,263,서울특별시 성동구  성수이로24길 3 (주)신도리코,135795,신도리코,29530,서울특별시,성동구,127.05905487,37.545578739
728,25870,신라에스지,코스닥시장상장법인,463,음ㆍ식료품 및 담배 도매업,영업이익,"2,238,199,821","327,916,312","2,097,047,368",136004,19770818,463,서울특별시 송파구  백제고분로 362 (석촌동),136004,신라에스지,25870,서울특별시,송파구,127.106435758,37.504419843
729,215600,신라젠,코스닥시장상장법인,701,자연과학 및 공학 연구개발업,영업손실,"-20,350,080,938","-34,210,158,046","-58,492,593,158",919966,20060328,70113,"서울특별시 중구 소공로 109 9층(소공동, 한화빌딩)",919966,신라젠,215600,서울특별시,중구,126.978551635,37.564195309
730,5390,신성통상,유가증권시장상장법인,467,기타 전문 도매업,영업이익(손실),"74,322,762,774","41,441,941,788","40,700,423,324",136341,19680111,467,서울특별시 강동구 풍성로63길 84(둔촌동),136341,신성통상,5390,서울특별시,강동구,127.140295298,37.53165334
731,31440,신세계푸드,유가증권시장상장법인,561,음식점업,영업이익(손실),"29,304,993,858","7,740,551,472","22,160,381,500",274933,19791011,56130,"서울특별시 성동구 성수일로 56 성수동BY센터 4-7층(성수동2가, 백영 성수빌딩)",274933,신세계푸드,31440,서울특별시,성동구,127.050424276,37.545360913
732,6880,신송홀딩스,유가증권시장상장법인,462,산업용 농ㆍ축산물 및 동ㆍ식물 도매업,영업이익(손실),"6,867,678,554","5,152,838,429","-309,065,510",136402,19701105,46201,서울특별시 영등포구 여의나루로 53-1,136402,신송홀딩스,6880,서울특별시,영등포구,126.924981943,37.522738531
734,5800,신영와코루,유가증권시장상장법인,141,봉제의복 제조업,영업이익,"3,690,487,329","515,442,717","215,265,955",136624,19681021,14120,서울특별시 금천구  가산디지털1로 104 (주)신영와코루,136624,신영와코루,5800,서울특별시,금천구,126.884944852,37.475189705
735,9270,신원,유가증권시장상장법인,141,봉제의복 제조업,영업이익(손실),"21,639,200,846","300,342,459","8,962,866,371",136864,19730926,14112,서울특별시 마포구  독막로 328 신원빌딩,136864,신원,9270,서울특별시,마포구,126.948588229,37.542596067
740,404990,신한서부티엔디리츠,유가증권시장상장법인,681,부동산 임대 및 공급업,영업이익(손실),"5,663,999,257","3,556,152,725","254,721,667",1436558,20200102,68112,"서울특별시 종로구 종로 33 (청진동, 그랑서울) 1동 18층",1436558,신한서부티엔디리츠,404990,서울특별시,종로구,126.981435735,37.571014181
741,293940,신한알파리츠,유가증권시장상장법인,681,부동산 임대 및 공급업,영업이익(손실),"22,814,306,766","13,350,362,969","13,968,000,283",1276594,20171218,6811,"서울특별시 종로구 종로 33 그랑서울, 18층",1276594,신한알파리츠,293940,서울특별시,종로구,126.981435735,37.571014181
742,293940,신한알파리츠,유가증권시장상장법인,681,부동산 임대 및 공급업,영업이익(손실),"22,073,213,032","22,814,306,766","13,350,362,969",1276594,20171218,6811,"서울특별시 종로구 종로 33 그랑서울, 18층",1276594,신한알파리츠,293940,서울특별시,종로구,126.981435735,37.571014181
745,4080,신흥,유가증권시장상장법인,465,기계장비 및 관련 물품 도매업,영업이익(손실),"13,042,805,671","3,157,339,788","1,628,388,570",173795,19641113,4659,서울특별시 중구 청파로 450  (중림동) 신흥빌딩 8층 재경팀,173795,신흥,4080,서울특별시,중구,126.968812783,37.5596791
751,102280,쌍방울,유가증권시장상장법인,141,봉제의복 제조업,영업이익(손실),"-2,306,484,345","-1,261,285,101","-10,342,326,742",681142,20080502,14120,서울특별시 중구 퇴계로 390 -,681142,쌍방울,102280,서울특별시,중구,127.015056129,37.564964666
761,4920,씨아이테크,유가증권시장상장법인,339,그 외 기타 제품 제조업,영업이익(손실),"871,731,347","-2,842,637,633","-2,960,322,679",127158,19670117,339,서울특별시 송파구 양재대로 932 가락몰 업무동 11층 동관,127158,씨아이테크,4920,서울특별시,송파구,127.116264958,37.493647125
765,112610,씨에스윈드,유가증권시장상장법인,251,"구조용 금속제품, 탱크 및 증기발생기 제조업",영업이익(손실),"100,965,948,942","97,574,461,877","60,135,938,305",670340,20060816,2511,서울특별시 강남구 언주로 723 -,670340,씨에스윈드,112610,서울특별시,강남구,127.034601294,37.518963993
766,359090,씨엔알리서치,코스닥시장상장법인,739,"그 외 기타 전문, 과학 및 기술 서비스업",영업이익(손실),"5,813,414,468","4,936,435,304",,1487446,20200618,739,"서울특별시 강남구 역삼로 412 (대치동, 씨엔알빌딩)",1487446,씨엔알리서치,359090,서울특별시,강남구,127.052340685,37.500740587
770,96530,씨젠,코스닥시장상장법인,213,의료용품 및 기타 의약 관련제품 제조업,영업이익,"666,658,312,398","676,189,736,451","22,423,158,244",788773,20000918,2130,서울특별시 송파구 오금로 91(방이동) 7층,788773,씨젠,96530,서울특별시,송파구,127.107654419,37.514052755
773,260930,씨티케이,코스닥시장상장법인,204,기타 화학제품 제조업,영업이익(손실),"-14,290,620,180","527,501,750","3,950,193,594",1144028,20010508,20423,서울특별시 서초구 효령로 234 씨티케이코스메틱스,1144028,씨티케이,260930,서울특별시,서초구,127.009848336,37.483476545
774,13990,아가방컴퍼니,코스닥시장상장법인,464,생활용품 도매업,영업이익(손실),"5,905,777,500","-3,910,670,133","-3,483,679,557",138446,19790402,46414,서울특별시 강남구 테헤란로 207 아가방빌딩,138446,아가방컴퍼니,13990,서울특별시,강남구,127.038721497,37.501716311
776,8700,아남전자,유가증권시장상장법인,265,영상 및 음향 기기 제조업,영업이익(손실),"13,225,147","5,891,295","2,681,242",138516,19730420,265,서울특별시 구로구 디지털로27가길 27아남빌딩,138516,아남전자,8700,서울특별시,구로구,126.892535114,37.484672586
777,90430,아모레퍼시픽,유가증권시장상장법인,204,기타 화학제품 제조업,영업이익,"343,357,809,050","143,009,119,307","427,834,596,504",583424,20060601,20423,서울특별시 용산구 한강대로 100 (한강로2가),583424,아모레퍼시픽,90430,서울특별시,용산구,126.968673277,37.528791434
778,2790,아모레퍼시픽그룹,유가증권시장상장법인,204,기타 화학제품 제조업,영업이익,"356,171,273,550","150,661,048,495","498,249,817,871",154462,19590306,20423,서울특별시 용산구 한강대로 100 (한강로2가),154462,아모레퍼시픽그룹,2790,서울특별시,용산구,126.968673277,37.528791434
780,74430,아미노로직스,코스닥시장상장법인,467,기타 전문 도매업,영업이익(손실),"4,103,891,652","2,476,096,679","-761,038,280",466428,19970903,467,서울특별시 강남구 역삼로 151 삼오빌딩3층 301호,466428,아미노로직스,74430,서울특별시,강남구,127.035662716,37.494923298
784,2030,아세아,유가증권시장상장법인,715,회사 본부 및 경영 컨설팅 서비스업,영업이익(손실),"228,865,744,338","146,952,544,905","158,437,631,946",138701,19570427,715,서울특별시 강남구  논현로 430 아세아타워빌딩 14층,138701,아세아,2030,서울특별시,강남구,127.03835547,37.499000997
786,2310,아세아제지,유가증권시장상장법인,172,"골판지, 종이 상자 및 종이 용기 제조업",영업이익(손실),"93,875,118,756","65,707,649,110","71,117,330,003",138729,19580307,172,서울특별시 강남구  논현로 430,138729,아세아제지,2310,서울특별시,강남구,127.03835547,37.499000997
787,12170,아센디오,유가증권시장상장법인,591,"영화, 비디오물, 방송 프로그램 제작 및 배급업",영업이익(손실),"-3,557,150,999","-3,464,251,994","-8,161,344,868",145437,19770421,591,"서울특별시 강남구 언주로 729 8층(논현동, 마스터스빌딩)",145437,아센디오,12170,서울특별시,강남구,127.034170655,37.519930111
791,20560,아시아나항공,유가증권시장상장법인,511,항공 여객 운송업,영업이익(손실),"93,203,600,406","-271,788,563,756","-435,709,495,659",138792,19880217,511,서울특별시 강서구  오정로 443-83,138792,아시아나항공,20560,서울특별시,강서구,126.797834009,37.545738167
792,227610,아우딘퓨쳐스,코스닥시장상장법인,204,기타 화학제품 제조업,영업이익(손실),"-7,721,456,887","-5,883,151,678","-20,663,704,456",1080687,20001218,20423,"서울특별시 강남구 테헤란로 508 해성2빌딩 (대치동, 해성2빌딩 15층)",1080687,아우딘퓨쳐스,227610,서울특별시,강남구,127.057985796,37.506824991
795,332370,아이디피,코스닥시장상장법인,263,컴퓨터 및 주변 장치 제조업,영업이익,"3,921,517,533","2,017,340,257","4,178,986,691",1213586,20051208,26329,"서울특별시 구로구 디지털로33길 50, 601",1213586,아이디피,332370,서울특별시,구로구,126.894027646,37.487545595
796,122900,아이마켓코리아,유가증권시장상장법인,468,상품 종합 도매업,영업이익,"45,420,682,449","40,515,731,617","52,038,830,520",360142,20001208,46800,서울특별시 강남구 삼성로 512 삼성동빌딩 16층,360142,아이마켓코리아,122900,서울특별시,강남구,127.056598198,37.508107446
797,339950,아이비김영,코스닥시장상장법인,855,일반 교습학원,영업이익(손실),"7,844,870,225","4,061,770,907","7,334,279,453",1414422,20191011,85503,"서울특별시 서초구 강남대로 279 4,5층(서초동, 백향빌딩)",1414422,아이비김영,339950,서울특별시,서초구,127.031757445,37.488106483
801,10780,아이에스동서,유가증권시장상장법인,232,"내화, 비내화 요업제품 제조업",영업이익(손실),"310,765,130,275","209,023,343,475","71,460,811,752",115977,19750901,233,서울특별시 강남구  영동대로 741,115977,아이에스동서,10780,서울특별시,강남구,127.053703072,37.52423376
802,69920,아이에스이커머스,코스닥시장상장법인,479,무점포 소매업,영업이익(손실),"-7,802,164,718","120,871,334","-4,740,107,990",426068,20010314,479,"서울특별시 강남구 영동대로 648 (삼성동,삼안빌딩 5층)",426068,아이에스이커머스,69920,서울특별시,강남구,127.057652598,37.519989914
803,38880,아이에이,코스닥시장상장법인,262,전자 부품 제조업,영업이익(손실),"6,701,245,261","4,355,751,851","2,721,529,576",252269,19930805,262,서울특별시 송파구  송파대로22길 5-23,252269,아이에이,38880,서울특별시,송파구,127.121785294,37.488402508
804,3560,아이에이치큐,유가증권시장상장법인,591,"영화, 비디오물, 방송 프로그램 제작 및 배급업",영업손실,"-11,640,188,629","-16,226,862,450","-7,041,132,245",154426,19620824,591,서울특별시 강서구 강서로 501-8 6층,154426,아이에이치큐,3560,서울특별시,강서구,126.841109047,37.570665083
807,78860,아이오케이,코스닥시장상장법인,591,"영화, 비디오물, 방송 프로그램 제작 및 배급업",영업이익(손실),"-8,353,332,102","-2,950,518,239","440,475,472",543204,20000426,591,서울특별시 용산구 서빙고로51길 52 비비안빌딩 2층,543204,아이오케이,78860,서울특별시,용산구,126.991114832,37.522657997
810,31310,아이즈비전,코스닥시장상장법인,612,전기 통신업,영업이익(손실),"8,588,728,700","5,699,225,702","-454,654,027",200910,19920909,612,서울특별시 동작구 여의대방로62길 1 2층,200910,아이즈비전,31310,서울특별시,동작구,126.927061086,37.514156239
811,185490,아이진,코스닥시장상장법인,701,자연과학 및 공학 연구개발업,영업손실,"-35,003,744,404","-13,674,653,992","-9,354,868,238",945457,20000623,70113,서울특별시 강서구 양천로 401 비동 12층 1211호,945457,아이진,185490,서울특별시,강서구,126.848667339,37.565143139
812,262840,아이퀘스트,코스닥시장상장법인,582,소프트웨어 개발 및 공급업,영업이익,"3,608,949,612","4,875,659,090","2,417,386,454",1146822,19961127,58222,서울특별시 구로구 디지털로34길 55 407호,1146822,아이퀘스트,262840,서울특별시,구로구,126.899285087,37.484345905
813,175250,아이큐어,코스닥시장상장법인,212,의약품 제조업,영업이익(손실),"-28,283,201,852","-15,533,657,502","-6,291,250,579",554352,20000529,21210,서울특별시 강남구 봉은사로104길 10 7층,554352,아이큐어,175250,서울특별시,강남구,127.061917901,37.513717431
814,52460,아이크래프트,코스닥시장상장법인,620,"컴퓨터 프로그래밍, 시스템 통합 및 관리업",영업이익(손실),"2,099,545,973","33,813,577","28,493,772",405719,20000121,620,서울특별시 강남구 테헤란로44길 8 아이콘역삼 7층 및 8층,405719,아이크래프트,52460,서울특별시,강남구,127.044436899,37.502363266
816,52770,아이톡시,코스닥시장상장법인,582,소프트웨어 개발 및 공급업,영업이익(손실),"-5,266,601,265","-73,942,084","-2,076,146,157",346911,19970630,467,서울특별시 강남구 도산대로 427 파모소빌딩 4층,346911,아이톡시,52770,서울특별시,강남구,127.042558664,37.523948352
817,124500,아이티센,코스닥시장상장법인,620,"컴퓨터 프로그래밍, 시스템 통합 및 관리업",영업이익(손실),"31,538,468,377","14,562,145,227","25,201,012,728",620868,20050510,62021,서울특별시 서초구 반포대로13 아이티센빌딩,620868,아이티센,124500,서울특별시,서초구,0.0,0.0
818,372800,아이티아이즈,코스닥시장상장법인,582,소프트웨어 개발 및 공급업,영업손익,"-2,523,341,783","3,053,248,586","2,325,949,424",1429840,20120807,58221,"서울특별시 영등포구 은행로 37, 5층",1429840,아이티아이즈,372800,서울특별시,영등포구,126.922617514,37.529453307
826,361570,알비더블유,코스닥시장상장법인,592,오디오물 출판 및 원판 녹음업,영업이익(손실),"9,577,730,579","7,626,852,754","5,142,768,363",1303029,20100305,59201,"서울특별시 광진구 자양로 129 12층(자양동, 알비더블유타워)",1303029,알비더블유,361570,서울특별시,광진구,127.082934581,37.539267596
827,131370,알서포트,코스닥시장상장법인,582,소프트웨어 개발 및 공급업,영업이익(손실),"17,455,957,407","18,466,992,910","5,801,169,422",838962,20100722,58222,"서울특별시 송파구 위례성대로 10 8층, 9층, 10층, 11층, 12층 (방이동, 에스타워)",838962,알서포트,131370,서울특별시,송파구,127.113518029,37.51672519
834,85810,알티캐스트,코스닥시장상장법인,582,소프트웨어 개발 및 공급업,영업이익(손실),"2,752,237,425","4,281,204,646","-13,496,180,044",364254,19990201,58222,서울특별시 서초구 반포대로 27파크빌딩 6층,364254,알티캐스트,85810,서울특별시,서초구,127.011599182,37.482861889
836,18250,애경산업,유가증권시장상장법인,204,기타 화학제품 제조업,Ⅴ. 영업이익,"24,385,008,253","22,370,255,451","60,601,371,864",139454,19850425,20422,서울특별시 마포구 양화로 188 -,139454,애경산업,18250,서울특별시,마포구,126.92677875,37.55744526
837,161000,애경케미칼,유가증권시장상장법인,201,기초 화학물질 제조업,영업이익(손실),"93,260,474,911","57,487,296,055","46,852,557,491",936787,20120903,201,서울특별시 마포구 양화로 188 9층(동교동),936787,애경케미칼,161000,서울특별시,마포구,126.92677875,37.55744526
841,205500,액션스퀘어,코스닥시장상장법인,582,소프트웨어 개발 및 공급업,영업이익(손실),"-7,358,939,316","-1,851,301,128","-8,228,877,960",1042429,20140827,582,"서울특별시 강남구 테헤란로 419 20층(삼성동, 강남파이낸스플라자)",1042429,액션스퀘어,205500,서울특별시,강남구,127.052179532,37.50586198
842,52790,액토즈소프트,코스닥시장상장법인,582,소프트웨어 개발 및 공급업,영업이익,"25,383,870,235","17,854,203,641","25,654,108,358",348034,19961029,5821,"서울특별시 중구 서애로 33 1층, 4층, 5층(필동3가,티엔에스빌딩)",348034,액토즈소프트,52790,서울특별시,중구,126.99654522,37.559543276
846,129890,앱코,코스닥시장상장법인,263,컴퓨터 및 주변 장치 제조업,영업이익,"-9,216,869,752","23,538,443,829","5,486,883,331",1207716,20010711,26329,서울특별시 강서구 마곡중앙1로 20 M시그니처 7층 &nbsp,1207716,앱코,129890,서울특별시,강서구,126.824716032,37.558593379
853,38680,에스넷,코스닥시장상장법인,620,"컴퓨터 프로그래밍, 시스템 통합 및 관리업",영업이익(손실),"-1,243,499,962","4,187,945,805","7,458,716,724",264635,19990208,62021,서울특별시 강남구 선릉로 514 성원빌딩,264635,에스넷,38680,서울특별시,강남구,127.049163074,37.505602847
855,217480,에스디생명공학,코스닥시장상장법인,204,기타 화학제품 제조업,영업이익(손실),"-34,822,452,381","-3,712,204,178","-16,407,848,158",1099667,20080919,20423,서울특별시 강서구 마곡중앙8로1길 66 -,1099667,에스디생명공학,217480,서울특별시,강서구,126.837257638,37.566655272
862,41510,에스엠,코스닥시장상장법인,592,오디오물 출판 및 원판 녹음업,영업이익,"67,520,136,401","6,495,064,093","40,396,706,232",260930,19950214,59201,서울특별시 성동구 왕십리로 83-21 아크로 서울포레스트 디타워,260930,에스엠,41510,서울특별시,성동구,127.044186603,37.544307479
863,7820,에스엠코어,코스닥시장상장법인,291,일반 목적용 기계 제조업,영업이익(손실),"-2,489,244,184","1,559,220,846","3,858,617,411",137915,19720413,29169,서울특별시 마포구  마포대로 20 다보빌딩,137915,에스엠코어,7820,서울특별시,마포구,126.945006588,37.538441342
865,306040,에스제이그룹,코스닥시장상장법인,151,"가죽, 가방 및 유사 제품 제조업",영업이익,"29,111,359,438","18,029,897,243","16,366,615,474",1222432,20080314,15129,서울특별시 강남구 도곡로 156 SJ빌딩,1222432,에스제이그룹,306040,서울특별시,강남구,127.037062982,37.490948134
871,98660,에스티오,코스닥시장상장법인,141,봉제의복 제조업,영업이익,"298,784,961","-1,100,305,688","5,351,881,126",612188,20030222,1419,"서울특별시 강서구  양천로 583 우림블루나인 (염창동, 우림블루나인비즈니스센터비동 15층)",612188,에스티오,98660,서울특별시,강서구,126.864200027,37.557113328
872,52020,에스티큐브,코스닥시장상장법인,465,기계장비 및 관련 물품 도매업,영업이익(손실),"-18,950,232,263","-12,732,185,357","-3,084,161,336",273110,19890816,465,"서울특별시 강남구  영동대로 511 2201(삼성동, 무역센터 트레이드타워)",273110,에스티큐브,52020,서울특별시,강남구,127.060999083,37.510322574
877,23960,에쓰씨엔지니어링,유가증권시장상장법인,412,토목 건설업,영업이익(손실),"-6,633,227,964","-1,999,554,570","1,013,792,014",121969,19710114,412,"서울특별시 강서구 공항대로 396 7,8층",121969,에쓰씨엔지니어링,23960,서울특별시,강서구,126.851093739,37.555828177
878,187660,에이디엠코리아,코스닥시장상장법인,701,자연과학 및 공학 연구개발업,영업이익(손실),"2,090,550,559","3,530,521,258","850,876,993",1409022,20031031,70113,"서울특별시 종로구 새문안로5길 19, 7층 711호(당주동, 로얄빌딩)",1409022,에이디엠코리아,187660,서울특별시,종로구,126.974291344,37.572005554
880,78520,에이블씨엔씨,유가증권시장상장법인,204,기타 화학제품 제조업,영업이익(손실),"-22,379,323,056","-67,995,501,905","1,834,111,614",400857,20000107,20423,"서울특별시 중구 남대문로 78 7층(명동1가, 타임워크명동빌딩)",400857,에이블씨엔씨,78520,서울특별시,중구,126.982985497,37.564201004
881,203400,에이비온,코스닥시장상장법인,701,자연과학 및 공학 연구개발업,영업이익(손실),"-10,671,631,780","-10,851,645,040","-8,822,093,261",977377,20070416,70113,서울특별시 구로구 디지털로 242 한화비즈메트로1차 242915호,977377,에이비온,203400,서울특별시,구로구,126.89262014,37.480826209
884,241840,에이스토리,코스닥시장상장법인,591,"영화, 비디오물, 방송 프로그램 제작 및 배급업",영업이익(손실),"6,927,688,603","-877,118,696","-1,073,302,148",975290,20040106,591,"서울특별시 마포구 월드컵북로 396 연구개발타워 14층 1401호 (상암동, 누리꿈스퀘어)",975290,에이스토리,241840,서울특별시,마포구,126.889782088,37.579428847
886,227100,에이치앤비디자인,코스닥시장상장법인,281,"전동기, 발전기 및 전기 변환ㆍ공급ㆍ제어 장치 제조업",영업이익(손실),"-9,252,024,703","-5,381,761,113","-3,639,916,191",1207761,20120510,2811,서울특별시 강남구 테헤란로 301 18층,1207761,에이치앤비디자인,227100,서울특별시,강남구,127.043062532,37.503116773
887,176440,에이치엔티,코스닥시장상장법인,262,전자 부품 제조업,영업이익(손실),"-6,416,624,178","-11,223,674,387","-4,578,076,220",872452,20081007,26224,"서울특별시 송파구 법원로 128 (문정동, 문정에스케이브이원지엘메트로시티), C동 1101-26호",872452,미래오토스,176440,서울특별시,송파구,127.120453886,37.486831399
888,43220,에이치엘비파워,코스닥시장상장법인,292,특수 목적용 기계 제조업,영업이익(손실),"-5,317,171,707","1,312,812,242","3,388,671,127",317487,19950731,292,"서울특별시 강남구 언주로 527 3층(역삼동, 강남텔레피아빌딩)",317487,티에스넥스젠,43220,서울특별시,강남구,127.041039938,37.505425076
891,357230,에이치피오,코스닥시장상장법인,107,기타 식품 제조업,영업이익(손실),"22,840,949,360","25,670,235,517","9,776,887,132",1068737,20120406,10797,서울특별시 영등포구 양평로 115 -,1068737,에이치피오,357230,서울특별시,영등포구,126.894606173,37.537308215
899,3060,에이프로젠제약,유가증권시장상장법인,212,의약품 제조업,영업이익(손실),"-3,799,173,381","-2,605,967,402","-1,960,392,122",101044,19601203,21210,"서울특별시 송파구 오금로19길 6 301호(방이동, 강호빌딩)",101044,에이프로젠바이오로직스,3060,서울특별시,송파구,127.113586042,37.510209067
900,244920,에이플러스에셋,유가증권시장상장법인,662,보험 및 연금관련 서비스업,영업이익,"5,736,591,082","23,161,397,064","20,880,411,060",684802,20070607,66202,서울특별시 서초구 강남대로 369 에이플러스에셋타워,684802,에이플러스에셋,244920,서울특별시,서초구,127.028208435,37.495673498
903,230360,에코마케팅,코스닥시장상장법인,713,광고업,영업이익(손실),"40,062,457,774","58,860,907,917","37,837,722,117",1029394,20030324,71310,"서울특별시 강남구 학동로 343 14층(논현동, 포바강남타워)",1029394,에코마케팅,230360,서울특별시,강남구,127.040619448,37.51748074
911,64850,에프앤가이드,코스닥시장상장법인,639,기타 정보 서비스업,영업이익(손실),"5,110,121,355","4,396,750,993","2,758,260,551",331016,20000705,639,서울특별시 강서구 마곡중앙2로 61,331016,에프앤가이드,64850,서울특별시,강서구,126.833714579,37.557632005
912,64090,에프앤리퍼블릭,코스닥시장상장법인,468,상품 종합 도매업,영업이익(손실),"-7,850,172,376","-13,432,427,813","-22,802,892,021",390408,19910930,468,"서울특별시 강남구 영동대로 701 8F(청담동, W타워)",390408,웨스트라이즈,64090,서울특별시,강남구,127.056368592,37.520146644
916,54940,엑사이엔씨,코스닥시장상장법인,424,실내건축 및 건축마무리 공사업,영업이익(손실),"-4,012,627,481","967,781,697","3,029,417,204",360577,19910503,424,서울특별시 구로구  디지털로 288,360577,엑사이엔씨,54940,서울특별시,구로구,126.895499775,37.483565349
918,205100,엑셈,코스닥시장상장법인,582,소프트웨어 개발 및 공급업,영업이익(손실),"12,306,499,162","9,648,151,750","6,315,139,791",1042085,20140821,58221,"서울특별시 강서구 마곡중앙8로5길 40 (마곡동 785-1, (주)엑셈)",1042085,엑셈,205100,서울특별시,강서구,126.838200219,37.564516836
922,236810,엔비티,코스닥시장상장법인,713,광고업,영업이익(손실),"3,143,199,280","-1,252,807,398","2,247,810,016",1051065,20120917,71310,서울특별시 서초구 서초대로38길 12 마제스타시티 타워원 14층,1051065,엔비티,236810,서울특별시,서초구,127.005356587,37.490469547
924,101400,엔시트론,코스닥시장상장법인,261,반도체 제조업,영업이익(손실),"652,341,287","-2,860,855,471","-5,818,485,732",641393,20000404,2611,"서울특별시 강남구 언주로148길 19 4층(논현동, 청호빌딩)",641393,엔시트론,101400,서울특별시,강남구,127.036071196,37.521050944
925,36570,엔씨소프트,유가증권시장상장법인,582,소프트웨어 개발 및 공급업,영업이익(손실),"375,213,171,049","824,793,705,694","478,992,418,793",261443,19970311,582,서울특별시 강남구 테헤란로 509(삼성동),261443,엔씨소프트,36570,서울특별시,강남구,127.058205471,37.507782561
927,31860,엔에스엔,코스닥시장상장법인,468,상품 종합 도매업,영업이익(손실),"-8,640,374,457","-6,360,929,243","-7,886,863,948",180865,19790912,46800,"서울특별시 강남구 영동대로96길 20 7층(삼성동, 대화빌딩)",180865,엔에스엔,31860,서울특별시,강남구,127.064213891,37.510776467
934,69410,엔텔스,코스닥시장상장법인,582,소프트웨어 개발 및 공급업,영업이익(손실),"2,446,137,285","4,272,902,932","2,783,299,228",415707,20000719,58221,"서울특별시 강남구 학동로 401 15층(청담동, 금하빌딩)",415707,엔텔스,69410,서울특별시,강남구,127.041755824,37.517684165
936,291230,엔피,코스닥시장상장법인,759,기타 사업 지원 서비스업,영업이익(손실),"905,658,242","3,745,534,202","3,300,774,401",1276901,20180206,759,서울특별시 강남구 언주로133길 27 더메이빌딩,1276901,엔피,291230,서울특별시,강남구,127.032997337,37.515893126
950,58630,엠게임,코스닥시장상장법인,582,소프트웨어 개발 및 공급업,영업이익(손실),"18,382,829,603","10,594,004,412","7,248,905,253",397058,19991228,5821,서울특별시 금천구  가산디지털1로 145 에이스하이엔드타워3차,397058,엠게임,58630,서울특별시,금천구,126.881596144,37.478176675
951,58970,엠로,코스닥시장상장법인,582,소프트웨어 개발 및 공급업,영업이익,"6,731,754,516","6,459,195,015","922,849,267",396925,20000315,582,"서울특별시 영등포구 당산로41길 11, SK V1센터 E동 5층",396925,엠로,58970,서울특별시,영등포구,126.898095205,37.530832136
952,169330,엠브레인,코스닥시장상장법인,714,시장 조사 및 여론 조사업,영업이익,"6,248,560,476","4,619,525,384","2,576,070,308",877174,19981012,71400,서울특별시 강남구 강남대로 318,877174,엠브레인,169330,서울특별시,강남구,127.031190223,37.491576828
956,323230,엠에프엠코리아,코스닥시장상장법인,143,편조의복 제조업,영업이익(손실),"-15,518,584,778","-3,800,808,404","4,801,908,102",1384477,20190404,143,"서울특별시 강남구 도곡로 204 동신빌딩 4층,5층",1384477,엠에프엠코리아,323230,서울특별시,강남구,127.041423181,37.492153707
958,33310,엠투엔,코스닥시장상장법인,259,기타 금속 가공제품 제조업,영업이익(손실),"-4,813,106,044","-1,900,645,985","412,710,640",143226,19651210,25991,"서울특별시 중구 소공로 109 한화빌딩 13층(소공동, 한화빌딩)",143226,엠투엔,33310,서울특별시,중구,126.978551635,37.564195309
960,65150,엠피대산,코스닥시장상장법인,463,음ㆍ식료품 및 담배 도매업,영업이익(손실),"-894,487,828","-7,389,690,816","-2,460,681,586",390860,19950907,463,"서울특별시 서초구 서초중앙로 224 2층 205호(반포동,한양상가)",390860,DSEN,65150,서울특별시,서초구,127.012325838,37.501747468
963,60850,영림원소프트랩,코스닥시장상장법인,582,소프트웨어 개발 및 공급업,영업이익(손실),"4,338,313,484","4,260,279,473","4,270,675,890",532129,19930522,58221,서울특별시 강서구 양천로 583 우림블루나인비즈니스센터 A동 23층,532129,영림원소프트랩,60850,서울특별시,강서구,126.864200027,37.557113328
967,670,영풍,유가증권시장상장법인,242,1차 비철금속 제조업,영업이익(손실),"-26,784,314,362","46,683,478,556","84,396,705,015",141307,19491125,24213,서울특별시 강남구  강남대로 542,141307,영풍,670,서울특별시,강남구,127.022112122,37.510577255
972,53280,예스24,코스닥시장상장법인,479,무점포 소매업,영업이익(손실),"12,596,251,838","10,144,530,482","7,814,034,104",362858,19990401,4791,서울특별시 영등포구 은행로 11,362858,예스24,53280,서울특별시,영등포구,126.920279838,37.527945158
973,15360,예스코홀딩스,유가증권시장상장법인,649,기타 금융업,영업이익(손실),"24,030,223,000","10,030,341,000","22,143,229,000",105101,19810305,715,서울특별시 용산구 한강대로 92 LS 용산타워,105101,예스코홀딩스,15360,서울특별시,용산구,126.967806539,37.527921019
980,46120,오르비텍,코스닥시장상장법인,729,기타 과학기술 서비스업,영업이익,"10,137,370,171","-7,164,103,879","4,106,080,240",297989,19910305,7291,"서울특별시 금천구 범안로 1130 8층(가산동, 가산디지털엠파이어)",297989,오르비텍,46120,서울특별시,금천구,126.887402389,37.465474409
984,271560,오리온,유가증권시장상장법인,107,기타 식품 제조업,영업이익(손실),"372,909,907,402","376,122,012,796","327,588,745,357",1238169,20170601,10713,서울특별시 용산구 백범로90다길 13,1238169,오리온,271560,서울특별시,용산구,126.969815411,37.535949362
985,1800,오리온홀딩스,유가증권시장상장법인,649,기타 금융업,영업이익(손실),"315,697,398,867","308,628,634,832","266,659,512,732",117577,19560725,649,서울특별시 용산구  백범로90다길 13 (주)오리온,117577,오리온홀딩스,1800,서울특별시,용산구,126.969815411,37.535949362
996,173130,오파스넷,코스닥시장상장법인,620,"컴퓨터 프로그래밍, 시스템 통합 및 관리업",영업이익,"5,796,708,441","6,118,723,307","3,057,622,119",867849,20041025,62021,"서울특별시 강남구 테헤란로 512 , 10층(대치동, 신안빌딩)",867849,오파스넷,173130,서울특별시,강남구,127.059248564,37.507245372
997,49480,오픈베이스,코스닥시장상장법인,620,"컴퓨터 프로그래밍, 시스템 통합 및 관리업",영업이익(손실),"5,402,347,945","3,662,033,479","2,316,685,527",335076,19920916,62021,"서울특별시 서초구  매헌로 16 (양재동, 하이브랜드 리빙관4층)",335076,오픈베이스,49480,서울특별시,서초구,127.037041107,37.463542438
1002,321820,와이더플래닛,코스닥시장상장법인,582,소프트웨어 개발 및 공급업,영업이익(손실),"-5,475,563,541","-4,033,201,141","-2,429,591,398",1116502,20100717,582,"서울특별시 강남구 테헤란로 211, 8층",1116502,와이더플래닛,321820,서울특별시,강남구,127.039155252,37.501820805
1008,193250,와이제이엠게임즈,코스닥시장상장법인,262,전자 부품 제조업,영업이익(손실),"-2,271,492,217","-2,710,326,167","2,062,961,274",1035678,20040521,2629,서울특별시 강남구 테헤란로77길 11-9 삼성타워 8층,1035678,와이제이엠게임즈,193250,서울특별시,강남구,127.05386326,37.506898655
1010,122870,와이지엔터테인먼트,코스닥시장상장법인,592,오디오물 출판 및 원판 녹음업,영업이익(손실),"50,561,443,511","10,748,005,141","5,355,585,675",613318,19980224,59201,서울특별시 마포구 희우정로1길 7 -,613318,와이지엔터테인먼트,122870,서울특별시,마포구,126.907660768,37.548866545
1014,32820,우리기술,코스닥시장상장법인,281,"전동기, 발전기 및 전기 변환ㆍ공급ㆍ제어 장치 제조업",영업이익(손실),"7,245,494,022","2,705,385,476","-7,556,634,089",231044,19950112,28123,"서울특별시 마포구 월드컵북로56길 9 4층(상암동, 우리기술빌딩)",231044,우리기술,32820,서울특별시,마포구,126.887438607,37.58138397
1025,17370,우신시스템,유가증권시장상장법인,292,특수 목적용 기계 제조업,영업이익(손실),"-11,486,951,348","-3,556,316,279","1,858,383,314",142883,19840223,292,서울특별시 영등포구  영등포로 20,142883,우신시스템,17370,서울특별시,영등포구,126.883524717,37.522935816
1026,46940,우원개발,코스닥시장상장법인,421,기반조성 및 시설물 축조관련 전문공사업,영업이익(손실),"394,322,033","32,643,232,007","22,561,257,287",363246,19981028,421,서울특별시 서초구 강남대로 279 백향빌딩 8층,363246,우원개발,46940,서울특별시,서초구,127.031757445,37.488106483
1030,10400,우진아이엔에스,유가증권시장상장법인,422,건물설비 설치 공사업,영업이익(손실),"-6,727,170,261","1,773,652,029","880,296,142",143262,19750127,422,서울특별시 서초구 방배로 166 한승빌딩 3층,143262,우진아이엔에스,10400,서울특별시,서초구,126.99339598,37.4885678
1032,16880,웅진,유가증권시장상장법인,649,기타 금융업,영업이익(손실),"42,952,922,677","20,719,906,311","79,498,605,545",143651,19830321,715,서울특별시 중구 청계천로 24 케이스퀘어 시티,143651,웅진,16880,서울특별시,중구,126.980207811,37.56850364
1034,5820,원림,유가증권시장상장법인,132,직물 직조 및 직물제품 제조업,영업이익(손실),"3,192,709,036","5,424,322,792","4,181,832,494",143794,19681028,13225,서울특별시 서초구  남부순환로 2495 원림빌딩 9층,143794,원림,5820,서울특별시,서초구,127.023294409,37.483496269
1046,376980,원티드랩,코스닥시장상장법인,582,소프트웨어 개발 및 공급업,영업이익(손실),"6,069,976,846","-5,241,408,908","-5,890,793,302",1441611,20150406,58221,서울특별시 송파구 올림픽로 300 35층,1441611,원티드랩,376980,서울특별시,송파구,127.101711815,37.512836032
1047,8370,원풍,코스닥시장상장법인,222,플라스틱 제품 제조업,영업이익(손실),"3,932,778,355","5,128,117,906","2,725,118,697",144012,19730106,22212,서울특별시 강서구 공항대로 343 원풍빌딩 9층,144012,원풍,8370,서울특별시,강서구,126.845746441,37.558264241
1050,10600,웰바이오텍,유가증권시장상장법인,461,상품 중개업,영업손실,"-3,903,266,061","-12,572,108,243","-6,446,548,833",141273,19750419,461,서울특별시 강남구 영동대로106길 17 5층,141273,웰바이오텍,10600,서울특별시,강남구,127.062479948,37.513722593
1051,65950,웰크론,코스닥시장상장법인,132,직물 직조 및 직물제품 제조업,영업이익(손실),"13,219,047,116","19,810,673,332","3,213,655,543",362159,19920527,13219,서울특별시 구로구 디지털로27길 12 주식회사 웰크론,362159,웰크론,65950,서울특별시,구로구,126.893313027,37.482885616
1060,38620,위즈코프,코스닥시장상장법인,477,연료 소매업,영업이익(손실),"812,089,256","841,108,949","1,038,640,929",264228,19950306,47711,"서울특별시 강남구  봉은사로 429 , 8층 ( 삼성동, 위즈빌딩)",264228,위즈코프,38620,서울특별시,강남구,127.046806448,37.51143256
1061,299900,위지윅스튜디오,코스닥시장상장법인,591,"영화, 비디오물, 방송 프로그램 제작 및 배급업",영업이익(손실),"-3,954,732,702","1,849,297,172","6,631,458,880",1276327,20160415,59120,서울특별시 강남구 봉은사로22길 47  ;,1276327,위지윅스튜디오,299900,서울특별시,강남구,127.030367434,37.503936083
1067,64510,유네코,코스닥시장상장법인,292,특수 목적용 기계 제조업,영업이익(손실),"-2,856,932,395","-9,865,916,028","-19,290,859,739",127699,19820805,292,서울특별시 금천구 가산디지털1로 149 (가산동) 신한이노플렉스 11층,127699,유네코,64510,서울특별시,금천구,126.881337625,37.478650736
1068,14830,유니드,유가증권시장상장법인,201,기초 화학물질 제조업,영업이익(손실),"168,338,557,976","96,249,278,752","84,757,896,965",159786,19800510,20129,서울특별시 중구  을지로5길 19,159786,유니드,14830,서울특별시,중구,126.984209484,37.566978919
1071,910,유니온,유가증권시장상장법인,233,"시멘트, 석회, 플라스터 및 그 제품 제조업",영업이익,"5,173,428,419","7,813,211,279","11,019,976,303",144252,19521206,23311,서울특별시 중구  소공로 94 OCI빌딩 13층,144252,유니온,910,서울특별시,중구,126.98046276,37.563347622
1073,203450,유니온커뮤니티,코스닥시장상장법인,264,통신 및 방송장비 제조업,영업이익(손실),"335,721,612","2,351,310,642","3,482,431,153",408266,20000229,26429,서울특별시 송파구 법원로 127 문정대명벨리온 12층,408266,유니온커뮤니티,203450,서울특별시,송파구,127.118783288,37.486316245
1078,142210,유니트론텍,코스닥시장상장법인,465,기계장비 및 관련 물품 도매업,영업이익(손실),"10,065,913,610","6,249,229,683","10,209,218,584",879020,19960619,46522,"서울특별시 강남구 영동대로 638 9층(삼성동, 삼보빌딩)",879020,유니트론텍,142210,서울특별시,강남구,127.05930987,37.517093688
1080,206650,유바이오로직스,코스닥시장상장법인,212,의약품 제조업,영업이익(손실),"-7,229,530,888","-5,962,319,183","9,809,354,799",927558,20100310,212,서울특별시 강남구 도산대로 207 성도빌딩 8층,927558,유바이오로직스,206650,서울특별시,강남구,127.029078174,37.520425821
1081,89850,유비벨록스,코스닥시장상장법인,582,소프트웨어 개발 및 공급업,영업이익(손실),"24,409,179,808","17,089,955,501","7,755,524,608",592653,20000901,58221,서울특별시 구로구 디지털로31길 1213.14층,592653,유비벨록스,89850,서울특별시,구로구,0.0,0.0
1082,32620,유비케어,코스닥시장상장법인,582,소프트웨어 개발 및 공급업,영업이익,"9,973,077,658","12,816,707,484","10,843,159,295",220057,19941202,58221,서울특별시 영등포구 여의대로 108 파크원 타워 2,220057,유비케어,32620,서울특별시,영등포구,126.927847603,37.527053956
1085,24800,유성티엔에스,코스닥시장상장법인,492,육상 여객 운송업,영업이익(손실),"1,759,204,848","3,533,767,509","7,445,658,113",173999,19770810,492,"서울특별시 서초구  남부순환로 2583 9층(서초동, 서희타워)",173999,유성티엔에스,24800,서울특별시,서초구,127.032971144,37.484828931
1086,700,유수홀딩스,유가증권시장상장법인,715,회사 본부 및 경영 컨설팅 서비스업,영업이익(손실),"20,347,476,590","-15,196,368,259","-7,814,058,317",163691,19500101,715,"서울특별시 영등포구 여의나루로 60 9층 (여의도동, 포스트타워)",163691,유수홀딩스,700,서울특별시,영등포구,126.926147838,37.522270134
1095,178780,유테크,코스닥시장상장법인,468,상품 종합 도매업,영업이익(손실),"-10,271,482,735","-1,925,166,885","-7,998,689,575",923826,20060801,468,서울특별시 강동구 천호대로 1034 탑메디칼센터 8층(성내동),923826,일월지엠엘,178780,서울특별시,강동구,127.12676156,37.537168837
1097,263050,유틸렉스,코스닥시장상장법인,211,기초 의약 물질 및 생물학적 제제 제조업,영업이익(손실),"-33,559,845,766","-24,888,214,519","-18,335,384,553",1110678,20150227,21102,"서울특별시 금천구 가산디지털1로 58 408호 (가산동, 에이스한솔타워)",1110678,유틸렉스,263050,서울특별시,금천구,126.886515744,37.471254792
1098,100,유한양행,유가증권시장상장법인,212,의약품 제조업,영업이익,"48,596,120,264","84,255,098,219","12,535,759,291",145109,19260620,212,서울특별시 동작구  노량진로 74,145109,유한양행,100,서울특별시,동작구,126.933656607,37.512635226
1099,191410,육일씨엔에쓰,코스닥시장상장법인,262,전자 부품 제조업,영업이익(손실),"-11,349,179,892","-17,231,021,899","-9,153,380,462",843900,20070314,262,서울특별시 영등포구 경인로 775 에이스하이테크시티 2동 2001호,843900,육일씨엔에쓰,191410,서울특별시,영등포구,126.899965176,37.514699848
1100,8730,율촌화학,유가증권시장상장법인,222,플라스틱 제품 제조업,영업이익,"11,020,409,544","26,719,627,349","25,843,126,782",145260,19730501,22231,서울특별시 동작구 여의대방로 112 도연관 15층,145260,율촌화학,8730,서울특별시,동작구,126.918848395,37.49637303
1101,72770,율호,코스닥시장상장법인,620,"컴퓨터 프로그래밍, 시스템 통합 및 관리업",영업이익(손실),"2,478,952,607","1,545,108,050","1,588,601,798",583026,19980303,620,서울특별시 서초구 서초대로 6 13층,583026,율호,72770,서울특별시,서초구,126.982992021,37.485195492
1104,67920,이글루시큐리티,코스닥시장상장법인,639,기타 정보 서비스업,영업이익,"5,664,304,116","4,887,245,486","1,691,971,406",364847,19991102,639,서울특별시 송파구 정의로8길 7 한스빌딩,364847,이글루,67920,서울특별시,송파구,127.115918337,37.486214792
1106,214320,이노션,유가증권시장상장법인,713,광고업,영업이익,"135,732,279,008","111,506,787,321","121,852,465,244",565154,20050517,71310,서울특별시 강남구 강남대로 308,565154,이노션,214320,서울특별시,강남구,127.031819579,37.490670554
1109,246960,이노테라피,코스닥시장상장법인,213,의료용품 및 기타 의약 관련제품 제조업,영업손실,"-4,537,809,208","-3,697,285,687","-3,900,672,066",1110182,20100419,213,서울특별시 영등포구 선유로13길 25 에이스하이테크시티 2차 1209호,1110182,이노테라피,246960,서울특별시,영등포구,126.886286204,37.519045586
1118,88260,이리츠코크렙,유가증권시장상장법인,681,부동산 임대 및 공급업,영업이익(손실),"16,367,627,858","16,271,880,059","16,228,571,135",544452,20050726,68112,서울특별시 강남구 삼성로 511,544452,이리츠코크렙,88260,서울특별시,강남구,127.055577821,37.507664136
1119,88260,이리츠코크렙,유가증권시장상장법인,681,부동산 임대 및 공급업,영업이익(손실),"16,271,880,059","16,228,571,135","16,169,825,355",544452,20050726,68112,서울특별시 강남구 삼성로 511,544452,이리츠코크렙,88260,서울특별시,강남구,127.055577821,37.507664136
1122,80010,이상네트웍스,코스닥시장상장법인,461,상품 중개업,영업이익(손실),"10,075,774,846","3,027,912,999","7,530,463,105",454399,20000228,4610,서울특별시 마포구 월드컵북로58길 9 ES타워,454399,이상네트웍스,80010,서울특별시,마포구,126.886518581,37.581926484
1124,47560,이스트소프트,코스닥시장상장법인,582,소프트웨어 개발 및 공급업,영업이익(손실),"10,065,129,555","6,576,484,401","-2,835,907,410",273420,19930924,58221,"서울특별시 서초구  반포대로 3 (서초동, 이스트빌딩)",273420,이스트소프트,47560,서울특별시,서초구,127.012291457,37.480975516
1129,66980,이엔코퍼레이션,코스닥시장상장법인,639,기타 정보 서비스업,영업이익(손실),"3,994,439,009","293,881,094","1,503,256,386",389998,19980924,639,서울특별시 강남구 도산대로 307 백영빌딩 6층,389998,이엔코퍼레이션,66980,서울특별시,강남구,127.034898785,37.522273504
1132,123570,이엠넷,코스닥시장상장법인,713,광고업,영업이익(손실),"9,895,420,067","3,870,831,142","4,056,631,774",616290,20000420,71310,서울특별시 구로구 디지털로34길 27 대륭포스트타워3차14층,616290,이엠넷,123570,서울특별시,구로구,126.898215917,37.48547005
1136,102460,이연제약,유가증권시장상장법인,212,의약품 제조업,V. 영업이익,"3,739,195,891","4,149,719,254","6,621,882,176",145598,19641125,212,"서울특별시 강남구 영동대로 416 8층 (대치동, 코스모타워)",145598,이연제약,102460,서울특별시,강남구,127.065343707,37.506559932
1140,353810,이지바이오,코스닥시장상장법인,108,동물용 사료 및 조제식품 제조업,영업이익(손실),"16,779,466,342","15,198,062,187",,1480568,20200501,10801,서울특별시 강남구 강남대로 310 (역삼동 837-11) 유니온센터 3층,1480568,이지바이오,353810,서울특별시,강남구,127.03148571,37.490983291
1141,99750,이지케어텍,코스닥시장상장법인,582,소프트웨어 개발 및 공급업,영업이익(손실),"-3,965,510,047","-2,128,854,242","3,660,817,248",490090,20010207,58222,"서울특별시 중구 퇴계로 307 4층, 5층, 6층(광희동1가,광희빌딩)",490090,이지케어텍,99750,서울특별시,중구,127.00572768,37.564304981
1142,35810,이지홀딩스,코스닥시장상장법인,108,동물용 사료 및 조제식품 제조업,영업이익,"100,417,145,072","46,976,218,234","41,625,729,892",242378,19880314,1080,서울특별시 강남구  강남대로 310 유니온센타3층,242378,이지홀딩스,35810,서울특별시,강남구,127.03148571,37.490983291
1145,92130,이크레더블,코스닥시장상장법인,639,기타 정보 서비스업,영업이익(손실),"18,222,470,771","16,874,695,268","16,726,688,394",634728,20010806,63991,서울특별시 구로구 디지털로33길 27 삼성IT밸리 8층,634728,이크레더블,92130,서울특별시,구로구,0.0,0.0
1146,96040,이트론,코스닥시장상장법인,467,기타 전문 도매업,영업이익(손실),"-3,810,659,220","450,162,133","-2,335,621,756",480756,19991108,467,서울특별시 금천구 범안로 1130 디지털엠파이어빌딩1203호,480756,이트론,96040,서울특별시,금천구,126.887402389,37.465474409
1147,24810,이화전기,코스닥시장상장법인,281,"전동기, 발전기 및 전기 변환ㆍ공급ㆍ제어 장치 제조업",영업이익(손실),"-2,981,278,370","-3,667,521,973","608,837,840",145738,19650603,2811,서울특별시 강남구  논현로 746 석호빌딩,145738,이화전기,24810,서울특별시,강남구,127.029170993,37.51850889
1148,14990,인디에프,유가증권시장상장법인,141,봉제의복 제조업,영업이익(손실),"-22,118,833,674","-20,002,505,448","-1,579,169,180",106881,19800908,14112,서울특별시 강남구  테헤란로104길 21,106881,인디에프,14990,서울특별시,강남구,127.065727194,37.507613739
1153,33230,인성정보,코스닥시장상장법인,620,"컴퓨터 프로그래밍, 시스템 통합 및 관리업",영업이익(손실),"1,987,821,577","2,902,695,541","3,463,663,699",229021,19920210,62021,서울특별시 강남구 테헤란로 301 삼정빌딩 9층,229021,인성정보,33230,서울특별시,강남구,127.043062532,37.503116773
1154,6490,인스코비,유가증권시장상장법인,612,전기 통신업,영업이익(손실),"-2,421,495,654","-1,005,143,899","4,871,558,708",122825,19700727,612,서울특별시 금천구 디지털로 130 남성프라자 613호,122825,인스코비,6490,서울특별시,금천구,126.881907647,37.475420328
1158,211050,인카금융서비스,코스닥시장상장법인,662,보험 및 연금관련 서비스업,영업이익,"21,133,565,506","14,664,690,624","2,808,139,387",1013694,20071022,66202,"서울특별시 성동구 아차산로 33 , 5,6층(성수동1가, 삼일빌딩)",1013694,인카금융서비스,211050,서울특별시,성동구,127.048328811,37.547213339
1160,216050,인크로스,코스닥시장상장법인,713,광고업,영업이익(손실),"21,402,590,113","14,847,198,536","12,209,437,288",819073,20070813,71310,"서울특별시 관악구 남부순환로 1926 (경동제약빌딩 5층,8층)",819073,인크로스,216050,서울특별시,관악구,126.963144276,37.47681783
1164,35080,인터파크,코스닥시장상장법인,479,무점포 소매업,영업이익(손실),"2,487,628,369","-4,630,492,054","45,164,128,609",244561,19971001,479,서울특별시 강남구 삼성로 512서울특별시 강남구 삼성로 512 삼성동빌딩,244561,그래디언트,35080,서울특별시,강남구,0.0,0.0
1168,150840,인트로메딕,코스닥시장상장법인,271,의료용 기기 제조업,영업이익(손실),"-5,227,881,336","-5,124,728,330","-5,293,431,648",661157,20040903,27199,"서울특별시 구로구 디지털로31길 41 이앤씨벤처드림타워6차 1105호,1106호",661157,인트로메딕,150840,서울특별시,구로구,126.892711133,37.485095417
1171,115310,인포바인,코스닥시장상장법인,612,전기 통신업,영업이익,"6,370,597,284","8,094,823,566","9,516,147,164",491415,20000214,61299,서울특별시 영등포구 여의대로 24 전국경제인연합회관 40층,491415,인포바인,115310,서울특별시,영등포구,126.920045279,37.521693217
1173,71200,인피니트헬스케어,코스닥시장상장법인,582,소프트웨어 개발 및 공급업,영업이익(손실),"7,417,328,410","7,283,854,567","7,072,335,909",435969,20021230,582,서울특별시 구로구  디지털로34길 27 대륭포스트타워3차 12층,435969,인피니트헬스케어,71200,서울특별시,구로구,126.898215917,37.48547005
1174,16670,인피니티엔티,코스닥시장상장법인,467,기타 전문 도매업,영업이익(손실),"6,502,669,481","6,708,923,942","7,821,685,087",125725,19821230,467,"서울특별시 용산구 서빙고로51길 52 6,7층",125725,디모아,16670,서울특별시,용산구,126.991114832,37.522657997
1176,249420,일동제약,유가증권시장상장법인,212,의약품 제조업,영업이익(손실),"-55,535,279,170","6,632,843,949","-1,372,527,630",1168383,20160801,21210,서울특별시 서초구 바우뫼로27길 2,1168383,일동제약,249420,서울특별시,서초구,127.037330973,37.477667782
1177,230,일동홀딩스,유가증권시장상장법인,212,의약품 제조업,영업이익(손실),"-82,843,702,401","-9,214,716,010","-23,796,280,588",146083,19410314,21210,서울특별시 서초구  바우뫼로27길 2 일동제약빌딩,146083,일동홀딩스,230,서울특별시,서초구,127.037330973,37.477667782
1180,3200,일신방직,유가증권시장상장법인,131,방적 및 가공사 제조업,영업이익(손실),"60,970,489,628","13,548,435,094","13,589,459,419",146269,19511103,13101,서울특별시 영등포구  은행로 11,146269,일신방직,3200,서울특별시,영등포구,126.920279838,37.527945158
1190,226320,잇츠한불,유가증권시장상장법인,204,기타 화학제품 제조업,영업이익(손실),"754,754,823","3,755,262,599","12,993,223,278",911955,20060207,20423,서울특별시 강남구 학동로 311 주식회사 잇츠한불,911955,잇츠한불,226320,서울특별시,강남구,127.036901817,37.516181298
1195,289220,자이언트스텝,코스닥시장상장법인,591,"영화, 비디오물, 방송 프로그램 제작 및 배급업",영업이익(손실),"-2,908,565,928","-1,503,025,319","-2,070,510,398",1264438,20080605,59113,서울특별시 강남구 학동로37길 8 &nbsp,1264438,자이언트스텝,289220,서울특별시,강남구,127.034677551,37.515760971
1196,317400,자이에스앤디,유가증권시장상장법인,681,부동산 임대 및 공급업,영업이익,"50,822,485,579","27,342,268,483","16,473,464,745",367844,20000408,681,서울특별시 중구 퇴계로 173,367844,자이에스앤디,317400,서울특별시,중구,126.991058511,37.56182408
1200,950,전방,유가증권시장상장법인,131,방적 및 가공사 제조업,영업이익(손실),"7,360,077,995","-17,955,083,634","-30,492,233,155",147222,19530223,13101,"서울특별시 서대문구  서소문로 21 (충정로3가, 충정타워)",147222,전방,950,서울특별시,서대문구,126.964116582,37.559912001
1202,40420,정상제이엘에스,코스닥시장상장법인,855,일반 교습학원,영업이익(손실),"16,986,218,996","8,774,891,160","13,395,135,005",287788,19930731,8550,서울특별시 강남구  영동대로 229,287788,정상제이엘에스,40420,서울특별시,강남구,127.067438522,37.499537535
1203,45510,정원엔시스,코스닥시장상장법인,620,"컴퓨터 프로그래밍, 시스템 통합 및 관리업",IV. 영업이익(손실),"1,063,706,989","1,145,098,900","1,766,491,830",147772,19690627,465,서울특별시 강남구  도산대로1길 46 (신사동),147772,정원엔시스,45510,서울특별시,강남구,127.019605218,37.519653235
1205,95700,제넥신,코스닥시장상장법인,701,자연과학 및 공학 연구개발업,영업이익(손실),"-19,373,191,031","-39,159,543,458","-44,536,068,124",545929,19990608,70113,서울특별시 강서구 마곡중앙로 172 바이오이노베이션파크,545929,제넥신,95700,서울특별시,강서구,126.829032501,37.56907983
1212,287410,제이시스메디칼,코스닥시장상장법인,271,의료용 기기 제조업,영업이익(손실),"23,604,476,126","11,030,254,364","2,836,024,038",1267602,20171201,271,"서울특별시 금천구 가마산로 96 대륭테크노타운8차 307호, 308호, 401호, 808호, 1015호",1267602,제이시스메디칼,287410,서울특별시,금천구,126.877465038,37.485259647
1214,33320,제이씨현시스템,코스닥시장상장법인,465,기계장비 및 관련 물품 도매업,영업이익(손실),"18,440,481,332","11,675,953,236","2,545,427,390",223513,19910511,46510,서울특별시 용산구  새창로45길 74,223513,제이씨현시스템,33320,서울특별시,용산구,126.966134898,37.534370722
1215,348950,제이알글로벌리츠,유가증권시장상장법인,681,부동산 임대 및 공급업,영업이익(손실),"23,403,723,514","22,316,308,420","-114,170,240",1415892,20191024,681,서울특별시 중구 을지로 100,1415892,제이알글로벌리츠,348950,서울특별시,중구,126.988142548,37.565648682
1216,348950,제이알글로벌리츠,유가증권시장상장법인,681,부동산 임대 및 공급업,영업이익(손실),"24,082,035,110","23,403,723,514","22,316,308,420",1415892,20191024,681,서울특별시 중구 을지로 100,1415892,제이알글로벌리츠,348950,서울특별시,중구,126.988142548,37.565648682
1218,194370,제이에스코퍼레이션,유가증권시장상장법인,151,"가죽, 가방 및 유사 제품 제조업",영업이익(손실),"60,970,128,693","7,945,475,240","11,098,652,843",332927,19880201,15121,서울특별시 송파구 위례성대로 138 (방이동),332927,제이에스코퍼레이션,194370,서울특별시,송파구,127.126812187,37.511782785
1219,26040,제이에스티나,코스닥시장상장법인,331,귀금속 및 장신용품 제조업,영업이익(손실),"1,355,507,077","-13,713,233,755","-27,955,449,828",120289,19880402,331,서울특별시 송파구 양재대로62길 53,120289,제이에스티나,26040,서울특별시,송파구,127.121294798,37.495606337
1220,126880,제이엔케이히터,코스닥시장상장법인,291,일반 목적용 기계 제조업,영업이익,"1,341,172,623","6,941,657,017","17,294,743,711",442154,19980928,291,서울특별시 금천구  가산디지털1로 168,442154,제이엔케이히터,126880,서울특별시,금천구,126.882732964,37.47988775
1226,36420,제이콘텐트리,유가증권시장상장법인,591,"영화, 비디오물, 방송 프로그램 제작 및 배급업",영업이익(손실),"-57,365,948,945","-58,839,780,989","33,834,426,952",203315,19870928,591,서울특별시 강남구 도산대로 156,203315,콘텐트리중앙,36420,서울특별시,강남구,127.025656833,37.518211633
1228,30000,제일기획,유가증권시장상장법인,713,광고업,영업이익,"248,179,540,772","204,917,149,866","205,813,034,039",148276,19730117,71310,서울특별시 용산구  이태원로 222 제일기획,148276,제일기획,30000,서울특별시,용산구,126.998871822,37.534765677
1229,271980,제일약품,유가증권시장상장법인,212,의약품 제조업,영업이익(손실),"-10,530,151,061","12,904,372,878","234,015,638",1236897,20170601,21210,서울특별시 서초구 사평대로 343 제일약품 사옥,1236897,제일약품,271980,서울특별시,서초구,127.020403621,37.50362988
1232,2620,제일파마홀딩스,유가증권시장상장법인,715,회사 본부 및 경영 컨설팅 서비스업,영업이익(손실),"-8,974,887,678","22,481,192,400","9,530,308,844",148443,19590307,715,서울특별시 서초구 사평대로 343,148443,제일파마홀딩스,2620,서울특별시,서초구,127.020403621,37.50362988
1236,229000,젠큐릭스,코스닥시장상장법인,213,의료용품 및 기타 의약 관련제품 제조업,영업이익(손실),"-12,745,159,086","-9,266,623,514","-6,559,792,081",1051472,20110921,213,서울특별시 구로구 디지털로 243 지하이시티 15층,1051472,젠큐릭스,229000,서울특별시,구로구,126.892345208,37.481988466
1238,64800,젬백스링크,코스닥시장상장법인,474,"섬유, 의복, 신발 및 가죽제품 소매업",영업이익(손실),"1,732,019,303","3,702,119,863","5,871,845,112",392691,20000406,474,"서울특별시 영등포구 영등포로 272 (영등포동3가, 젬백스링크타워) -",392691,젬백스링크,64800,서울특별시,영등포구,126.91140766,37.518345683
1239,41590,젬백스지오,코스닥시장상장법인,424,실내건축 및 건축마무리 공사업,영업이익(손실),"-4,245,519,518","627,067,124","-3,989,260,308",297448,19981228,424,서울특별시 송파구 법원로11길 11 비동 1305호,297448,플래스크,41590,서울특별시,송파구,127.118186457,37.48528103
1242,34940,조아제약,코스닥시장상장법인,212,의약품 제조업,영업이익(손실),"-7,002,665,054","-1,783,531,666","-366,384,485",231831,19960315,21210,"서울특별시 영등포구 당산로2길 12 에이스테크노타워 101호(문래동3가, 에이스테크노타워1층)",231831,조아제약,34940,서울특별시,영등포구,126.895503126,37.515083908
1244,63160,종근당바이오,유가증권시장상장법인,212,의약품 제조업,영업이익,"-11,432,270,296","7,607,021,502","15,412,573,679",390055,20011112,212,서울특별시 서대문구  충정로 8,390055,종근당바이오,63160,서울특별시,서대문구,126.963202374,37.559674163
1245,33340,좋은사람들,코스닥시장상장법인,141,봉제의복 제조업,영업이익(손실),"-12,490,479,416","-23,342,418,332","-8,795,053,368",205003,19930501,14120,"서울특별시 마포구 연희로 11 한국특허정보원빌딩 서울 마포구 연희로 11, 5층(동교동, 한국특허정보원빌딩",205003,좋은사람들,33340,서울특별시,마포구,0.0,0.0
1247,44380,주연테크,유가증권시장상장법인,263,컴퓨터 및 주변 장치 제조업,영업이익(손실),"-542,222,576","503,726,175","-2,836,834,844",269241,19880510,26310,서울특별시 서초구 사임당로 32 2층(서초동),269241,주연테크,44380,서울특별시,서초구,127.013522816,37.487833814
1248,239340,줌인터넷,코스닥시장상장법인,631,"자료 처리, 호스팅, 포털 및 기타 인터넷 정보 매개 서비스업",영업이익,"6,738,768,476","1,407,931,773","908,596,929",1128622,20160212,631,서울특별시 서초구 반포대로 3 이스트빌딩 -,1128622,줌인터넷,239340,서울특별시,서초구,127.012291457,37.480975516
1251,440,중앙에너비스,코스닥시장상장법인,467,기타 전문 도매업,영업이익,"37,955,693","128,643,323","638,178,300",149770,19461008,46712,서울특별시 용산구  한남대로 82,149770,중앙에너비스,440,서울특별시,용산구,127.006133411,37.536052126
1259,51160,지어소프트,코스닥시장상장법인,582,소프트웨어 개발 및 공급업,영업이익(손실),"6,660,812,145","9,994,033,219","-129,606,437",389110,19980813,58221,"서울특별시 종로구 종로1길 50 A동11층(중학동, 케이트윈타워)",389110,지어소프트,51160,서울특별시,종로구,126.979616591,37.574765028
1260,119850,지엔씨에너지,코스닥시장상장법인,281,"전동기, 발전기 및 전기 변환ㆍ공급ㆍ제어 장치 제조업",영업이익(손실),"5,561,584,408","6,831,095,569","9,064,781,645",626464,19930623,28111,서울특별시 강서구 마곡중앙2로 49 -,626464,지엔씨에너지,119850,서울특별시,강서구,126.832350367,37.557780918
1261,65060,지엔코,코스닥시장상장법인,141,봉제의복 제조업,영업이익(손실),"-798,433,811","-7,302,639,984","-7,597,801,588",258102,19970531,141,서울특별시 송파구  동남로4길 41 지엔코빌딩,258102,지엔코,65060,서울특별시,송파구,127.125165485,37.486489529
1267,88790,진도,유가증권시장상장법인,467,기타 전문 도매업,영업이익(손실),"3,775,884,191","-1,691,198,041","-2,921,232,996",557933,20060303,467,서울특별시 금천구  가산디지털1로 75,557933,진도,88790,서울특별시,금천구,126.88440568,37.472539368
1274,11000,진원생명과학,유가증권시장상장법인,212,의약품 제조업,영업이익(손실),"-27,516,242,932","-18,459,101,152","-8,208,996,276",118521,19760127,212,"서울특별시 영등포구 여의대로 108 20층(여의도동, 파크원NH금융타워(타워2))",118521,진원생명과학,11000,서울특별시,영등포구,126.927847603,37.527053956
1275,85660,차바이오텍,코스닥시장상장법인,211,기초 의약 물질 및 생물학적 제제 제조업,영업이익(손실),"7,712,977,339","-2,446,838,471","5,837,297,229",525679,20021105,21102,서울특별시 강남구 도산대로 442 청담동 피엔폴루스 3층,525679,차바이오텍,85660,서울특별시,강남구,127.044076645,37.52336168
1282,47820,초록뱀미디어,코스닥시장상장법인,591,"영화, 비디오물, 방송 프로그램 제작 및 배급업",영업이익(손실),"4,190,456,683","-8,594,848,751","1,401,877,923",299464,19980526,59114,"서울특별시 강남구 도산대로 414 14층(청담동, 한성청담빌딩)",299464,초록뱀미디어,47820,서울특별시,강남구,127.041031449,37.5228679
1283,52300,초록뱀컴퍼니,코스닥시장상장법인,529,기타 운송관련 서비스업,영업이익(손실),"-1,453,854,382","-596,177,180","-3,768,654,403",349811,19950817,468,"서울특별시 강남구 도산대로 414 14층(청담동, 한성청담빌딩)",349811,초록뱀컴퍼니,52300,서울특별시,강남구,127.041031449,37.5228679
1284,94360,칩스앤미디어,코스닥시장상장법인,261,반도체 제조업,영업이익(손실),"5,199,382,483","2,380,813,796","3,594,631,528",579971,20030306,261,"서울특별시 강남구 테헤란로 509 엔씨타워1  7층,8층",579971,칩스앤미디어,94360,서울특별시,강남구,127.058205471,37.507782561
1290,42000,카페24,코스닥시장상장법인,631,"자료 처리, 호스팅, 포털 및 기타 인터넷 정보 매개 서비스업",영업이익(손실),"-19,945,250,872","8,373,244,180","9,836,691,421",260879,19990517,63112,서울특별시 동작구 보라매로5길 15,260879,카페24,42000,서울특별시,동작구,126.924327749,37.492650257
1291,317530,캐리소프트,코스닥시장상장법인,591,"영화, 비디오물, 방송 프로그램 제작 및 배급업",영업이익(손실),"-2,282,770,363","-2,442,776,818","-1,712,999,816",1267222,20141030,59111,"서울특별시 구로구 디지털로31길 20, 에이스테크노타워5차 1101호",1267222,캐리소프트,317530,서울특별시,구로구,126.894350353,37.485511475
1294,223310,커머스마이너,코스닥시장상장법인,582,소프트웨어 개발 및 공급업,영업이익(손실),"-4,439,010,761","-4,484,761,690","73,015,626",1075126,20110119,468,서울특별시 강남구 언주로 702 경남제약타워 10층,1075126,커머스마이너,223310,서울특별시,강남구,127.035752254,37.515820925
1297,78340,컴투스,코스닥시장상장법인,582,소프트웨어 개발 및 공급업,영업이익(손실),"52,622,753,512","114,117,329,578","125,954,719,631",476498,19980731,5821,서울특별시 금천구  가산디지털1로 131,476498,컴투스,78340,서울특별시,금천구,126.881982209,37.477082894
1298,63080,컴투스홀딩스,코스닥시장상장법인,582,소프트웨어 개발 및 공급업,영업이익(손실),"37,808,785,511","23,690,188,133","-17,053,325,362",535746,20000110,582,서울특별시 금천구 가산디지털1로 131 에이동 4층,535746,컴투스홀딩스,63080,서울특별시,금천구,126.881982209,37.477082894
1299,263700,케어랩스,코스닥시장상장법인,582,소프트웨어 개발 및 공급업,영업이익,"3,277,334,445","5,959,917,778","3,615,639,699",1187148,20120410,713,서울특별시 강남구 역삼로2길 16 S타워 11층,1187148,케어랩스,263700,서울특별시,강남구,127.031254834,37.492203654
1302,1620,케이비아이동국실업,유가증권시장상장법인,303,자동차 신품 부품 제조업,영업이익(손실),"-73,285,371,359","-20,831,644,526","-13,983,746,531",114765,19551229,303,서울특별시 용산구  한강대로 350,114765,케이비아이동국실업,1620,서울특별시,용산구,126.972210271,37.549662327
1303,192250,케이사인,코스닥시장상장법인,582,소프트웨어 개발 및 공급업,영업이익(손실),"6,428,427,820","4,949,513,647","3,782,729,874",1003040,20131226,58221,"서울특별시 강남구 선릉로 577 b1,5층",1003040,케이사인,192250,서울특별시,강남구,127.043649339,37.509908873
1305,2380,케이씨씨,유가증권시장상장법인,204,기타 화학제품 제조업,영업이익,"388,769,767,968","133,845,504,026","133,209,522,238",105271,19580812,20411,서울특별시 서초구  사평대로 344 (주)케이씨씨 빌딩,105271,케이씨씨,2380,서울특별시,서초구,127.020802279,37.502994563
1306,344820,케이씨씨글라스,유가증권시장상장법인,231,유리 및 유리제품 제조업,영업이익(손실),"160,451,158,221","35,839,370,802",,1428203,20200102,2311,서울특별시 서초구 강남대로 587(잠원동),1428203,케이씨씨글라스,344820,서울특별시,서초구,127.019486535,37.514160335
1307,9070,케이씨티시,유가증권시장상장법인,493,도로 화물 운송업,영업이익(손실),"29,603,505,899","20,961,616,726","19,010,561,371",103042,19730720,49301,서울특별시 중구 남대문로 63 한진빌딩,103042,케이씨티시,9070,서울특별시,중구,126.981363692,37.563079039
1309,93320,케이아이엔엑스,코스닥시장상장법인,631,"자료 처리, 호스팅, 포털 및 기타 인터넷 정보 매개 서비스업",영업이익(손실),"19,734,224,882","17,782,412,229","16,467,445,192",603348,20000617,63112,"서울특별시 강남구 강남대로 636 7층, 10층(신사동, 두원빌딩)",603348,케이아이엔엑스,93320,서울특별시,강남구,127.019293096,37.518580784
1315,102370,케이옥션,코스닥시장상장법인,461,상품 중개업,영업이익(손실),"13,627,268,160","1,515,311,988","4,062,025,310",668600,20050915,4610,"서울특별시 강남구 언주로172길 23, 신사동 아트타워",668600,케이옥션,102370,서울특별시,강남구,127.035797318,37.527662769
1316,145270,케이탑리츠,유가증권시장상장법인,681,부동산 임대 및 공급업,영업이익(손실),"17,971,670,570","16,985,674,061","10,466,255,496",861076,20101104,68112,서울특별시 영등포구 국제금융로 70 미원빌딩 19층 1901호,861076,케이탑리츠,145270,서울특별시,영등포구,126.930666816,37.521507537
1324,47770,코데즈컴바인,코스닥시장상장법인,141,봉제의복 제조업,영업이익,"4,267,015,691","3,669,088,974","4,513,675,438",329093,19950816,141,"서울특별시 동대문구 한천로46길 42 (장안동, 마루하우스2층)",329093,코데즈컴바인,47770,서울특별시,동대문구,127.070706263,37.581464179
1325,78940,코드네이처,코스닥시장상장법인,423,전기 및 통신 공사업,영업이익(손실),"-4,522,814,374","-2,655,689,994","1,502,573,084",501970,20040701,464,"서울특별시 성동구 상원1길 26 서울숲A타워,1301-B호",501970,코드네이처,78940,서울특별시,성동구,127.04848717,37.546172833
1330,290510,코리아센터,코스닥시장상장법인,582,소프트웨어 개발 및 공급업,영업이익(손실),"17,409,191,269","17,169,370,576","10,769,610,298",540340,20000112,58221,서울특별시 금천구 가산디지털1로 168 A동 1401호 &nbsp,540340,코리아센터,290510,서울특별시,금천구,126.882732964,37.47988775
1344,69110,코스온,코스닥시장상장법인,204,기타 화학제품 제조업,영업이익,"-14,977,759,954","-14,675,286,929","555,275,734",402989,19991207,20423,"서울특별시 강남구 영동대로 333 8층(대치동,동원빌딩)",402989,코스온,69110,서울특별시,강남구,127.064870534,37.504152879
1345,71950,코아스,유가증권시장상장법인,320,가구 제조업,영업이익(손실),"-4,666,241,262","-2,100,348,365","3,099,206,622",210856,19920724,320,서울특별시 영등포구 선유로52길 17,210856,코아스,71950,서울특별시,영등포구,126.900197803,37.53550624
1351,102940,코오롱생명과학,코스닥시장상장법인,211,기초 의약 물질 및 생물학적 제제 제조업,영업이익(손실),"3,873,307,419","-25,835,487,482","-26,542,592,823",525642,20000421,2110,서울특별시 강서구 마곡동로 110 코오롱 One&Only 타워,525642,코오롱생명과학,102940,서울특별시,강서구,126.83491117,37.564522944
1352,120110,코오롱인더,유가증권시장상장법인,205,화학섬유 제조업,영업이익(손실),"252,713,195,422","163,244,618,104","172,947,721,846",795135,20100105,205,서울특별시 강서구 마곡동로 110 코오롱 One&Only 타워,795135,코오롱인더,120110,서울특별시,강서구,126.83491117,37.564522944
1356,56360,코위버,코스닥시장상장법인,264,통신 및 방송장비 제조업,영업이익(손실),"5,682,727,660","3,207,082,053","11,715,871,694",360674,20000218,26410,서울특별시 강서구 마곡중앙8로7길 45 (마곡동),360674,코위버,56360,서울특별시,강서구,126.838798177,37.564817069
1359,15710,코콤,코스닥시장상장법인,264,통신 및 방송장비 제조업,영업이익(손실),"3,914,050,348","10,870,078,156","13,342,571,089",187725,19800115,26410,서울특별시 강서구 염창동 260-7,187725,코콤,15710,서울특별시,강서구,0.0,0.0
1361,322780,코퍼스코리아,코스닥시장상장법인,591,"영화, 비디오물, 방송 프로그램 제작 및 배급업",영업이익,"10,292,152,960","5,350,053,659","3,678,954,926",1364297,20190401,591,서울특별시 마포구 월드컵북로 361 8층(DMC이안상암2단지),1364297,코퍼스코리아,322780,서울특별시,마포구,126.891406382,37.577106214
1364,31820,콤텍시스템,유가증권시장상장법인,620,"컴퓨터 프로그래밍, 시스템 통합 및 관리업",영업이익(손실),"17,298,658,675","1,744,237,653","3,046,974,419",186559,19830818,6201,서울특별시 영등포구  가마산로 343,186559,콤텍시스템,31820,서울특별시,영등포구,126.897270959,37.499977797
1365,294570,쿠콘,코스닥시장상장법인,639,기타 정보 서비스업,영업이익,"16,824,625,841","11,238,744,762","6,237,778,225",1311055,20061214,582,"서울특별시 영등포구 영신로 220, KnK디지털타워 19층",1311055,쿠콘,294570,서울특별시,영등포구,126.904248128,37.526807751
1368,317690,퀀타매트릭스,코스닥시장상장법인,271,의료용 기기 제조업,영업이익(손실),"-18,415,359,417","-14,831,329,233","-14,574,115,460",1311286,20101129,27199,"서울특별시 금천구 가산디지털1로 131 B동 16층(가산동, 비와이씨하이시티)",1311286,퀀타매트릭스,317690,서울특별시,금천구,126.881982209,37.477082894
1369,40350,큐로컴,코스닥시장상장법인,620,"컴퓨터 프로그래밍, 시스템 통합 및 관리업",영업이익(손실),"-4,543,547,972","-5,072,826,627","-7,910,780,673",346407,19970424,620,"서울특별시 강남구  테헤란로77길 7 (삼성동, 동원빌딩 4층)",346407,큐로컴,40350,서울특별시,강남구,127.054495838,37.506926155
1370,51780,큐로홀딩스,코스닥시장상장법인,472,음ㆍ식료품 및 담배 소매업,영업이익(손실),"2,014,981,806","248,030,859","782,259,144",296324,19871229,472,"서울특별시 강남구  테헤란로77길 7 (삼성동,동원빌딩4층)",296324,큐로홀딩스,51780,서울특별시,강남구,127.054495838,37.506926155
1372,182360,큐브엔터,코스닥시장상장법인,592,오디오물 출판 및 원판 녹음업,영업이익(손실),"1,182,398,157","1,141,475,003","960,751,722",985686,20130725,59201,서울특별시 성동구 아차산로 83 -,985686,큐브엔터,182360,서울특별시,성동구,127.05345397,37.545611756
1373,5740,크라운해태홀딩스,유가증권시장상장법인,649,기타 금융업,영업이익(손실),"39,307,029,722","54,315,676,779","51,171,062,520",153126,19680918,64992,서울특별시 용산구 한강대로72길 3,153126,크라운해태홀딩스,5740,서울특별시,용산구,126.973642855,37.540745095
1374,259960,크래프톤,유가증권시장상장법인,582,소프트웨어 개발 및 공급업,영업이익(손실),"639,639,249,890","773,870,752,325","359,296,286,722",760971,20070326,5821,서울특별시 강남구 테헤란로 231,760971,크래프톤,259960,서울특별시,강남구,127.041628345,37.50362454
1375,96240,크레버스,코스닥시장상장법인,855,일반 교습학원,영업이익,"31,194,760,607","16,921,170,474","22,641,000,500",525882,20020605,855,서울특별시 강남구 테헤란로 521 파르나스타워 21층,525882,크레버스,96240,서울특별시,강남구,127.060625246,37.509174478
1378,110790,크리스에프앤씨,코스닥시장상장법인,141,봉제의복 제조업,영업이익(손실),"87,103,244,505","49,821,538,176","37,707,650,708",522007,19980806,1419,서울특별시 강남구 도곡로 176,522007,크리스에프앤씨,110790,서울특별시,강남구,127.03885847,37.491449053
1383,214150,클래시스,코스닥시장상장법인,271,의료용 기기 제조업,영업이익(손실),"51,712,720,398","40,608,569,011","41,709,475,409",1061327,20150115,271,서울특별시 강남구 테헤란로 208 클래시스,1061327,클래시스,214150,서울특별시,강남구,127.039098764,37.501129976
1385,237880,클리오,코스닥시장상장법인,204,기타 화학제품 제조업,영업이익,"13,902,867,647","6,228,357,793","18,598,523,645",957735,19970531,20423,서울특별시 성동구 왕십리로 66 -,957735,클리오,237880,서울특별시,성동구,127.04501127,37.543475026
1386,139670,키네마스터,코스닥시장상장법인,582,소프트웨어 개발 및 공급업,영업이익(손실),"-1,703,005,960","4,103,712,826","317,948,106",535375,20020909,58222,"서울특별시 서초구 반포대로24길 21 1, 2층",535375,키네마스터,139670,서울특별시,서초구,127.010368947,37.489773875
1387,20120,키다리스튜디오,유가증권시장상장법인,631,"자료 처리, 호스팅, 포털 및 기타 인터넷 정보 매개 서비스업",영업이익(손실),"6,921,869,365","4,586,128,252","702,896,894",140131,19870729,631,서울특별시 성동구 연무장11길 8 성수2가 273-50,140131,키다리스튜디오,20120,서울특별시,성동구,127.05744268,37.54244841
1388,54780,키이스트,코스닥시장상장법인,591,"영화, 비디오물, 방송 프로그램 제작 및 배급업",영업이익(손실),"1,015,064,003","1,667,575,885","-2,138,535,541",353762,19961008,59130,서울특별시 강남구 학동로11길 30 -,353762,키이스트,54780,서울특별시,강남구,127.02443803,37.514223811
1390,14580,태경비케이,유가증권시장상장법인,233,"시멘트, 석회, 플라스터 및 그 제품 제조업",영업이익,"19,603,002,069","10,798,420,000","3,869,512,949",122481,19800122,23312,서울특별시 강서구  공항대로 467 (등촌동),122481,태경비케이,14580,서울특별시,강서구,126.859053839,37.553963356
1391,15890,태경산업,유가증권시장상장법인,201,기초 화학물질 제조업,영업이익(손실),"40,591,835,560","15,910,953,228","10,773,793,032",153339,19820215,20129,서울특별시 강서구 공항대로 467 4층(등촌동),153339,태경산업,15890,서울특별시,강서구,126.859053839,37.553963356
1392,6890,태경케미컬,유가증권시장상장법인,201,기초 화학물질 제조업,영업이익,"12,135,092,981","7,702,115,321","1,191,403,928",109161,19701111,20121,서울특별시 강서구  공항대로 467 (등촌동),109161,태경케미컬,6890,서울특별시,강서구,126.859053839,37.553963356
1394,3240,태광산업,유가증권시장상장법인,205,화학섬유 제조업,영업이익,"355,272,574,329","53,540,948,314","192,034,109,917",153393,19610915,20501,서울특별시 중구  동호로 310 (장충동2가),153393,태광산업,3240,서울특별시,중구,127.003731756,37.561729781
1398,124560,태웅로직스,코스닥시장상장법인,529,기타 운송관련 서비스업,영업이익(손실),"79,291,619,959","14,653,355,866","14,980,613,396",562245,19960120,5299,"서울특별시 강남구 테헤란로37길 13-6, 9층 (역삼동, 유니빌딩)",562245,태웅로직스,124560,서울특별시,강남구,127.040176,37.503102959
1399,7980,태평양물산,유가증권시장상장법인,141,봉제의복 제조업,영업이익(손실),"1,375,375,954","-1,965,767,675","43,215,231,647",154329,19720630,141,서울특별시 구로구 디지털로31길 12 태평양물산,154329,태평양물산,7980,서울특별시,구로구,126.895363474,37.485106943
1400,191420,테고사이언스,코스닥시장상장법인,211,기초 의약 물질 및 생물학적 제제 제조업,영업이익,"-98,006,268","1,511,800,067","339,598,231",926522,20010320,21102,"서울특별시 강서구 마곡중앙8로 93 (마곡동, 테고사이언스)",926522,테고사이언스,191420,서울특별시,강서구,126.837963535,37.561110863
1409,78000,텔코웨어,유가증권시장상장법인,631,"자료 처리, 호스팅, 포털 및 기타 인터넷 정보 매개 서비스업",영업손익,"1,154,358,790","546,069,819","3,363,859,925",361488,20000111,631,서울특별시 서초구  법원로3길 20-7,361488,텔코웨어,78000,서울특별시,서초구,127.007970028,37.49377691
1411,214420,토니모리,유가증권시장상장법인,204,기타 화학제품 제조업,영업이익(손실),"-13,529,557,979","-25,530,976,710","-274,992,043",816544,20060726,20423,서울특별시 서초구 남부순환로 2557 토니모리 빌딩,816544,토니모리,214420,서울특별시,서초구,0.0,0.0
1412,215480,토박스코리아,코스닥시장상장법인,474,"섬유, 의복, 신발 및 가죽제품 소매업",영업이익(손실),"2,907,968,028","-2,979,280,839","1,123,687,186",1064069,20150224,474,서울특별시 구로구 디지털로26길 111 7층 702호,1064069,토박스코리아,215480,서울특별시,구로구,126.897276533,37.482515061
1415,79970,투비소프트,코스닥시장상장법인,582,소프트웨어 개발 및 공급업,영업이익(손실),"-6,417,420,425","-99,762,685","-9,047,042,082",596260,20000710,58221,"서울특별시 강남구 봉은사로 617 인탑스빌딩 3, 4, 5층 (삼성동)",596260,투비소프트,79970,서울특별시,강남구,127.062666448,37.514933977
1417,26150,특수건설,코스닥시장상장법인,412,토목 건설업,영업이익(손실),"-711,715,450","3,520,917,173","894,458,351",186939,19710531,412,서울특별시 서초구 서운로 7 -,186939,특수건설,26150,서울특별시,서초구,127.029419335,37.484669573
1424,363280,티와이홀딩스,유가증권시장상장법인,649,기타 금융업,영업이익(손실),"11,235,068,662","1,606,673,530",,1497869,20200901,64992,"서울특별시 영등포구 여의공원로 111, 10층(여의도동)",1497869,티와이홀딩스,363280,서울특별시,영등포구,126.925778216,37.529798487
1427,4870,티웨이홀딩스,유가증권시장상장법인,233,"시멘트, 석회, 플라스터 및 그 제품 제조업",영업이익(손실),"-148,528,985,743","-177,740,674,351","-23,722,587,043",109514,19661206,23325,"서울특별시 성동구 아차산로 153 7층(성수동2가, 예림출판문화센터)",109514,티웨이홀딩스,4870,서울특별시,성동구,127.061008479,37.543412216
1432,34230,파라다이스,코스닥시장상장법인,912,유원지 및 기타 오락관련 서비스업,영업이익(손실),"-55,245,896,594","-86,150,819,625","51,868,333,792",171265,19720427,91249,서울특별시 중구 퇴계로 299 파라다이스빌딩,171265,파라다이스,34230,서울특별시,중구,127.004665336,37.564114227
1438,150900,파수,코스닥시장상장법인,582,소프트웨어 개발 및 공급업,영업이익(손실),"4,229,246,699","-1,239,120,658","-3,621,274,857",638487,20000608,58221,서울특별시 마포구 상암동 1605 누리꿈스퀘어 비즈니스센타 17층,638487,파수,150900,서울특별시,마포구,0.0,0.0
1439,37030,파워넷,코스닥시장상장법인,281,"전동기, 발전기 및 전기 변환ㆍ공급ㆍ제어 장치 제조업",영업이익(손실),"5,462,317,594","6,594,931,570","5,156,741,960",231354,19931228,2811,서울특별시 금천구 두산로 70 현대지식산업센터 B동 17층,231354,파워넷,37030,서울특별시,금천구,126.895676239,37.468803135
1443,131760,파인텍,코스닥시장상장법인,292,특수 목적용 기계 제조업,영업이익(손실),"1,851,340,503","-5,784,087,785","3,554,682,403",820352,20081119,292,서울특별시 마포구 마포대로 38 내제2층202호(도화동),820352,파인텍,131760,서울특별시,마포구,126.94668642,37.539493842
1447,32800,판타지오,코스닥시장상장법인,901,창작 및 예술관련 서비스업,영업이익(손실),"1,831,076,344","-708,265,130","552,011,217",231691,19910108,901,서울특별시 강남구 삼성로 648 2층,231691,판타지오,32800,서울특별시,강남구,127.051024191,37.518009123
1448,318010,팜스빌,코스닥시장상장법인,107,기타 식품 제조업,영업이익,"6,159,273,248","4,306,482,309","7,106,736,493",986898,20000315,10797,서울특별시 강서구 마곡중앙8로3길 37 -,986898,팜스빌,318010,서울특별시,강서구,126.836884736,37.56443493
1450,27710,팜스토리,코스닥시장상장법인,108,동물용 사료 및 조제식품 제조업,영업이익(손실),"25,114,462,686","22,046,546,013","10,398,204,548",192499,19910417,1080,서울특별시 강남구  강남대로 310 유니온센터 3층,192499,팜스토리,27710,서울특별시,강남구,127.03148571,37.490983291
1452,225590,패션플랫폼,코스닥시장상장법인,141,봉제의복 제조업,영업이익(손실),"5,969,012,953","1,750,106,738","7,459,020,555",1101041,20150715,141,서울특별시 강남구 논현로28길 9 유진빌딩 3층,1101041,패션플랫폼,225590,서울특별시,강남구,127.043356065,37.482719463
1453,28670,팬오션,유가증권시장상장법인,501,해상 운송업,영업이익(손실),"572,946,000,000","225,212,000,000","210,019,000,000",122737,19660528,50112,서울특별시 종로구 종로5길 7 Tower 8 팬오션(주),122737,팬오션,28670,서울특별시,종로구,126.980547123,37.570669768
1462,47050,포스코인터내셔널,유가증권시장상장법인,461,상품 중개업,영업이익(손실),"585,385,807,000","474,478,289,000","605,317,746,000",124504,20001227,461,서울특별시 강남구 테헤란로 134 포스코타워역삼(26층),124504,포스코인터내셔널,47050,서울특별시,강남구,127.033804126,37.49937722
1464,189690,포시에스,코스닥시장상장법인,582,소프트웨어 개발 및 공급업,영업이익(손실),"4,733,386,523","4,787,320,283","5,006,158,036",939942,20080723,58222,서울특별시 강남구 논현로 646 -,939942,포시에스,189690,서울특별시,강남구,127.032411596,37.511416429
1465,318020,포인트모바일,코스닥시장상장법인,263,컴퓨터 및 주변 장치 제조업,영업이익(손실),"413,432,791","115,775,495","9,030,161,514",962393,20060728,263,"서울특별시 금천구 디지털로9길 32 (가산동, 갑을그레이트밸리)",962393,포인트모바일,318020,서울특별시,금천구,126.887383891,37.479528326
1467,41020,폴라리스오피스,코스닥시장상장법인,582,소프트웨어 개발 및 공급업,영업이익(손실),"2,354,835,542","-7,887,420,488","-5,948,732,642",269852,19970407,58221,"서울특별시 구로구 디지털로31길 12 11층, 15층",269852,폴라리스오피스,41020,서울특별시,구로구,126.895363474,37.485106943
1469,290720,푸드나무,코스닥시장상장법인,479,무점포 소매업,영업이익(손실),"1,493,854,633","6,644,521,992","5,467,594,597",1259311,20130114,47912,서울특별시 마포구 월드컵북로 396 누리꿈스퀘어,1259311,푸드나무,290720,서울특별시,마포구,126.889782088,37.579428847
1471,94940,푸른기술,코스닥시장상장법인,263,컴퓨터 및 주변 장치 제조업,영업이익(손실),"78,736,520","101,904,412","372,414,192",537832,19970724,263,서울특별시 서초구 효령로60길 23-10 (주)푸른빌딩 2층,537832,푸른기술,94940,서울특별시,서초구,127.019393691,37.484424996
1478,220100,퓨쳐켐,코스닥시장상장법인,212,의약품 제조업,영업이익(손실),"-7,894,243,565","-4,870,333,538","-5,366,988,389",1053540,20010813,212,서울특별시 성동구 성수일로8길 59 평화빌딩 B동 3층(성수동2가),1053540,퓨쳐켐,220100,서울특별시,성동구,127.056897575,37.545175737
1481,203690,프로스테믹스,코스닥시장상장법인,211,기초 의약 물질 및 생물학적 제제 제조업,영업이익(손실),"-5,830,363,725","-1,231,514,675","-2,274,174,027",1036367,20140625,171,서울특별시 성동구 왕십리로 58 FORHU 309호,1036367,프로스테믹스,203690,서울특별시,성동구,127.045206906,37.542695632
1487,300080,플리토,코스닥시장상장법인,631,"자료 처리, 호스팅, 포털 및 기타 인터넷 정보 매개 서비스업",영업이익(손실),"-6,143,736,170","-3,410,300,603","-5,737,235,186",1237434,20120824,63120,서울특별시 강남구 테헤란로 211 한국고등교육재단빌딩 9층,1237434,플리토,300080,서울특별시,강남구,127.039155252,37.501820805
1488,241820,피씨엘,코스닥시장상장법인,213,의료용품 및 기타 의약 관련제품 제조업,영업이익(손실),"-25,766,376,299","25,675,912,379","-6,412,496,625",1051092,20080212,213,"서울특별시 금천구 디지털로9길 99 (가산동, 스타밸리) 701호",1051092,피씨엘,241820,서울특별시,금천구,126.884812172,37.481679379
1492,2230,피에스텍,코스닥시장상장법인,272,"측정, 시험, 항해, 제어 및 기타 정밀 기기 제조업; 광학 기기 제외",영업이익(손실),"1,291,468,850","-598,328,914","-1,739,809,622",155638,19571212,27214,서울특별시 성동구 왕십리로 46(성수동1가),155638,피에스텍,2230,서울특별시,성동구,127.044470309,37.541602058
1499,163730,핑거,코스닥시장상장법인,582,소프트웨어 개발 및 공급업,영업이익,"7,425,039,236","3,294,975,153","4,765,027,141",1142075,20001229,582,"서울특별시 영등포구 여의대로 24, 43층(여의도동, 전국경제인연합회회관)",1142075,핑거,163730,서울특별시,영등포구,126.920045279,37.521693217
1502,39130,하나투어,유가증권시장상장법인,752,여행사 및 기타 여행 보조 서비스업,영업이익(손실),"-127,293,510,463","-114,866,698,486","7,460,033,702",269940,19931101,75210,서울특별시 종로구 인사동5길 41 (주)하나투어,269940,하나투어,39130,서울특별시,종로구,126.984170401,37.571852757
1507,352820,하이브,유가증권시장상장법인,592,오디오물 출판 및 원판 녹음업,영업이익,"190,247,657,000","145,515,649,000","98,742,469,000",1204056,20050204,592,서울특별시 용산구 한강대로 42 용산트레이드센터,1204056,하이브,352820,서울특별시,용산구,126.964228835,37.524596195
1512,80,하이트진로,유가증권시장상장법인,111,알코올 음료 제조업,영업이익,"174,111,104,900","198,478,557,062","88,246,563,619",150244,19540615,11122,서울특별시 강남구 영동대로 714,150244,하이트진로,80,서울특별시,강남구,127.056769788,37.521642454
1513,4590,한국가구,코스닥시장상장법인,464,생활용품 도매업,영업이익,"14,936,233,953","10,490,762,873","8,690,313,384",156442,19660520,464,서울특별시 강남구  학동로 120,156442,한국가구,4590,서울특별시,강남구,127.024304276,37.511719833
1515,39340,한국경제TV,코스닥시장상장법인,602,텔레비전 방송업,영업이익(손실),"26,534,790,009","18,182,632,881","13,691,975,708",263371,19990906,60221,서울특별시 중구 청파로 463 한국경제신문사빌딩,263371,한국경제TV,39340,서울특별시,중구,126.967069684,37.559922952
1516,5430,한국공항,유가증권시장상장법인,529,기타 운송관련 서비스업,영업이익(손실),"-902,546,870","-50,579,153,109","23,035,754,160",156691,19680220,52939,서울특별시 강서구  양천로 13 (방화동) 한국공항(주),156691,한국공항,5430,서울특별시,강서구,126.805513316,37.57335955
1517,34950,한국기업평가,코스닥시장상장법인,759,기타 사업 지원 서비스업,영업이익,"36,219,070,401","32,710,069,584","31,647,801,133",156956,19831229,75993,서울특별시 영등포구 의사당대로 97 교보증권 7층,156956,한국기업평가,34950,서울특별시,영등포구,126.924585875,37.522516001
1521,4090,한국석유공업,유가증권시장상장법인,239,기타 비금속 광물제품 제조업,영업이익,"15,555,452,409","17,445,000,515","6,141,381,489",157991,19641211,23999,서울특별시 용산구  이촌로 166,157991,한국석유공업,4090,서울특별시,용산구,126.965632736,37.521412198
1523,2200,한국수출포장공업,유가증권시장상장법인,172,"골판지, 종이 상자 및 종이 용기 제조업",영업이익(손실),"20,005,644,083","10,883,823,163","19,270,972,723",158112,19571121,1721,서울특별시 서초구 서초중앙로 63,158112,한국수출포장공업,2200,서울특별시,서초구,127.014451884,37.487329803
1527,63570,한국전자금융,코스닥시장상장법인,759,기타 사업 지원 서비스업,영업이익(손실),"14,287,632,791","14,182,420,442","18,673,086,555",363769,20000111,759,"서울특별시 마포구 새창로 7 6층, 7층, 8층(도화동)",363769,한국전자금융,63570,서울특별시,마포구,126.950935853,37.542455746
1528,41460,한국전자인증,코스닥시장상장법인,582,소프트웨어 개발 및 공급업,영업이익(손실),"5,525,878,170","4,596,355,359","2,321,879,881",361169,19990326,58221,"서울특별시 서초구  서초대로 320 하림인터내셔날빌딩 (서초동, 하림빌딩7층)",361169,한국전자인증,41460,서울특별시,서초구,127.01658407,37.494195543
1529,6200,한국전자홀딩스,유가증권시장상장법인,649,기타 금융업,영업이익(손실),"38,507,381,292","-195,791,683","-12,104,565,637",159254,19690909,64992,서울특별시 서초구  마방로10길 5,159254,한국전자홀딩스,6200,서울특별시,서초구,127.043288361,37.477058902
1532,25770,한국정보통신,코스닥시장상장법인,612,전기 통신업,영업이익(손실),"23,559,172,000","21,079,400,000","34,228,775,000",159342,19860509,61299,서울특별시 중구  세종대로 39 대한서울상공회의소 7층,159342,한국정보통신,25770,서울특별시,중구,126.973777605,37.560714198
1537,50540,한국코퍼레이션,코스닥시장상장법인,759,기타 사업 지원 서비스업,영업이익(손실),"1,073,832,792","-665,192,281","-12,297,978,915",302078,19910724,75991,서울특별시 중구 소월로2길 30 남산트라팰리스,302078,엠피씨플러스,50540,서울특별시,중구,126.975967378,37.553803888
1542,53590,한국테크놀로지,코스닥시장상장법인,303,자동차 신품 부품 제조업,영업이익(손실),"5,634,276,508","5,172,177,022","-4,223,561,271",355548,19970722,473,서울특별시 중구 소월로2길 30 남산트라팰리스,355548,한국테크놀로지,53590,서울특별시,중구,126.975967378,37.553803888
1545,123690,한국화장품,유가증권시장상장법인,464,생활용품 도매업,영업이익(손실),"-3,193,220,979","-16,993,356,942","-17,394,170,012",823429,20100503,46443,서울특별시 종로구 청계천로 35,823429,한국화장품,123690,서울특별시,종로구,126.981376171,37.569341486
1547,14790,한라,유가증권시장상장법인,412,토목 건설업,영업이익(손실),"78,587,300,029","89,789,194,057","63,553,472,712",161116,19800502,41221,서울특별시 송파구 올림픽로 289,161116,HL D&I,14790,서울특별시,송파구,127.102507284,37.514608272
1550,53690,한미글로벌,유가증권시장상장법인,721,"건축 기술, 엔지니어링 및 관련 기술 서비스업",영업이익(손실),"19,637,903,345","16,500,753,182","24,407,031,088",413523,19960618,72111,서울특별시 강남구 테헤란로87길 36 도심공항타워 층,413523,한미글로벌,53690,서울특별시,강남구,127.058596939,37.51023309
1554,47080,한빛소프트,코스닥시장상장법인,582,소프트웨어 개발 및 공급업,영업이익(손실),"-713,057,804","-742,133,303","-189,555,952",348292,19990106,5821,서울특별시 금천구 가산디지털1로 171 가산에스케이브이원센터 3층,348292,한빛소프트,47080,서울특별시,금천구,126.880661987,37.480832056
1556,20000,한섬,유가증권시장상장법인,141,봉제의복 제조업,영업이익(손실),"152,192,853,992","102,052,974,543","106,549,798,864",188089,19870525,14112,서울특별시 강남구  도산대로 523 한섬빌딩,188089,한섬,20000,서울특별시,강남구,127.050700949,37.524964123
1557,105630,한세실업,유가증권시장상장법인,141,봉제의복 제조업,영업이익(손실),"106,694,162,989","64,864,260,293","84,888,528,510",728638,20090106,14199,서울특별시 영등포구 은행로 29 정우빌딩,728638,한세실업,105630,서울특별시,영등포구,126.921888886,37.529083843
1558,69640,한세엠케이,유가증권시장상장법인,474,"섬유, 의복, 신발 및 가죽제품 소매업",영업이익(손실),"-12,087,443,066","-18,861,876,976","-23,884,332,522",357360,19950331,4741,서울특별시 강남구  논현로 633,357360,한세엠케이,69640,서울특별시,강남구,127.032171966,37.509981204
1559,16450,한세예스24홀딩스,유가증권시장상장법인,141,봉제의복 제조업,영업이익(손실),"134,681,974,504","81,651,030,400","97,998,490,723",161976,19821118,1419,서울특별시 영등포구 은행로 30 중소기업중앙회 6층,161976,한세예스24홀딩스,16450,서울특별시,영등포구,126.922626782,37.528191347
1560,9180,한솔로지스틱스,유가증권시장상장법인,529,기타 운송관련 서비스업,영업이익(손실),"30,304,814,315","13,076,633,836","9,519,510,274",140946,19730814,5299,서울특별시 중구 을지로 100 파인애비뉴 B동 22층,140946,한솔로지스틱스,9180,서울특별시,중구,126.988757341,37.565788064
1561,70590,한솔인티큐브,코스닥시장상장법인,620,"컴퓨터 프로그래밍, 시스템 통합 및 관리업",영업이익(손실),"-243,794,041","-5,520,286,382","-1,012,657,526",470829,20031215,62010,"서울특별시 마포구 월드컵북로 396, 14층 (상암동, 누리꿈스퀘어비즈니스타워)",470829,한솔인티큐브,70590,서울특별시,마포구,126.889782088,37.579428847
1562,213500,한솔제지,유가증권시장상장법인,171,"펄프, 종이 및 판지 제조업",영업이익(손실),"60,727,652,921","94,561,342,525","95,958,210,793",1060744,20150102,1712,"서울특별시 중구 을지로 100 비동 (을지로2가, 파인애비뉴)",1060744,한솔제지,213500,서울특별시,중구,126.988142548,37.565648682
1563,14680,한솔케미칼,유가증권시장상장법인,201,기초 화학물질 제조업,영업이익,"197,684,583,161","151,933,828,832","111,153,549,117",140955,19800313,20129,서울특별시 강남구 테헤란로 513K Tower 7F / 8F,140955,한솔케미칼,14680,서울특별시,강남구,127.058887174,37.508003109
1564,4710,한솔테크닉스,유가증권시장상장법인,262,전자 부품 제조업,영업이익,"-4,255,870,192","32,460,187,655","25,466,383,367",157399,19660820,26299,서울특별시 중구 을지로 100,157399,한솔테크닉스,4710,서울특별시,중구,126.988142548,37.565648682
1565,10420,한솔피엔에스,유가증권시장상장법인,467,기타 전문 도매업,영업이익(손실),"4,551,324,744","3,891,210,459","3,983,302,577",103626,19750204,467,서울특별시 중구 퇴계로 213 일흥빌딩 5층,103626,한솔피엔에스,10420,서울특별시,중구,126.995495057,37.561910701
1566,4150,한솔홀딩스,유가증권시장상장법인,649,기타 금융업,영업이익(손실),"18,378,267,000","12,456,630,000","14,799,625,000",171636,19650119,64992,서울특별시 중구 을지로 100 파인애비뉴 B동 24층,171636,한솔홀딩스,4150,서울특별시,중구,126.988757341,37.565788064
1567,25750,한솔홈데코,유가증권시장상장법인,161,제재 및 목재 가공업,영업이익(손실),"8,619,101,420","2,739,139,768","-1,840,086,136",203582,19911227,161,서울특별시 동작구 보라매로5길 15 전문건설회관빌딩,203582,한솔홈데코,25750,서울특별시,동작구,126.924327749,37.492650257
1569,42520,한스바이오메드,코스닥시장상장법인,213,의료용품 및 기타 의약 관련제품 제조업,영업이익(손실),"-19,777,650,117","-3,407,508,939","12,594,632,865",349060,19990915,21300,"서울특별시 송파구 정의로8길 7 9F,11F,12F",349060,한스바이오메드,42520,서울특별시,송파구,127.115918337,37.486214792
1576,46110,한일네트웍스,코스닥시장상장법인,631,"자료 처리, 호스팅, 포털 및 기타 인터넷 정보 매개 서비스업",영업이익(손실),"13,011,892,949","10,007,527,116","8,722,634,934",277736,19980826,63112,서울특별시 중구 수표로 34 씨티센터타워 10층,277736,한일네트웍스,46110,서울특별시,중구,126.990362266,37.564349651
1579,2220,한일철강,유가증권시장상장법인,241,1차 철강 제조업,영업이익(손실),"29,642,526,663","-4,237,473,773","-7,314,730,415",163196,19571205,2419,서울특별시 중구  퇴계로27길 28 (한영빌딩 9층),163196,한일철강,2220,서울특별시,중구,126.991626611,37.562370535
1583,2320,한진,유가증권시장상장법인,493,도로 화물 운송업,영업이익(손실),"99,432,891,702","105,917,310,389","90,655,085,859",163512,19580310,49309,서울특별시 중구 남대문로 63 한진빌딩,163512,한진,2320,서울특별시,중구,126.981363692,37.563079039
1584,180640,한진칼,유가증권시장상장법인,511,항공 여객 운송업,영업이익,"-195,175,723,509","-221,140,549,162","-3,881,273,804",983040,20130801,511,서울특별시 중구 서소문로 117 -,983040,한진칼,180640,서울특별시,중구,126.974130526,37.563567979
1591,880,한화,유가증권시장상장법인,204,기타 화학제품 제조업,영업이익(손실),"2,927,888,000,000","1,549,002,000,000","103,388,000,000",160588,19521028,20494,서울특별시 중구  청계천로 86 24층,160588,한화,880,서울특별시,중구,126.986525106,37.567518804
1592,9830,한화솔루션,유가증권시장상장법인,201,기초 화학물질 제조업,영업이익,"738,347,655,292","594,183,118,076","459,151,320,504",162461,19740427,20111,서울특별시 중구 청계천로 86 한화빌딩,162461,한화솔루션,9830,서울특별시,중구,126.986525106,37.567518804
1601,84990,헬릭스미스,코스닥시장상장법인,701,자연과학 및 공학 연구개발업,영업이익(손실),"-48,518,323,592","-55,078,578,435","-41,733,788,624",359395,19961121,70113,서울특별시 강서구 마곡중앙8로7길 21 -,359395,헬릭스미스,84990,서울특별시,강서구,126.838150593,37.562731938
1602,720,현대건설,유가증권시장상장법인,412,토목 건설업,영업이익,"753,504,000,000","548,972,000,000","859,667,000,000",164478,19500110,41221,서울특별시 종로구  율곡로 75,164478,현대건설,720,서울특별시,종로구,126.987519036,37.577768623
1616,307950,현대오토에버,유가증권시장상장법인,582,소프트웨어 개발 및 공급업,영업이익,"96,106,277,138","86,813,994,800","80,212,335,242",362441,20000410,582,서울특별시 강남구 테헤란로 510 루첸타워,362441,현대오토에버,307950,서울특별시,강남구,127.058649756,37.507020582
1622,227840,현대코퍼레이션홀딩스,유가증권시장상장법인,463,음ㆍ식료품 및 담배 도매업,영업이익(손실),"8,146,424,903","10,102,432,737","9,283,405,926",1108099,20151002,463,서울특별시 종로구 율곡로2길 25,1108099,현대코퍼레이션홀딩스,227840,서울특별시,종로구,126.98051059,37.574365462
1623,126560,현대퓨처넷,유가증권시장상장법인,602,텔레비전 방송업,영업이익(손실),"7,411,747,056","-16,921,741,186","-2,610,619,632",403632,19920316,61299,"서울특별시 서초구 반포대로 19 (서초동, 현대퓨처넷빌딩)",403632,현대퓨처넷,126560,서울특별시,서초구,127.011926941,37.482183518
1624,57050,현대홈쇼핑,유가증권시장상장법인,479,무점포 소매업,영업이익,"128,486,910,189","172,324,877,046","143,224,648,166",412597,20010529,47919,서울특별시 강동구  올림픽로70길 34,412597,현대홈쇼핑,57050,서울특별시,강동구,127.125623864,37.539050272
1627,11080,형지I&C,코스닥시장상장법인,141,봉제의복 제조업,정상영업손익,"-2,904,940,471","-5,330,610,708","450,766,081",142713,19760225,1419,"서울특별시 강남구 논현로 322 4층(역삼동, 형지빌딩)",142713,형지I&C,11080,서울특별시,강남구,127.040445786,37.494122173
1629,3010,혜인,유가증권시장상장법인,465,기계장비 및 관련 물품 도매업,영업이익(손실),"9,063,861,690","8,819,184,380","11,803,676,728",165343,19601017,465,서울특별시 서초구  동산로 86 혜인빌딩,165343,혜인,3010,서울특별시,서초구,127.048002267,37.473018325
1638,16580,환인제약,유가증권시장상장법인,212,의약품 제조업,영업이익(손실),"31,275,795,116","28,418,311,692","26,164,673,759",166573,19821216,21210,"서울특별시 송파구 법원로6길 11 (문정동, 환인빌딩)",166573,환인제약,16580,서울특별시,송파구,127.122198053,37.483647504
1640,94280,효성 ITX,유가증권시장상장법인,759,기타 사업 지원 서비스업,영업이익(손실),"20,287,985,472","16,812,254,864","13,026,206,983",414850,19970509,759,서울특별시 영등포구  선유동2로 57 이레빌딩 15층,414850,효성 ITX,94280,서울특별시,영등포구,126.896867699,37.533836305
1642,298040,효성중공업,유가증권시장상장법인,281,"전동기, 발전기 및 전기 변환ㆍ공급ㆍ제어 장치 제조업",영업이익,"120,066,031,213","44,074,735,485","130,252,420,646",1316245,20180604,281,서울특별시 마포구 마포대로 119 효성빌딩,1316245,효성중공업,298040,서울특별시,마포구,126.951677518,37.545639228
1644,81660,휠라홀딩스,유가증권시장상장법인,464,생활용품 도매업,영업이익(손실),"492,851,154,169","341,077,884,281","470,676,492,646",195229,19910723,464,"서울특별시 강동구 천호대로 1077 이스트센트럴타워15층,16층,17층,18층",195229,휠라홀딩스,81660,서울특별시,강동구,127.132165194,37.53659262
1645,290270,휴네시온,코스닥시장상장법인,582,소프트웨어 개발 및 공급업,영업이익(손실),"2,879,699,999","2,805,532,107","1,897,965,383",1251577,20031215,582,서울특별시 강남구 학동로97길 20 성호빌딩 2층/3층,1251577,휴네시온,290270,서울특별시,강남구,127.055518118,37.521146604
1646,353190,휴럼,코스닥시장상장법인,107,기타 식품 제조업,영업이익(손실),"1,263,941,163","7,445,199,549",,1453670,20200331,107,"서울특별시 금천구 가산디지털2로 115 416호(가산동, 대륭테크노타운3차)",1453670,휴럼,353190,서울특별시,금천구,126.879009674,37.477893241
1652,79980,휴비스,유가증권시장상장법인,205,화학섬유 제조업,영업이익(손실),"6,490,560,612","39,869,748,147","4,867,302,957",362238,20001101,20501,서울특별시 강남구  학동로 343,362238,휴비스,79980,서울특별시,강남구,127.040619448,37.51748074
1654,5010,휴스틸,유가증권시장상장법인,241,1차 철강 제조업,영업이익(손실),"63,214,154,152","17,657,216,066","-12,915,905,238",156488,19670418,2413,"서울특별시 강남구  테헤란로 512 (대치동, 신안빌딩 14층)",156488,휴스틸,5010,서울특별시,강남구,127.059248564,37.507245372
1659,69260,휴켐스,유가증권시장상장법인,204,기타 화학제품 제조업,영업이익(손실),"93,395,046,788","95,247,595,160","106,356,571,907",426086,20020915,2049,서울특별시 중구  퇴계로 173 19층,426086,티케이지휴켐스,69260,서울특별시,중구,126.991058511,37.56182408
1661,189980,흥국에프엔비,코스닥시장상장법인,112,비알코올 음료 및 얼음 제조업,영업이익(손실),"6,695,133,134","2,479,235,199","5,813,142,782",916516,20080325,11209,"서울특별시 서초구 마방로 60 24층 (양재동, 트러스트타워)",916516,흥국에프엔비,189980,서울특별시,서초구,127.043743809,37.477190003
1662,3280,흥아해운,유가증권시장상장법인,501,해상 운송업,영업이익(손실),"-1,874,688,534","-5,797,542,983","-12,364,292,518",167208,19611208,50112,"서울특별시 중구 남대문로9길 39 서울시 중구 남대문로9길 39(을지로1가, 부림빌딩) 8층",167208,흥아해운,3280,서울특별시,중구,126.98024536,37.566663685
1663,37440,희림,코스닥시장상장법인,721,"건축 기술, 엔지니어링 및 관련 기술 서비스업",영업이익(손실),"8,283,915,220","9,145,096,332","7,234,634,349",236863,19960730,72111,서울특별시 강동구 상일로6길 39-,236863,희림,37440,서울특별시,강동구,127.175354383,37.549833731
1665,1040,CJ,유가증권시장상장법인,649,기타 금융업,영업이익,"1,881,800,099,000","1,390,340,166,000","1,509,154,524,000",148540,19530801,64992,"서울특별시 중구 소월로2길 12 (남대문로5가, CJ THE CENTER)",148540,CJ,1040,서울특별시,중구,126.975974645,37.554600952
1666,120,CJ대한통운,유가증권시장상장법인,493,도로 화물 운송업,영업이익,"343,880,765,667","325,337,561,292","307,186,346,174",113410,19301115,493,서울특별시 종로구 종로5길 7(청진동) Tower 8,113410,CJ대한통운,120,서울특별시,종로구,126.980547123,37.570669768
1668,210,DL,유가증권시장상장법인,649,기타 금융업,영업이익(손실),"221,893,397,682","119,049,765,679","135,985,787,217",109693,19391010,20111,서울특별시 종로구 통일로 134 디타워 돈의문,109693,DL,210,서울특별시,종로구,126.966357117,37.566735081
1669,375500,DL이앤씨,유가증권시장상장법인,412,토목 건설업,영업이익,"957,257,982,914",,,1524093,20210104,412,서울특별시 종로구 통일로 134,1524093,DL이앤씨,375500,서울특별시,종로구,126.966357117,37.566735081
1671,78930,GS,유가증권시장상장법인,649,기타 금융업,영업이익(손실),"2,640,272,000,000","920,569,000,000","2,033,142,000,000",500254,20040701,64992,서울특별시 강남구 논현로 508,500254,GS,78930,서울특별시,강남구,127.03747601,37.502001742
1672,6360,GS건설,유가증권시장상장법인,411,건물 건설업,영업이익,"646,485,539,335","750,397,845,885","767,266,689,077",120030,19691219,4111,서울특별시 종로구 종로 33 그랑서울,120030,GS건설,6360,서울특별시,종로구,126.981435735,37.571014181
1673,1250,GS글로벌,유가증권시장상장법인,468,상품 종합 도매업,영업이익(손실),"38,846,703,450","32,299,928,715","58,277,395,763",138190,19540731,468,서울특별시 강남구 논현로 508 GS강남타워,138190,GS글로벌,1250,서울특별시,강남구,127.03747601,37.502001742
1674,12630,HDC,유가증권시장상장법인,649,기타 금융업,영업이익,"368,697,035,249","544,670,794,788","128,121,494,512",164636,19771014,649,서울특별시 강남구 영동대로 520 아이파크타워,164636,HDC,12630,서울특별시,강남구,127.061106445,37.513706885
1676,294870,HDC현대산업개발,유가증권시장상장법인,411,건물 건설업,영업이익(손실),"273,435,124,620","585,721,101,017","551,487,293,833",1310269,20180502,411,서울특별시 용산구 한강대로23길 55 현대아이파크몰 9층,1310269,HDC현대산업개발,294870,서울특별시,용산구,126.964860965,37.529839228
1680,3550,LG,유가증권시장상장법인,649,기타 금융업,영업이익(손실),"2,460,104,000,000","1,586,056,000,000","841,193,000,000",120021,19470105,64992,서울특별시 영등포구  여의대로 128,120021,LG,3550,서울특별시,영등포구,126.929139246,37.527885439
1681,51900,LG생활건강,유가증권시장상장법인,204,기타 화학제품 제조업,영업이익(손실),"1,289,630,423,605","1,220,864,731,311","1,176,411,246,904",356370,20010403,20422,서울특별시 종로구  새문안로 58,356370,LG생활건강,51900,서울특별시,종로구,126.971562298,37.569268927
1682,373220,LG에너지솔루션,유가증권시장상장법인,282,일차전지 및 축전지 제조업,영업이익(손실),"768,470,000,000","-475,206,000,000",,1515323,20201201,28202,"서울특별시 영등포구 여의대로 108, 타워 1",1515323,LG에너지솔루션,373220,서울특별시,영등포구,126.927176775,37.526637268
1683,32640,LG유플러스,유가증권시장상장법인,612,전기 통신업,영업이익,"979,014,000,000","886,151,000,000","686,244,000,000",231363,19960711,61220,서울특별시 용산구 한강대로 32 (한강로3가) LG유플러스 용산사옥,231363,LG유플러스,32640,서울특별시,용산구,126.963508029,37.523789662
1684,11070,LG이노텍,유가증권시장상장법인,262,전자 부품 제조업,영업이익,"1,264,223,240,881","681,019,009,060","476,352,883,489",105961,19760224,262,서울특별시 강서구 마곡중앙10로 30 LG사이언스파크,105961,LG이노텍,11070,서울특별시,강서구,126.831913626,37.562076013
1685,66570,LG전자,유가증권시장상장법인,264,통신 및 방송장비 제조업,영업이익(손실),"3,863,774,000,000","3,905,108,000,000","3,293,329,000,000",401731,20020401,264,서울특별시 영등포구  여의대로 128 LG트윈타워,401731,LG전자,66570,서울특별시,영등포구,126.929139246,37.527885439
1686,51910,LG화학,유가증권시장상장법인,201,기초 화학물질 제조업,영업이익 (손실),"5,025,466,000,000","1,805,359,000,000","831,703,000,000",356361,20010401,20111,서울특별시 영등포구  여의대로 128,356361,LG화학,51910,서울특별시,영등포구,126.929139246,37.527885439
1688,1120,LX인터내셔널,유가증권시장상장법인,461,상품 중개업,영업이익(손실),"656,217,086,586","159,835,470,836","134,784,427,823",120076,19531126,4610,서울특별시 종로구 새문안로 58 LG광화문빌딩,120076,LX인터내셔널,1120,서울특별시,종로구,126.971562298,37.569268927
1689,108670,LX하우시스,유가증권시장상장법인,222,플라스틱 제품 제조업,영업이익,"67,273,000,000","70,987,000,000","68,777,000,000",759513,20090402,2222,서울특별시 중구 후암로 98 LG서울역빌딩,759513,LX하우시스,108670,서울특별시,중구,126.974858791,37.553868314
1690,10060,OCI,유가증권시장상장법인,201,기초 화학물질 제조업,영업이익(손실),"625,984,935,000","-86,145,075,000","-180,605,008,000",148896,19740701,20129,서울특별시 중구  소공로 94 OCI 빌딩,148896,OCI,10060,서울특별시,중구,126.98046276,37.563347622
1691,17670,SK텔레콤,유가증권시장상장법인,612,전기 통신업,영업이익(손실),"1,387,162,000,000","1,248,578,000,000","1,038,668,000,000",159023,19840420,61220,서울특별시 중구  을지로 65 (을자로2가),159023,SK텔레콤,17670,서울특별시,중구,126.985128366,37.566487349
1695,50,경방,유가증권시장상장법인,471,종합 소매업,영업이익(손실),"53,796,815,200","21,853,996,547","32,020,529,934",101628,19191005,47119,서울특별시 영등포구 영중로 15 (영등포동 4가),101628,경방,50,서울특별시,영등포구,126.903646105,37.517195711
1697,11780,금호석유화학,유가증권시장상장법인,201,기초 화학물질 제조업,영업이익(손실),"2,406,835,526,956","742,159,982,879","365,369,653,508",106368,19761210,201,"서울특별시 중구 청계천로 100 (수표동, 시그니쳐타워)",106368,금호석유화학,11780,서울특별시,중구,126.988113238,37.567472764
1698,270,기아,유가증권시장상장법인,301,자동차용 엔진 및 자동차 제조업,영업이익,"5,065,685,000,000","2,066,457,000,000","2,009,680,000,000",106641,19441210,30121,서울특별시 서초구 헌릉로 12 기아자동차,106641,기아,270,서울특별시,서초구,127.042042669,37.463673451
1699,89600,나스미디어,코스닥시장상장법인,713,광고업,영업이익(손실),"32,875,303,239","26,967,943,321","30,558,603,138",486097,20000313,71310,"서울특별시 강남구 도곡로1길 14 삼일프라자오피스텔4,5F",486097,나스미디어,89600,서울특별시,강남구,127.032300026,37.491105813
1700,4270,남성,유가증권시장상장법인,467,기타 전문 도매업,영업이익(손실),"6,945,078,322","-1,397,825,101","461,284,793",172185,19650610,467,서울특별시 금천구 디지털로 130 남성프라자 15층,172185,남성,4270,서울특별시,금천구,126.881907647,37.475420328
1702,4370,농심,유가증권시장상장법인,107,기타 식품 제조업,영업이익,"106,139,720,895","160,297,491,725","78,816,048,821",108241,19650918,107,서울특별시 동작구  여의대방로 112,108241,농심,4370,서울특별시,동작구,126.918848395,37.49637303
1705,19680,대교,유가증권시장상장법인,851,초등 교육기관,영업이익,"-28,312,392,021","-28,026,933,362","29,395,530,613",108913,19861220,851,서울특별시 관악구 보라매로 3길 23 (보라매동 729-21) 대교타워,108913,대교,19680,서울특별시,관악구,126.925536346,37.491043397
1708,47040,대우건설,유가증권시장상장법인,411,건물 건설업,영업이익(손실),"738,313,485,108","558,257,521,374","364,061,074,652",124540,20001227,41112,서울특별시 중구 을지로 170 (을지로4가),124540,대우건설,47040,서울특별시,중구,126.997318381,37.566146865
1713,5160,동국산업,코스닥시장상장법인,241,1차 철강 제조업,영업이익(손실),"34,929,987,273","18,463,403,866","32,924,085,223",172680,19670901,24122,서울특별시 중구  다동길 46,172680,동국산업,5160,서울특별시,중구,126.981726026,37.567860541
1714,1230,동국제강,유가증권시장상장법인,241,1차 철강 제조업,영업이익(손실),"803,015,420,425","294,697,649,009","164,555,175,276",114792,19540707,241,서울특별시 중구  을지로5길 19 페럼타워,114792,동국제강,1230,서울특별시,중구,126.984209484,37.566978919
1715,1520,동양,유가증권시장상장법인,233,"시멘트, 석회, 플라스터 및 그 제품 제조업",영업이익,"7,617,953,056","-7,551,089,878","-20,118,140,716",117337,19550825,23322,서울특별시 영등포구 국제금융로2길 24 -,117337,동양,1520,서울특별시,영등포구,126.924832138,37.524305253
1717,150,두산,유가증권시장상장법인,715,회사 본부 및 경영 컨설팅 서비스업,영업이익(손실),"945,931,226,947","-20,352,567,986","783,035,133,162",117212,19331208,64992,서울특별시 중구  장충단로 275 두산타원,117212,두산,150,서울특별시,중구,127.008711651,37.568835534
1720,3160,디아이,유가증권시장상장법인,272,"측정, 시험, 항해, 제어 및 기타 정밀 기기 제조업; 광학 기기 제외",영업이익(손실),"16,476,140,212","5,521,898,717","-6,535,241,328",118275,19610316,27212,서울특별시 강남구  논현로 703,118275,디아이,3160,서울특별시,강남구,127.030119285,37.514402905
1721,1530,디아이동일,유가증권시장상장법인,461,상품 중개업,영업이익(손실),"48,592,979,653","26,370,789,955","17,436,087,739",118345,19550805,46103,서울특별시 강남구  테헤란로 516 정헌빌딩 8층,118345,디아이동일,1530,서울특별시,강남구,127.060079255,37.507412774
1724,267980,매일유업,코스닥시장상장법인,105,낙농제품 및 식용 빙과류 제조업,영업이익,"87,797,405,868","86,487,192,695","85,294,893,142",1234507,20170501,10501,서울특별시 종로구 종로1길 50 &nbsp,1234507,매일유업,267980,서울특별시,종로구,126.979616591,37.574765028
1728,9680,모토닉,유가증권시장상장법인,303,자동차 신품 부품 제조업,영업이익,"14,355,454,772","11,362,294,429","9,695,919,016",151128,19740307,303,"서울특별시 종로구 청계천로 41 9층(서린동, 영풍빌딩)",151128,모토닉,9680,서울특별시,종로구,126.982183495,37.56966904
1730,30790,비케이탑스,유가증권시장상장법인,620,"컴퓨터 프로그래밍, 시스템 통합 및 관리업",영업이익(손실),"-10,337,472,155","-3,417,462,534","-3,699,974,761",273615,19910330,620,"서울특별시 강남구 테헤란로 401 17층(삼성동, 남경센타)",273615,비케이탑스,30790,서울특별시,강남구,127.049144421,37.504969228
1731,18260,삼성에스디에스,유가증권시장상장법인,620,"컴퓨터 프로그래밍, 시스템 통합 및 관리업",영업이익,"808,097,771,607","871,618,076,210","990,089,397,088",126186,19850501,62021,서울특별시 송파구 올림픽로35길 125(신천동),126186,삼성에스디에스,18260,서울특별시,송파구,127.100462309,37.51628684
1732,28050,삼성엔지니어링,유가증권시장상장법인,721,"건축 기술, 엔지니어링 및 관련 기술 서비스업",영업이익,"503,288,807,347","361,182,672,371","422,717,496,667",126308,19781019,72129,서울특별시 강동구 상일동 500 삼성 GEC,126308,삼성엔지니어링,28050,서울특별시,강동구,0.0,0.0
1735,2170,삼양통상,유가증권시장상장법인,151,"가죽, 가방 및 유사 제품 제조업",영업이익(손실),"36,387,252,619","57,696,601,558","49,436,640,106",127042,19571012,15110,서울특별시 강남구 테헤란로 301(역삼동) 삼정개발빌딩 6층,127042,삼양통상,2170,서울특별시,강남구,127.043062532,37.503116773
1741,108860,셀바스AI,코스닥시장상장법인,582,소프트웨어 개발 및 공급업,영업이익(손실),"5,594,283,545","-1,530,056,408","-6,175,155,592",666064,19990331,5822,서울특별시 금천구 가산디지털1로 19 대륭테크노타운 18차 20층,666064,셀바스AI,108860,서울특별시,금천구,126.88651322,37.467607943
1744,86980,쇼박스,코스닥시장상장법인,591,"영화, 비디오물, 방송 프로그램 제작 및 배급업",영업이익,"1,924,376,679","-1,951,898,944","1,942,203,853",303794,19990610,59130,서울특별시 강남구 도산대로 310(논현동) 916빌딩 7~9층,303794,쇼박스,86980,서울특별시,강남구,127.03547417,37.521554684
1745,50960,수산아이앤티,코스닥시장상장법인,582,소프트웨어 개발 및 공급업,영업이익,"2,288,392,970","2,961,938,013","2,789,716,514",577016,19980303,582,"서울특별시 강남구 밤고개로5길 13 (수서동, 수산빌딩)",577016,수산아이앤티,50960,서울특별시,강남구,127.104035757,37.486641642
1746,131100,스카이이앤엠,코스닥시장상장법인,468,상품 종합 도매업,영업이익(손실),"-11,947,125,163","-14,929,253,059","-2,694,233,857",814786,20070314,591,"서울특별시 강남구 도산대로 414 13층 (청담동, 한성청담빌딩)",814786,초록뱀이앤엠,131100,서울특별시,강남구,127.041031449,37.5228679
1747,4970,신라교역,유가증권시장상장법인,31,어로 어업,영업이익,"16,894,920,312","-4,878,559,975","-4,247,759,543",135962,19670306,3111,서울특별시 강동구 고덕비즈밸리로6길 30 -,135962,신라교역,4970,서울특별시,강동구,127.159664011,37.568270632
1750,4170,신세계,유가증권시장상장법인,471,종합 소매업,영업이익,"517,400,647,833","88,483,188,736","467,798,272,893",136378,19551209,47111,서울특별시 중구  소공로 63 (충무로1가) 신세계백화점건물 (주)신세계,136378,신세계,4170,서울특별시,중구,126.980981049,37.560925287
1751,31430,신세계인터내셔날,유가증권시장상장법인,474,"섬유, 의복, 신발 및 가죽제품 소매업",영업이익,"91,971,396,487","33,764,331,574","84,491,939,395",234412,19801025,4741,서울특별시 강남구 도산대로 449 -,234412,신세계인터내셔날,31430,서울특별시,강남구,127.045407018,37.524310398
1752,3410,쌍용씨앤이,유가증권시장상장법인,233,"시멘트, 석회, 플라스터 및 그 제품 제조업",영업이익(손실),"248,732,059,385","250,161,895,107","229,221,973,823",138224,19620514,23311,서울특별시 중구 수표로 34 씨티센터타워 7~9층,138224,쌍용씨앤이,3410,서울특별시,중구,126.990362266,37.564349651
1753,10280,쌍용정보통신,코스닥시장상장법인,620,"컴퓨터 프로그래밍, 시스템 통합 및 관리업",영업이익(손실),"6,400,343,987","-10,519,359,714","458,755,996",138303,19811208,62021,서울특별시 중구 수표로 34 씨티센터타워 5층,138303,쌍용정보통신,10280,서울특별시,중구,126.990362266,37.564349651
1754,15540,쎌마테라퓨틱스,유가증권시장상장법인,759,기타 사업 지원 서비스업,영업이익(손실),"-4,894,028,449","-6,219,129,820","-13,342,079,977",108065,19810902,759,"서울특별시 강남구 역삼로19길 9 KT빌딩, 5층",108065,쎌마테라퓨틱스,15540,서울특별시,강남구,127.036871886,37.495950086
1756,99190,아이센스,코스닥시장상장법인,271,의료용 기기 제조업,영업이익(손실),"34,826,754,603","30,455,987,440","30,172,842,156",550994,20000504,27112,서울특별시 서초구 반포대로28길 43 아이센스 빌딩,550994,아이센스,99190,서울특별시,서초구,127.010699248,37.491364412
1757,158430,아톤,코스닥시장상장법인,582,소프트웨어 개발 및 공급업,영업이익(손실),"9,142,113,693","2,070,807,621","4,123,861,565",595182,19991013,58221,서울특별시 영등포구 여의대로 108 파크원타워1 26층,595182,아톤,158430,서울특별시,영등포구,126.927176775,37.526637268
1758,11090,에넥스,유가증권시장상장법인,320,가구 제조업,영업이익(손실),"-12,333,342,296","-8,514,826,614","-2,830,597,388",139764,19760304,32021,서울특별시 서초구 서초대로73길 40(서초동),139764,에넥스,11090,서울특별시,서초구,127.024556591,37.500917427
1759,31330,에스에이엠티,코스닥시장상장법인,465,기계장비 및 관련 물품 도매업,영업이익,"84,470,411,777","34,144,612,396","33,707,934,707",128661,19900627,4659,서울특별시 강남구  영동대로 315 대경빌딩,128661,에스에이엠티,31330,서울특별시,강남구,127.066034255,37.50249562
1772,111770,영원무역,유가증권시장상장법인,468,상품 종합 도매업,영업이익,"442,515,129,012","259,688,519,331","237,649,015,875",776820,20090702,46800,서울특별시 중구  만리재로 159,776820,영원무역,111770,서울특별시,중구,126.964078027,37.553228127
1773,9970,영원무역홀딩스,유가증권시장상장법인,649,기타 금융업,영업이익,"570,492,659,317","340,765,358,047","298,988,113,176",140964,19740620,64992,서울특별시 중구 만리재로 159 (주)영원무역,140964,영원무역홀딩스,9970,서울특별시,중구,126.964078027,37.553228127
1775,39830,오로라,코스닥시장상장법인,732,전문 디자인업,영업이익(손실),"10,606,169,157","8,765,577,064","12,596,995,489",141556,19850925,73203,서울특별시 강남구 테헤란로 624 오로라빌딩,141556,오로라,39830,서울특별시,강남구,127.066017396,37.509340058
1776,10470,오리콤,코스닥시장상장법인,713,광고업,영업이익(손실),"6,595,067,070","1,032,712,926","7,955,798,357",141671,19750224,71310,서울특별시 강남구  언주로 726 두산빌딩,141671,오리콤,10470,서울특별시,강남구,127.035197464,37.519381899
1777,48260,오스템임플란트,코스닥시장상장법인,271,의료용 기기 제조업,영업이익(손실),"143,330,553,864","98,097,937,707","42,901,163,935",341916,19970108,27191,서울특별시 강서구 마곡중앙12로 3 오스템임플란트,341916,오스템임플란트,48260,서울특별시,강서구,126.829244523,37.567715853
1782,139480,이마트,유가증권시장상장법인,471,종합 소매업,영업이익,"316,790,902,379","237,151,679,441","150,652,508,829",872984,20110503,471,서울특별시 중구 세종대로7길 37,872984,이마트,139480,서울특별시,중구,126.972489577,37.560748856
1783,5950,이수화학,유가증권시장상장법인,201,기초 화학물질 제조업,영업이익,"82,059,895,812","-36,843,269,764","6,552,862,554",145552,19690117,20111,서울특별시 서초구 사평대로 84 이수화학,145552,이수화학,5950,서울특별시,서초구,126.993879332,37.498022107
1784,760,이화산업,유가증권시장상장법인,467,기타 전문 도매업,영업이익(손실),"-4,965,189,508","-3,486,085,832","-1,689,015,924",145686,19500329,46731,서울특별시 중구 삼일대로 299 (충무로2가),145686,이화산업,760,서울특별시,중구,126.988476552,37.561592404
1786,23810,인팩,유가증권시장상장법인,303,자동차 신품 부품 제조업,영업이익(손실),"12,820,102,452","12,965,531,923","-436,275,810",180795,19690625,303,서울특별시 송파구 백제고분로 450 -,180795,인팩,23810,서울특별시,송파구,127.112850367,37.510763819
1788,159580,제로투세븐,코스닥시장상장법인,464,생활용품 도매업,영업이익(손실),"2,332,611,072","568,790,635","11,241,650,244",563837,20000203,46414,서울특별시 마포구 상암산로 76YTN뉴스퀘어 17/18층,563837,제로투세븐,159580,서울특별시,마포구,126.892333689,37.579218699
1792,1630,종근당홀딩스,유가증권시장상장법인,212,의약품 제조업,영업이익,"34,410,730,012","89,262,180,331","86,159,910,151",149354,19560110,212,서울특별시 서대문구  충정로 8 종근당빌딩,149354,종근당홀딩스,1630,서울특별시,서대문구,126.963202374,37.559674163
1794,36180,지더블유바이텍,코스닥시장상장법인,465,기계장비 및 관련 물품 도매업,영업이익(손실),"-1,803,547,491","31,308,572","195,182,862",257149,19940420,4659,"서울특별시 금천구 벚꽃로 244 1101호(가산동, 벽산디지털밸리5차)",257149,지더블유바이텍,36180,서울특별시,금천구,126.885826446,37.47673913
1795,35000,지투알,유가증권시장상장법인,715,회사 본부 및 경영 컨설팅 서비스업,영업이익(손실),"22,247,918,898","25,274,130,574","21,891,878,780",140168,19840530,715,서울특별시 마포구  마포대로 155 LG마포B/D15F,140168,지투알,35000,서울특별시,마포구,126.953655998,37.548358618
1797,53210,케이티스카이라이프,유가증권시장상장법인,602,텔레비전 방송업,영업이익(손실),"73,018,655,032","73,845,539,233","69,357,292,753",349097,20010112,60229,"서울특별시 마포구 매봉산로 758층, 9층",349097,케이티스카이라이프,53210,서울특별시,마포구,0.0,0.0
1799,52400,코나아이,코스닥시장상장법인,582,소프트웨어 개발 및 공급업,영업이익(손실),"48,150,048,696","19,014,695,497","-2,608,530,430",349732,19980311,58221,서울특별시 영등포구  은행로 3 익스콘벤처타워 8층,349732,코나아이,52400,서울특별시,영등포구,126.919664722,37.527516056
1800,5420,코스모화학,유가증권시장상장법인,204,기타 화학제품 제조업,영업이익(손실),"30,483,818,557","5,000,687,087","-5,222,743,459",160302,19680212,2049,서울특별시 서초구  반포대로 43 코스모빌딩 5층,160302,코스모화학,5420,서울특별시,서초구,127.01090337,37.484245748
1810,2390,한독,유가증권시장상장법인,212,의약품 제조업,영업이익,"28,006,350,245","28,376,314,663","27,467,269,538",161046,19540701,21210,서울특별시 강남구  테헤란로 132,161046,한독,2390,서울특별시,강남구,127.033223217,37.49933057
1813,300720,한일시멘트,유가증권시장상장법인,233,"시멘트, 석회, 플라스터 및 그 제품 제조업",영업이익,"120,397,431,466","132,795,563,215","58,950,272,407",1319808,20180702,23311,서울특별시 서초구 효령로 275 서초동 1587 한일시멘트빌딩,1319808,한일시멘트,300720,서울특별시,서초구,127.014205268,37.484953522
1814,3300,한일홀딩스,유가증권시장상장법인,233,"시멘트, 석회, 플라스터 및 그 제품 제조업",영업이익,"130,788,787,439","157,057,559,689","83,622,939,392",162993,19611228,23311,서울특별시 서초구 효령로 275 서초동 1587 한일시멘트빌딩,162993,한일홀딩스,3300,서울특별시,서초구,127.014205268,37.484953522
1815,130660,한전산업,유가증권시장상장법인,721,"건축 기술, 엔지니어링 및 관련 기술 서비스업",영업이익,"17,515,390,232","19,034,399,384","21,041,396,896",194947,19900411,72129,서울특별시 중구  서소문로 115 한산빌딩,194947,한전산업,130660,서울특별시,중구,126.973613918,37.563443476
1817,86280,현대글로비스,유가증권시장상장법인,529,기타 운송관련 서비스업,영업이익,"1,126,245,705,403","662,150,585,636","876,537,578,535",360595,20010222,5299,서울특별시 성동구 왕십리로 83-21 -,360595,현대글로비스,86280,서울특별시,성동구,127.043686184,37.545012712
1820,69960,현대백화점,유가증권시장상장법인,471,종합 소매업,영업이익(손실),"264,365,188,000","135,863,991,000","292,244,731,000",428251,20021101,47111,서울특별시 강남구 테헤란로98길 12 -,428251,현대백화점,69960,서울특별시,강남구,127.062162294,37.50742026
1821,5380,현대자동차,유가증권시장상장법인,301,자동차용 엔진 및 자동차 제조업,영업이익,"6,678,949,000,000","2,394,671,000,000","3,605,505,000,000",164742,19671229,30121,서울특별시 서초구  헌릉로 12,164742,현대자동차,5380,서울특별시,서초구,127.042042669,37.463673451
1822,11760,현대코퍼레이션,유가증권시장상장법인,468,상품 종합 도매업,영업이익(손실),"35,069,901,698","33,238,150,521","43,519,777,199",164812,19761208,46800,서울특별시 종로구 율곡로2길 25 연합미디어센터빌딩 16층,164812,현대코퍼레이션,11760,서울특별시,종로구,126.98051059,37.574365462
1823,111110,호전실업,유가증권시장상장법인,141,봉제의복 제조업,영업이익,"20,619,478,511","1,538,991,428","19,326,035,963",226316,19850318,14199,"서울특별시 마포구 마포대로 19 신화빌딩, 11층, 12층",226316,호전실업,111110,서울특별시,마포구,126.944319326,37.539031334
1824,8770,호텔신라,유가증권시장상장법인,478,기타 상품 전문 소매업,V. 영업손익,"118,811,528,171","-185,280,168,134","295,859,974,844",165680,19730509,47859,서울특별시 중구 동호로 249 (주) 호텔신라,165680,호텔신라,8770,서울특별시,중구,127.007746192,37.557252713
1825,4800,효성,유가증권시장상장법인,649,기타 금융업,영업이익,"640,562,745,995","137,141,094,319","200,004,725,099",117188,19661103,649,서울특별시 마포구  마포대로 119 (공덕동),117188,효성,4800,서울특별시,마포구,126.951677518,37.545639228
1826,298050,효성첨단소재,유가증권시장상장법인,205,화학섬유 제조업,영업이익(손실),"437,309,926,236","34,208,423,167","158,326,476,760",1316254,20180604,205,서울특별시 마포구 마포대로 119 효성빌딩,1316254,효성첨단소재,298050,서울특별시,마포구,126.951677518,37.545639228
1827,298020,효성티앤씨,유가증권시장상장법인,205,화학섬유 제조업,영업이익,"1,423,650,756,975","266,559,583,344","322,913,486,443",1316227,20180604,2050,서울특별시 마포구 마포대로 119,1316227,효성티앤씨,298020,서울특별시,마포구,126.951677518,37.545639228
1828,298000,효성화학,유가증권시장상장법인,201,기초 화학물질 제조업,영업이익,"148,572,510,622","60,927,548,911","153,887,309,275",1316236,20180604,201,서울특별시 서초구 반포대로 235,1316236,효성화학,298000,서울특별시,서초구,127.003234256,37.500544663
